{"type": "FeatureCollection", "features": [{"type": "Feature", "geometry": {"type": "MultiPolygon", "coordinates": [[[[134.1378, 35.5404], [134.1363, 35.5403], [134.1372, 35.5397], [134.1378, 35.5404]]], [[[134.1199, 35.5266], [134.1145, 35.5262], [134.1101, 35.5272], [134.11, 35.5256], [134.1063, 35.5251], [134.1043, 35.5268], [134.1043, 35.5256], [134.1037, 35.5253], [134.1027, 35.5266], [134.1004, 35.527], [134.0985, 35.5246], [134.0955, 35.5242], [134.093, 35.5244], [134.0894, 35.5258], [134.0894, 35.525], [134.0882, 35.5244], [134.0875, 35.5247], [134.0874, 35.5241], [134.0862, 35.5245], [134.0853, 35.5241], [134.0845, 35.5249], [134.0824, 35.5252], [134.0815, 35.5246], [134.081, 35.5226], [134.0786, 35.5216], [134.0686, 35.5199], [134.0508, 35.5186], [134.0338, 35.5185], [134.0257, 35.5191], [134.0215, 35.5199], [134.0206, 35.5204], [134.0205, 35.5214], [134.0199, 35.5209], [134.0174, 35.5223], [134.0181, 35.5243], [134.0167, 35.5257], [134.0156, 35.5297], [134.0145, 35.53], [134.0131, 35.5294], [134.013, 35.5318], [134.0118, 35.5324], [134.012, 35.5329], [134.0105, 35.5355], [134.0075, 35.5379], [134.0045, 35.5359], [134.0047, 35.5337], [134.0037, 35.5326], [134.0025, 35.5327], [134.0026, 35.5319], [134.0017, 35.5318], [134.0013, 35.5307], [134.0024, 35.5307], [134.0019, 35.5302], [134.0027, 35.5291], [134.0016, 35.5286], [134.0019, 35.5267], [133.9999, 35.5249], [133.9955, 35.5242], [133.9955, 35.5233], [133.9941, 35.5249], [133.9915, 35.5256], [133.9896, 35.5231], [133.9852, 35.5224], [133.9838, 35.5228], [133.9826, 35.5254], [133.9802, 35.5225], [133.9782, 35.5223], [133.9776, 35.523], [133.9776, 35.5225], [133.9739, 35.523], [133.9722, 35.5217], [133.9701, 35.5215], [133.9652, 35.5229], [133.97, 35.519], [133.9708, 35.5124], [133.9686, 35.5103], [133.9679, 35.5077], [133.9646, 35.5043], [133.9641, 35.5028], [133.957, 35.4991], [133.9562, 35.4974], [133.9566, 35.495], [133.9552, 35.4926], [133.9542, 35.4886], [133.9559, 35.4861], [133.9543, 35.4856], [133.9544, 35.4828], [133.9524, 35.4801], [133.9519, 35.4752], [133.9485, 35.4691], [133.9481, 35.4658], [133.9466, 35.4639], [133.9461, 35.4618], [133.9482, 35.4567], [133.9481, 35.4554], [133.9523, 35.454], [133.9536, 35.451], [133.9532, 35.4502], [133.9516, 35.4506], [133.9518, 35.4491], [133.9498, 35.4441], [133.9475, 35.4416], [133.9481, 35.437], [133.9509, 35.4369], [133.9516, 35.436], [133.9507, 35.4352], [133.95, 35.4313], [133.9515, 35.428], [133.9534, 35.4274], [133.9635, 35.4271], [133.9647, 35.4266], [133.9655, 35.4245], [133.9688, 35.4241], [133.971, 35.4221], [133.9725, 35.4222], [133.9741, 35.4239], [133.9761, 35.424], [133.9781, 35.4252], [133.9804, 35.4244], [133.982, 35.4253], [133.9845, 35.4241], [133.9854, 35.4222], [133.989, 35.4205], [133.9917, 35.4228], [133.9938, 35.4236], [133.9957, 35.423], [133.9958, 35.4201], [133.9939, 35.4179], [133.9948, 35.4157], [133.9944, 35.4151], [133.9959, 35.4132], [133.9974, 35.4131], [133.9988, 35.4114], [134.0008, 35.4067], [133.9949, 35.4029], [133.9955, 35.4016], [133.9924, 35.399], [133.9924, 35.3978], [133.9911, 35.3963], [133.991, 35.3944], [133.9921, 35.3923], [133.9953, 35.3916], [133.9962, 35.3905], [133.9976, 35.3906], [133.9994, 35.3892], [134.0039, 35.3907], [134.0048, 35.3896], [134.0057, 35.3901], [134.0076, 35.3893], [134.0083, 35.388], [134.0105, 35.3887], [134.0134, 35.3876], [134.0147, 35.3862], [134.0168, 35.3869], [134.0204, 35.3845], [134.0268, 35.3825], [134.0277, 35.3814], [134.0316, 35.3792], [134.0346, 35.3791], [134.0383, 35.3777], [134.0421, 35.3775], [134.0415, 35.3765], [134.0415, 35.3737], [134.0377, 35.3722], [134.0355, 35.3699], [134.0352, 35.3686], [134.0336, 35.3682], [134.0334, 35.3663], [134.0314, 35.3664], [134.0284, 35.369], [134.0243, 35.3684], [134.024, 35.3641], [134.0191, 35.3636], [134.0179, 35.361], [134.0193, 35.3586], [134.0198, 35.356], [134.0172, 35.3519], [134.0148, 35.3504], [134.0158, 35.3461], [134.011, 35.3408], [134.0109, 35.3388], [134.0123, 35.337], [134.0146, 35.3359], [134.0155, 35.334], [134.0136, 35.3326], [134.0119, 35.3299], [134.0103, 35.3297], [134.0083, 35.3274], [134.0067, 35.3272], [134.0043, 35.3255], [134.0042, 35.3233], [134.001, 35.3199], [134.0006, 35.3188], [134.0012, 35.3181], [133.9994, 35.315], [134.0014, 35.3132], [134.0033, 35.3128], [134.0035, 35.3116], [134.0075, 35.3093], [134.0083, 35.3082], [134.012, 35.3068], [134.0155, 35.307], [134.0187, 35.3056], [134.0198, 35.3062], [134.0218, 35.3056], [134.0253, 35.3075], [134.0286, 35.3076], [134.0295, 35.3074], [134.0301, 35.3055], [134.0339, 35.304], [134.0378, 35.3045], [134.0427, 35.3034], [134.0482, 35.2986], [134.0502, 35.2988], [134.052, 35.2981], [134.0536, 35.2988], [134.0549, 35.2984], [134.0588, 35.3015], [134.0613, 35.303], [134.0624, 35.3029], [134.0644, 35.3021], [134.0652, 35.3004], [134.0701, 35.2972], [134.0707, 35.2993], [134.0754, 35.3027], [134.0837, 35.3027], [134.0853, 35.304], [134.085, 35.3055], [134.0863, 35.3073], [134.088, 35.307], [134.0914, 35.3054], [134.094, 35.3065], [134.0947, 35.3055], [134.0979, 35.3057], [134.0989, 35.3041], [134.0979, 35.3032], [134.0992, 35.3015], [134.1006, 35.3001], [134.1023, 35.3001], [134.1028, 35.2963], [134.1042, 35.295], [134.1081, 35.2935], [134.1098, 35.292], [134.1098, 35.2911], [134.1115, 35.2905], [134.1114, 35.2894], [134.1141, 35.2884], [134.1146, 35.2869], [134.1136, 35.2851], [134.1154, 35.2839], [134.1178, 35.2833], [134.1223, 35.281], [134.127, 35.2801], [134.1311, 35.2802], [134.1332, 35.2812], [134.1341, 35.2831], [134.1392, 35.279], [134.1398, 35.2815], [134.1435, 35.2807], [134.1457, 35.2816], [134.1469, 35.2809], [134.1483, 35.2816], [134.1482, 35.2778], [134.1534, 35.2746], [134.1552, 35.2723], [134.1574, 35.2716], [134.16, 35.2719], [134.1612, 35.2735], [134.1633, 35.2744], [134.1668, 35.2737], [134.1718, 35.2758], [134.1729, 35.2756], [134.1734, 35.2762], [134.1778, 35.2769], [134.1793, 35.2765], [134.1822, 35.2769], [134.189, 35.2792], [134.1924, 35.2786], [134.1947, 35.2788], [134.1977, 35.2804], [134.1993, 35.2872], [134.2023, 35.2872], [134.2048, 35.2886], [134.2076, 35.2893], [134.2087, 35.292], [134.2137, 35.2942], [134.2148, 35.2962], [134.2182, 35.2989], [134.2198, 35.3014], [134.2221, 35.2999], [134.2225, 35.2981], [134.2235, 35.2974], [134.2321, 35.2974], [134.2358, 35.2963], [134.2379, 35.2982], [134.2392, 35.2967], [134.2428, 35.2971], [134.245, 35.2983], [134.2477, 35.2975], [134.2495, 35.2955], [134.2521, 35.2961], [134.2534, 35.2971], [134.2538, 35.2991], [134.2561, 35.3024], [134.2669, 35.3056], [134.2689, 35.3067], [134.2705, 35.309], [134.2694, 35.3102], [134.269, 35.3125], [134.2627, 35.3126], [134.2574, 35.3153], [134.2546, 35.3205], [134.2551, 35.3246], [134.254, 35.326], [134.2541, 35.3274], [134.2508, 35.3273], [134.2488, 35.3264], [134.2451, 35.3281], [134.2456, 35.3289], [134.2444, 35.3308], [134.2445, 35.332], [134.2418, 35.3345], [134.2417, 35.3365], [134.2386, 35.3422], [134.2383, 35.3446], [134.2384, 35.3479], [134.2401, 35.3509], [134.2422, 35.3527], [134.2421, 35.3541], [134.241, 35.3562], [134.2384, 35.3571], [134.2378, 35.3584], [134.2342, 35.3609], [134.2348, 35.3632], [134.2325, 35.3658], [134.2321, 35.3684], [134.231, 35.369], [134.2307, 35.3716], [134.2319, 35.3729], [134.2319, 35.3746], [134.2337, 35.379], [134.2323, 35.3813], [134.2325, 35.3825], [134.2358, 35.3863], [134.2332, 35.3886], [134.2323, 35.391], [134.2288, 35.3914], [134.2253, 35.3933], [134.2253, 35.394], [134.2241, 35.3942], [134.2206, 35.3975], [134.2188, 35.3979], [134.2195, 35.3992], [134.2174, 35.4005], [134.2164, 35.4037], [134.2171, 35.4063], [134.2166, 35.4105], [134.2144, 35.4123], [134.2185, 35.4139], [134.226, 35.414], [134.2296, 35.4154], [134.2298, 35.417], [134.231, 35.4181], [134.2352, 35.4198], [134.2364, 35.421], [134.2382, 35.4212], [134.2387, 35.4236], [134.2381, 35.4252], [134.2388, 35.427], [134.2444, 35.4296], [134.2498, 35.4288], [134.2529, 35.4299], [134.2585, 35.4308], [134.2577, 35.4313], [134.2583, 35.4318], [134.26, 35.431], [134.2619, 35.4314], [134.2637, 35.4352], [134.2631, 35.4369], [134.2648, 35.4398], [134.2669, 35.4403], [134.2684, 35.4421], [134.2728, 35.4433], [134.2734, 35.4454], [134.2745, 35.4463], [134.2743, 35.4494], [134.2765, 35.4504], [134.2784, 35.4495], [134.2799, 35.4447], [134.2821, 35.4426], [134.2851, 35.4433], [134.2887, 35.4419], [134.2898, 35.4437], [134.2917, 35.4436], [134.2968, 35.4452], [134.3012, 35.4431], [134.3035, 35.4402], [134.3059, 35.4404], [134.3105, 35.4387], [134.3122, 35.4392], [134.3148, 35.4356], [134.3257, 35.4298], [134.3277, 35.4298], [134.3303, 35.4281], [134.3363, 35.4291], [134.3379, 35.4303], [134.341, 35.4303], [134.3424, 35.4295], [134.3421, 35.4283], [134.3442, 35.4268], [134.347, 35.4263], [134.349, 35.4246], [134.3519, 35.4258], [134.3631, 35.4262], [134.3634, 35.4276], [134.3659, 35.4272], [134.3714, 35.4295], [134.3723, 35.4309], [134.373, 35.4303], [134.3769, 35.4315], [134.3783, 35.4333], [134.38, 35.44], [134.3816, 35.4388], [134.3818, 35.4378], [134.3848, 35.4358], [134.3864, 35.4373], [134.3937, 35.438], [134.3975, 35.4403], [134.3988, 35.44], [134.4001, 35.4404], [134.4016, 35.4396], [134.4046, 35.4395], [134.4087, 35.4379], [134.4089, 35.4364], [134.4114, 35.436], [134.4134, 35.4345], [134.4154, 35.4339], [134.4222, 35.4361], [134.4283, 35.4349], [134.4298, 35.4366], [134.4341, 35.4364], [134.4361, 35.4376], [134.4391, 35.438], [134.4408, 35.4396], [134.4402, 35.4427], [134.4388, 35.4529], [134.4374, 35.4567], [134.4383, 35.4609], [134.4366, 35.4629], [134.4345, 35.4636], [134.4337, 35.4665], [134.435, 35.4669], [134.4344, 35.4712], [134.4335, 35.4723], [134.4325, 35.4724], [134.4314, 35.4747], [134.4303, 35.4754], [134.4308, 35.4785], [134.428, 35.48], [134.4272, 35.4816], [134.4274, 35.4851], [134.426, 35.4872], [134.4223, 35.4867], [134.4187, 35.4886], [134.4135, 35.4897], [134.408, 35.4867], [134.4034, 35.4879], [134.4006, 35.4899], [134.4002, 35.4921], [134.3969, 35.4946], [134.3965, 35.4969], [134.3948, 35.4981], [134.3943, 35.5003], [134.3935, 35.5006], [134.3871, 35.4981], [134.3854, 35.5001], [134.3831, 35.4999], [134.3784, 35.5008], [134.3762, 35.5003], [134.3746, 35.499], [134.3737, 35.4955], [134.3719, 35.4924], [134.3702, 35.492], [134.3677, 35.4899], [134.3653, 35.4896], [134.3646, 35.4883], [134.3633, 35.4879], [134.363, 35.4864], [134.3608, 35.486], [134.3611, 35.4842], [134.3603, 35.4834], [134.3572, 35.4828], [134.3567, 35.4816], [134.3529, 35.4822], [134.3524, 35.4807], [134.3512, 35.4803], [134.3504, 35.4779], [134.3482, 35.4784], [134.3457, 35.4778], [134.3442, 35.4788], [134.3434, 35.4783], [134.3388, 35.4794], [134.336, 35.4782], [134.3322, 35.481], [134.3307, 35.4829], [134.3292, 35.483], [134.3284, 35.4849], [134.325, 35.4852], [134.3244, 35.486], [134.3232, 35.4858], [134.3219, 35.4865], [134.3197, 35.4863], [134.3203, 35.4899], [134.3188, 35.4904], [134.3188, 35.4915], [134.3197, 35.493], [134.3207, 35.4932], [134.3219, 35.4965], [134.3241, 35.4977], [134.3236, 35.5026], [134.3253, 35.5059], [134.3247, 35.5072], [134.325, 35.5084], [134.3267, 35.5103], [134.3246, 35.5113], [134.3232, 35.5134], [134.3255, 35.5186], [134.3249, 35.5198], [134.3273, 35.5229], [134.3271, 35.5255], [134.3289, 35.5277], [134.3277, 35.5317], [134.3264, 35.5324], [134.3274, 35.5334], [134.3263, 35.5342], [134.3176, 35.5354], [134.3173, 35.5372], [134.3178, 35.5378], [134.317, 35.5385], [134.3124, 35.5387], [134.3107, 35.5381], [134.3086, 35.5387], [134.3077, 35.5394], [134.3078, 35.5422], [134.306, 35.5475], [134.3023, 35.5487], [134.2993, 35.5488], [134.2978, 35.5503], [134.2971, 35.5527], [134.2981, 35.5538], [134.296, 35.5567], [134.295, 35.5602], [134.2953, 35.5618], [134.2915, 35.5623], [134.2865, 35.5681], [134.2825, 35.5671], [134.2816, 35.5687], [134.2794, 35.5693], [134.278, 35.5712], [134.2778, 35.5729], [134.2772, 35.5727], [134.2779, 35.5718], [134.2773, 35.5721], [134.2771, 35.5714], [134.2768, 35.5722], [134.2765, 35.5715], [134.2772, 35.5706], [134.2768, 35.5686], [134.2761, 35.5687], [134.2763, 35.5682], [134.2745, 35.5674], [134.2747, 35.5666], [134.2741, 35.5669], [134.274, 35.5659], [134.2725, 35.5654], [134.2746, 35.566], [134.2752, 35.5647], [134.2743, 35.5645], [134.2736, 35.565], [134.2742, 35.5644], [134.2748, 35.5643], [134.2742, 35.5637], [134.2746, 35.563], [134.2707, 35.5596], [134.26, 35.5553], [134.2394, 35.5495], [134.2336, 35.5472], [134.2104, 35.542], [134.1981, 35.5402], [134.1975, 35.5403], [134.1914, 35.5501], [134.1846, 35.5471], [134.1781, 35.5402], [134.1781, 35.5357], [134.1752, 35.5351], [134.1745, 35.5355], [134.1719, 35.5344], [134.1711, 35.5354], [134.1714, 35.5343], [134.1704, 35.5337], [134.16, 35.5318], [134.1529, 35.5322], [134.1527, 35.5311], [134.1512, 35.5308], [134.144, 35.5312], [134.1507, 35.5308], [134.1314, 35.5284], [134.1252, 35.527], [134.1199, 35.5266]]]]}, "properties": {"name": "鳥取県鳥取市"}}, {"type": "Feature", "geometry": {"type": "Polygon", "coordinates": [[[133.3217, 35.4003], [133.3195, 35.3992], [133.3212, 35.3955], [133.3185, 35.3934], [133.3171, 35.3934], [133.3151, 35.392], [133.3137, 35.387], [133.3142, 35.3866], [133.3163, 35.3872], [133.3155, 35.3858], [133.3192, 35.3835], [133.32, 35.3811], [133.3214, 35.3804], [133.3239, 35.3773], [133.3236, 35.376], [133.3246, 35.3746], [133.3265, 35.3742], [133.329, 35.3747], [133.3307, 35.3762], [133.331, 35.3778], [133.3323, 35.3794], [133.3341, 35.3798], [133.335, 35.3818], [133.3384, 35.3823], [133.3392, 35.3851], [133.3418, 35.3854], [133.3433, 35.3869], [133.3431, 35.3887], [133.345, 35.3874], [133.3452, 35.3859], [133.3475, 35.3853], [133.3495, 35.3861], [133.3517, 35.3881], [133.3525, 35.3876], [133.3515, 35.3857], [133.3519, 35.3852], [133.3558, 35.3865], [133.3559, 35.3852], [133.3568, 35.3851], [133.3566, 35.3832], [133.3581, 35.3831], [133.359, 35.3815], [133.3639, 35.3809], [133.3641, 35.3801], [133.3692, 35.3796], [133.3697, 35.3787], [133.3711, 35.3789], [133.3755, 35.3787], [133.3792, 35.3813], [133.3805, 35.3811], [133.3815, 35.3828], [133.3805, 35.3831], [133.3807, 35.3841], [133.3818, 35.3839], [133.3823, 35.3851], [133.3807, 35.386], [133.3824, 35.3885], [133.3829, 35.3868], [133.3846, 35.3853], [133.389, 35.3836], [133.3893, 35.3853], [133.388, 35.3854], [133.3859, 35.3868], [133.3871, 35.3874], [133.3876, 35.3923], [133.39, 35.3921], [133.3906, 35.393], [133.3902, 35.3941], [133.389, 35.3942], [133.3892, 35.397], [133.3916, 35.3968], [133.3915, 35.396], [133.3952, 35.3958], [133.3959, 35.3947], [133.3979, 35.3948], [133.3959, 35.3986], [133.398, 35.4001], [133.3976, 35.4021], [133.4, 35.4021], [133.4, 35.4046], [133.4021, 35.4042], [133.4027, 35.3986], [133.4036, 35.3974], [133.4054, 35.3969], [133.4065, 35.3946], [133.408, 35.3954], [133.4115, 35.3922], [133.4113, 35.3916], [133.4124, 35.3916], [133.415, 35.3896], [133.4193, 35.3885], [133.421, 35.3892], [133.4209, 35.3901], [133.4305, 35.3916], [133.4405, 35.3904], [133.4453, 35.3924], [133.4463, 35.3935], [133.4471, 35.3948], [133.4453, 35.398], [133.4445, 35.4035], [133.4427, 35.4064], [133.4428, 35.4081], [133.442, 35.4097], [133.4421, 35.4105], [133.4431, 35.411], [133.4417, 35.4126], [133.4422, 35.4144], [133.4481, 35.4151], [133.452, 35.4164], [133.4549, 35.4157], [133.4596, 35.4165], [133.4656, 35.4159], [133.4677, 35.4177], [133.4673, 35.4186], [133.4687, 35.4211], [133.4688, 35.4227], [133.4714, 35.4234], [133.4729, 35.4251], [133.4793, 35.4294], [133.479, 35.4322], [133.4806, 35.437], [133.4748, 35.4399], [133.4712, 35.4401], [133.4663, 35.4438], [133.4642, 35.4475], [133.4583, 35.448], [133.4591, 35.4517], [133.4577, 35.4526], [133.4551, 35.4564], [133.4556, 35.4597], [133.4551, 35.4608], [133.4531, 35.462], [133.4497, 35.4621], [133.4462, 35.4612], [133.4416, 35.4626], [133.4417, 35.4598], [133.4342, 35.4596], [133.4353, 35.4606], [133.4337, 35.4612], [133.435, 35.4627], [133.4345, 35.4686], [133.4321, 35.4685], [133.4321, 35.4696], [133.4292, 35.4696], [133.4287, 35.4686], [133.4284, 35.4692], [133.4289, 35.4673], [133.4282, 35.4652], [133.4273, 35.4651], [133.4272, 35.464], [133.4262, 35.4642], [133.4261, 35.4637], [133.4277, 35.4638], [133.4277, 35.4629], [133.4262, 35.4614], [133.4256, 35.4619], [133.4257, 35.4631], [133.4254, 35.4622], [133.4259, 35.4607], [133.4231, 35.4586], [133.4126, 35.4553], [133.4111, 35.4541], [133.4098, 35.4548], [133.4091, 35.4541], [133.4082, 35.4545], [133.407, 35.4539], [133.4061, 35.4545], [133.4052, 35.4537], [133.404, 35.4543], [133.4021, 35.4533], [133.3996, 35.454], [133.399, 35.4534], [133.3936, 35.4535], [133.3931, 35.4541], [133.3917, 35.4536], [133.3908, 35.4461], [133.3879, 35.4435], [133.3866, 35.4414], [133.3869, 35.439], [133.384, 35.4386], [133.3853, 35.4377], [133.3857, 35.4361], [133.3841, 35.4324], [133.385, 35.4317], [133.3833, 35.4323], [133.3832, 35.4302], [133.3821, 35.4313], [133.381, 35.4314], [133.3809, 35.4296], [133.3803, 35.4296], [133.3799, 35.4302], [133.3768, 35.4308], [133.3765, 35.4338], [133.3751, 35.4321], [133.3751, 35.4326], [133.3702, 35.4331], [133.3703, 35.4335], [133.3673, 35.4344], [133.3689, 35.4414], [133.3741, 35.4564], [133.3684, 35.4584], [133.3678, 35.4581], [133.3671, 35.4591], [133.3661, 35.4586], [133.3652, 35.4593], [133.3642, 35.4589], [133.3627, 35.4595], [133.3616, 35.459], [133.361, 35.4597], [133.3594, 35.4592], [133.3584, 35.4601], [133.3572, 35.4595], [133.3563, 35.4604], [133.3551, 35.4599], [133.3542, 35.4606], [133.3531, 35.46], [133.3522, 35.4607], [133.3506, 35.4603], [133.3499, 35.4611], [133.3488, 35.4607], [133.3477, 35.4615], [133.3461, 35.4612], [133.3458, 35.462], [133.3443, 35.4617], [133.3431, 35.4625], [133.3421, 35.4621], [133.3416, 35.4629], [133.3405, 35.4636], [133.3415, 35.4629], [133.3413, 35.4623], [133.3398, 35.4626], [133.3401, 35.4632], [133.3397, 35.4626], [133.3369, 35.4636], [133.336, 35.4629], [133.3343, 35.4645], [133.3326, 35.4639], [133.3322, 35.4645], [133.3314, 35.4642], [133.3313, 35.4647], [133.3312, 35.4642], [133.3305, 35.4644], [133.3306, 35.4649], [133.3298, 35.4646], [133.3297, 35.4652], [133.3295, 35.4647], [133.3287, 35.4648], [133.3288, 35.4654], [133.3283, 35.4649], [133.328, 35.4656], [133.3277, 35.465], [133.3272, 35.4657], [133.3269, 35.4652], [133.3263, 35.4659], [133.3261, 35.4654], [133.3226, 35.4663], [133.3115, 35.4705], [133.3113, 35.471], [133.3107, 35.4705], [133.3093, 35.4709], [133.2994, 35.4748], [133.2873, 35.4817], [133.2758, 35.4892], [133.2682, 35.4954], [133.2624, 35.5012], [133.256, 35.4974], [133.2551, 35.4982], [133.2539, 35.498], [133.2454, 35.4945], [133.2416, 35.4911], [133.2403, 35.4889], [133.2364, 35.486], [133.227, 35.4772], [133.259, 35.4544], [133.2718, 35.4463], [133.3006, 35.4363], [133.3097, 35.4305], [133.3205, 35.4104], [133.3206, 35.4085], [133.3214, 35.4078], [133.3208, 35.4067], [133.3213, 35.4057], [133.3204, 35.4039], [133.3215, 35.4029], [133.3217, 35.4003]]]}, "properties": {"name": "鳥取県米子市"}}, {"type": "Feature", "geometry": {"type": "Polygon", "coordinates": [[[133.8287, 35.4811], [133.8274, 35.4814], [133.8254, 35.4769], [133.8261, 35.4753], [133.825, 35.4757], [133.8266, 35.4722], [133.8257, 35.4707], [133.8256, 35.4638], [133.8228, 35.4632], [133.8208, 35.4635], [133.8219, 35.4622], [133.8217, 35.4608], [133.8183, 35.4579], [133.8161, 35.4595], [133.814, 35.4588], [133.8138, 35.4595], [133.8124, 35.4598], [133.8103, 35.4592], [133.81, 35.4599], [133.8107, 35.4599], [133.8111, 35.4609], [133.8094, 35.4615], [133.8087, 35.4603], [133.8067, 35.4612], [133.8057, 35.4606], [133.8048, 35.4604], [133.8047, 35.4611], [133.8038, 35.4606], [133.804, 35.4659], [133.8014, 35.4658], [133.7965, 35.47], [133.7946, 35.4684], [133.7923, 35.4674], [133.7909, 35.4676], [133.79, 35.4665], [133.7876, 35.4653], [133.7872, 35.4645], [133.7892, 35.4647], [133.7895, 35.4639], [133.7864, 35.4639], [133.7859, 35.4637], [133.7866, 35.4634], [133.7863, 35.4626], [133.7798, 35.4661], [133.7781, 35.4677], [133.7792, 35.4683], [133.7764, 35.4695], [133.7775, 35.4711], [133.7755, 35.4721], [133.7723, 35.4683], [133.7651, 35.4676], [133.7658, 35.4685], [133.7636, 35.4698], [133.7633, 35.4707], [133.7614, 35.4713], [133.755, 35.467], [133.7546, 35.4674], [133.7515, 35.466], [133.7524, 35.4652], [133.7513, 35.4649], [133.7508, 35.4629], [133.7469, 35.4606], [133.7487, 35.4563], [133.7481, 35.4548], [133.7453, 35.4537], [133.7433, 35.4508], [133.7417, 35.4502], [133.7407, 35.4488], [133.7381, 35.4475], [133.7375, 35.4455], [133.7316, 35.4409], [133.7263, 35.4402], [133.7172, 35.4338], [133.7143, 35.4331], [133.713, 35.4337], [133.7095, 35.4327], [133.7076, 35.4314], [133.7056, 35.431], [133.7045, 35.4296], [133.7014, 35.4287], [133.6985, 35.4265], [133.693, 35.4248], [133.6905, 35.4236], [133.6902, 35.4228], [133.6869, 35.4216], [133.6822, 35.4207], [133.6781, 35.4209], [133.673, 35.4194], [133.6705, 35.4201], [133.669, 35.4191], [133.6668, 35.4192], [133.6656, 35.4182], [133.666, 35.4176], [133.661, 35.4145], [133.6608, 35.4137], [133.6588, 35.4124], [133.6598, 35.4109], [133.655, 35.4093], [133.6521, 35.4072], [133.6498, 35.4069], [133.6481, 35.4055], [133.6443, 35.4007], [133.6433, 35.3975], [133.6442, 35.3957], [133.6429, 35.3949], [133.642, 35.3924], [133.6396, 35.3908], [133.6388, 35.387], [133.6366, 35.3849], [133.6327, 35.384], [133.6263, 35.3792], [133.6238, 35.3789], [133.6217, 35.3776], [133.6155, 35.3775], [133.6117, 35.3765], [133.6114, 35.3758], [133.6082, 35.3749], [133.607, 35.3739], [133.6053, 35.3738], [133.6008, 35.3703], [133.5963, 35.3699], [133.5953, 35.3693], [133.5938, 35.3705], [133.5917, 35.3687], [133.5881, 35.3673], [133.5844, 35.3681], [133.5762, 35.366], [133.5758, 35.3634], [133.5764, 35.3599], [133.5804, 35.3589], [133.5858, 35.3517], [133.5896, 35.3517], [133.5911, 35.351], [133.5935, 35.3512], [133.5956, 35.3469], [133.5956, 35.3455], [133.5963, 35.3449], [133.6032, 35.3434], [133.6055, 35.341], [133.6076, 35.3419], [133.6095, 35.3418], [133.6105, 35.3407], [133.6129, 35.3399], [133.6162, 35.3409], [133.6168, 35.3399], [133.6223, 35.3367], [133.6256, 35.3383], [133.6293, 35.3385], [133.6328, 35.3398], [133.6385, 35.3392], [133.6405, 35.3368], [133.6434, 35.3361], [133.6496, 35.3362], [133.6529, 35.3342], [133.6578, 35.3292], [133.66, 35.3283], [133.6634, 35.3252], [133.6697, 35.3229], [133.6721, 35.3236], [133.674, 35.3233], [133.6753, 35.321], [133.6783, 35.319], [133.6833, 35.3187], [133.6858, 35.3197], [133.6882, 35.3194], [133.6911, 35.3201], [133.6916, 35.3206], [133.6914, 35.3239], [133.6971, 35.3272], [133.6987, 35.3259], [133.7042, 35.3244], [133.7078, 35.3252], [133.7114, 35.3242], [133.7144, 35.3228], [133.7172, 35.3199], [133.7199, 35.3199], [133.7201, 35.3192], [133.7218, 35.3191], [133.7248, 35.3196], [133.7276, 35.317], [133.7325, 35.3174], [133.7348, 35.3161], [133.7351, 35.3184], [133.7376, 35.319], [133.74, 35.3167], [133.7422, 35.3166], [133.7437, 35.3175], [133.745, 35.3196], [133.7484, 35.3173], [133.7491, 35.3162], [133.7489, 35.3146], [133.7503, 35.3131], [133.7507, 35.3114], [133.754, 35.3107], [133.7568, 35.3082], [133.759, 35.3085], [133.7601, 35.3103], [133.7623, 35.3111], [133.7643, 35.3154], [133.7642, 35.3169], [133.7672, 35.3166], [133.7718, 35.3204], [133.7731, 35.3208], [133.7728, 35.3225], [133.7745, 35.3234], [133.7755, 35.3265], [133.7782, 35.3247], [133.7805, 35.3259], [133.7821, 35.3258], [133.7816, 35.327], [133.7833, 35.328], [133.7863, 35.3318], [133.786, 35.3338], [133.7903, 35.334], [133.7916, 35.3354], [133.7939, 35.336], [133.7945, 35.3368], [133.7983, 35.337], [133.8006, 35.3405], [133.8028, 35.3409], [133.8036, 35.3437], [133.8071, 35.3469], [133.8098, 35.347], [133.813, 35.3488], [133.8153, 35.3478], [133.8201, 35.3486], [133.8216, 35.3502], [133.822, 35.353], [133.8253, 35.3528], [133.8291, 35.3554], [133.8302, 35.3571], [133.8304, 35.3616], [133.831, 35.362], [133.8315, 35.3647], [133.8346, 35.3668], [133.8304, 35.372], [133.8324, 35.3734], [133.8331, 35.3756], [133.8323, 35.3775], [133.8346, 35.3806], [133.8346, 35.3834], [133.8367, 35.386], [133.8362, 35.3869], [133.8383, 35.3887], [133.838, 35.3906], [133.8419, 35.3922], [133.843, 35.3968], [133.8443, 35.3977], [133.8456, 35.4012], [133.8451, 35.4032], [133.8477, 35.4041], [133.8511, 35.4082], [133.8569, 35.4081], [133.8573, 35.4095], [133.86, 35.4102], [133.861, 35.4139], [133.8636, 35.4152], [133.8637, 35.4169], [133.8653, 35.418], [133.8671, 35.4219], [133.8714, 35.4194], [133.8752, 35.4191], [133.8774, 35.4206], [133.8788, 35.4208], [133.8798, 35.422], [133.8823, 35.4221], [133.8839, 35.4233], [133.8874, 35.4235], [133.8873, 35.4272], [133.8855, 35.4289], [133.8839, 35.429], [133.8835, 35.4302], [133.882, 35.4304], [133.8812, 35.4327], [133.878, 35.4328], [133.8761, 35.4346], [133.874, 35.4354], [133.8725, 35.4357], [133.8709, 35.4352], [133.8701, 35.4375], [133.8683, 35.4387], [133.8677, 35.4407], [133.8653, 35.4402], [133.8639, 35.4421], [133.8605, 35.4432], [133.8615, 35.4508], [133.8631, 35.4522], [133.8625, 35.4588], [133.8638, 35.4602], [133.8658, 35.4608], [133.8654, 35.4623], [133.8664, 35.4638], [133.8651, 35.4679], [133.866, 35.4695], [133.8658, 35.4717], [133.8649, 35.4735], [133.8625, 35.4745], [133.8625, 35.4752], [133.8565, 35.4799], [133.8558, 35.4812], [133.8546, 35.4799], [133.8544, 35.4766], [133.8528, 35.4767], [133.8527, 35.476], [133.85, 35.4769], [133.8503, 35.4776], [133.8459, 35.4782], [133.8414, 35.4784], [133.841, 35.4776], [133.839, 35.4782], [133.8386, 35.4773], [133.8351, 35.4784], [133.8358, 35.4801], [133.832, 35.4812], [133.8316, 35.4802], [133.8287, 35.4811]]]}, "properties": {"name": "鳥取県倉吉市"}}, {"type": "Feature", "geometry": {"type": "Polygon", "coordinates": [[[133.2624, 35.5012], [133.2548, 35.5105], [133.253, 35.5135], [133.2534, 35.515], [133.2515, 35.5143], [133.251, 35.5153], [133.2533, 35.5162], [133.2544, 35.5145], [133.2533, 35.517], [133.2606, 35.5197], [133.2558, 35.5281], [133.2504, 35.5279], [133.2498, 35.5301], [133.2503, 35.5279], [133.2456, 35.5276], [133.2463, 35.5278], [133.2458, 35.5299], [133.2469, 35.5301], [133.2457, 35.53], [133.245, 35.531], [133.2454, 35.5313], [133.2447, 35.5312], [133.2471, 35.5317], [133.2452, 35.5314], [133.2452, 35.5325], [133.2463, 35.5327], [133.2452, 35.5326], [133.2449, 35.5338], [133.2456, 35.5339], [133.2448, 35.534], [133.2446, 35.5351], [133.246, 35.5354], [133.2465, 35.5337], [133.2462, 35.5354], [133.2472, 35.5356], [133.2473, 35.5334], [133.2489, 35.5313], [133.2478, 35.5335], [133.2516, 35.5342], [133.2502, 35.5371], [133.2559, 35.5402], [133.2552, 35.5411], [133.2602, 35.5438], [133.261, 35.5429], [133.2603, 35.5438], [133.2649, 35.5482], [133.2654, 35.5506], [133.2667, 35.5509], [133.2673, 35.5494], [133.2723, 35.5527], [133.2554, 35.5519], [133.2446, 35.5489], [133.245, 35.5479], [133.2437, 35.5476], [133.2312, 35.5481], [133.2238, 35.5468], [133.213, 35.54], [133.2133, 35.5395], [133.212, 35.5392], [133.212, 35.5383], [133.2115, 35.5391], [133.2091, 35.5371], [133.2032, 35.5343], [133.2041, 35.5319], [133.2035, 35.5317], [133.2027, 35.5339], [133.2035, 35.5317], [133.1991, 35.53], [133.1985, 35.5292], [133.1988, 35.5258], [133.2156, 35.4963], [133.2209, 35.4842], [133.227, 35.4772], [133.2364, 35.486], [133.2403, 35.4889], [133.2416, 35.4911], [133.2454, 35.4945], [133.2539, 35.498], [133.2551, 35.4982], [133.256, 35.4974], [133.2624, 35.5012]]]}, "properties": {"name": "鳥取県境港市"}}, {"type": "Feature", "geometry": {"type": "MultiPolygon", "coordinates": [[[[134.4344, 35.4712], [134.4369, 35.4729], [134.4382, 35.4757], [134.4358, 35.4783], [134.4339, 35.4843], [134.4316, 35.4878], [134.4303, 35.492], [134.4275, 35.4959], [134.4282, 35.5], [134.4308, 35.5026], [134.4271, 35.5088], [134.4247, 35.5088], [134.4187, 35.5139], [134.4142, 35.5136], [134.4127, 35.515], [134.4131, 35.5175], [134.4149, 35.5204], [134.4165, 35.5214], [134.4175, 35.5251], [134.4184, 35.5252], [134.4205, 35.5275], [134.4199, 35.533], [134.4212, 35.5342], [134.4232, 35.5349], [134.4226, 35.5373], [134.4251, 35.5414], [134.421, 35.5448], [134.4225, 35.5466], [134.4231, 35.5498], [134.4248, 35.5519], [134.4224, 35.5564], [134.4218, 35.5614], [134.4213, 35.5627], [134.4166, 35.5628], [134.4142, 35.564], [134.4097, 35.5628], [134.4075, 35.5652], [134.4047, 35.5706], [134.4069, 35.5772], [134.4054, 35.5848], [134.4062, 35.5864], [134.4078, 35.5874], [134.4079, 35.5891], [134.4048, 35.59], [134.4032, 35.5933], [134.4008, 35.5954], [134.3965, 35.5975], [134.3931, 35.598], [134.3928, 35.6015], [134.3891, 35.602], [134.3869, 35.604], [134.3812, 35.6036], [134.3798, 35.6041], [134.3786, 35.6058], [134.3778, 35.6058], [134.3749, 35.6083], [134.3715, 35.6086], [134.3707, 35.6106], [134.3708, 35.6136], [134.37, 35.6142], [134.3697, 35.6118], [134.3692, 35.6119], [134.37, 35.6091], [134.3696, 35.608], [134.371, 35.6061], [134.3706, 35.6051], [134.3674, 35.6026], [134.3605, 35.601], [134.3608, 35.6006], [134.3565, 35.6006], [134.3565, 35.6011], [134.3561, 35.6005], [134.3544, 35.6015], [134.3534, 35.601], [134.3517, 35.6019], [134.3515, 35.6], [134.351, 35.6006], [134.3477, 35.6007], [134.3465, 35.6022], [134.3451, 35.6026], [134.3444, 35.6043], [134.3449, 35.6051], [134.3444, 35.6066], [134.346, 35.6074], [134.3468, 35.6069], [134.3454, 35.6091], [134.3439, 35.6083], [134.3439, 35.6076], [134.3434, 35.6078], [134.3433, 35.607], [134.3397, 35.6082], [134.3384, 35.6063], [134.3394, 35.6049], [134.3409, 35.6044], [134.3407, 35.6026], [134.3389, 35.6023], [134.3388, 35.6016], [134.3375, 35.6019], [134.3381, 35.6013], [134.3373, 35.6007], [134.3384, 35.5996], [134.3395, 35.5997], [134.3405, 35.5983], [134.3399, 35.5971], [134.3389, 35.5973], [134.3392, 35.5964], [134.338, 35.5971], [134.3372, 35.5969], [134.3381, 35.5956], [134.3374, 35.5942], [134.3389, 35.594], [134.3393, 35.5929], [134.3388, 35.5939], [134.339, 35.5928], [134.3386, 35.5937], [134.3369, 35.5943], [134.337, 35.5936], [134.335, 35.5924], [134.3288, 35.5906], [134.324, 35.5906], [134.3218, 35.5917], [134.3209, 35.5915], [134.3213, 35.5907], [134.3196, 35.5921], [134.3198, 35.5926], [134.3188, 35.5946], [134.3189, 35.5939], [134.3183, 35.5939], [134.3192, 35.5937], [134.3196, 35.5926], [134.319, 35.5922], [134.3189, 35.5934], [134.3179, 35.5928], [134.3161, 35.5943], [134.3157, 35.5927], [134.3151, 35.5936], [134.3128, 35.5932], [134.3143, 35.5938], [134.316, 35.5956], [134.3184, 35.5959], [134.3185, 35.5954], [134.3191, 35.596], [134.3166, 35.5958], [134.3166, 35.5965], [134.3141, 35.5942], [134.313, 35.5942], [134.3127, 35.5936], [134.3115, 35.5938], [134.3116, 35.5929], [134.3111, 35.5939], [134.3104, 35.5935], [134.3105, 35.5918], [134.3096, 35.5924], [134.3091, 35.5917], [134.3089, 35.5923], [134.309, 35.5915], [134.3074, 35.5913], [134.3046, 35.593], [134.3042, 35.5921], [134.3022, 35.5922], [134.302, 35.5917], [134.3032, 35.5914], [134.3023, 35.591], [134.303, 35.5905], [134.3025, 35.5895], [134.3001, 35.5892], [134.2998, 35.59], [134.2988, 35.5895], [134.2987, 35.5902], [134.2985, 35.5897], [134.2979, 35.5902], [134.2951, 35.5892], [134.2939, 35.5894], [134.2937, 35.5878], [134.2923, 35.5881], [134.2924, 35.5871], [134.2912, 35.5877], [134.2924, 35.5865], [134.291, 35.586], [134.2914, 35.585], [134.2901, 35.5848], [134.29, 35.5835], [134.2857, 35.5825], [134.2901, 35.5833], [134.2907, 35.5845], [134.292, 35.5847], [134.2929, 35.5838], [134.2917, 35.5833], [134.2919, 35.5828], [134.2931, 35.5831], [134.2954, 35.5816], [134.2971, 35.5813], [134.2917, 35.5819], [134.2908, 35.5833], [134.2916, 35.5819], [134.2978, 35.5808], [134.2975, 35.58], [134.2894, 35.5812], [134.2886, 35.5803], [134.2895, 35.5811], [134.2903, 35.581], [134.2901, 35.5805], [134.2915, 35.5798], [134.2908, 35.579], [134.2899, 35.5793], [134.2907, 35.5788], [134.2896, 35.5775], [134.2864, 35.5794], [134.2877, 35.5813], [134.2859, 35.5791], [134.2909, 35.5762], [134.2892, 35.574], [134.288, 35.5734], [134.2827, 35.5747], [134.2791, 35.5727], [134.2778, 35.5729], [134.278, 35.5712], [134.2794, 35.5693], [134.2816, 35.5687], [134.2825, 35.5671], [134.2865, 35.5681], [134.2915, 35.5623], [134.2953, 35.5618], [134.295, 35.5602], [134.296, 35.5567], [134.2981, 35.5538], [134.2971, 35.5527], [134.2978, 35.5503], [134.2993, 35.5488], [134.3023, 35.5487], [134.306, 35.5475], [134.3078, 35.5422], [134.3077, 35.5394], [134.3086, 35.5387], [134.3107, 35.5381], [134.3124, 35.5387], [134.317, 35.5385], [134.3178, 35.5378], [134.3173, 35.5372], [134.3176, 35.5354], [134.3263, 35.5342], [134.3274, 35.5334], [134.3264, 35.5324], [134.3277, 35.5317], [134.3289, 35.5277], [134.3271, 35.5255], [134.3273, 35.5229], [134.3249, 35.5198], [134.3255, 35.5186], [134.3232, 35.5134], [134.3246, 35.5113], [134.3267, 35.5103], [134.325, 35.5084], [134.3247, 35.5072], [134.3253, 35.5059], [134.3236, 35.5026], [134.3241, 35.4977], [134.3219, 35.4965], [134.3207, 35.4932], [134.3197, 35.493], [134.3188, 35.4915], [134.3188, 35.4904], [134.3203, 35.4899], [134.3197, 35.4863], [134.3219, 35.4865], [134.3232, 35.4858], [134.3244, 35.486], [134.325, 35.4852], [134.3284, 35.4849], [134.3292, 35.483], [134.3307, 35.4829], [134.3322, 35.481], [134.336, 35.4782], [134.3388, 35.4794], [134.3434, 35.4783], [134.3442, 35.4788], [134.3457, 35.4778], [134.3482, 35.4784], [134.3504, 35.4779], [134.3512, 35.4803], [134.3524, 35.4807], [134.3529, 35.4822], [134.3567, 35.4816], [134.3572, 35.4828], [134.3603, 35.4834], [134.3611, 35.4842], [134.3608, 35.486], [134.363, 35.4864], [134.3633, 35.4879], [134.3646, 35.4883], [134.3653, 35.4896], [134.3677, 35.4899], [134.3702, 35.492], [134.3719, 35.4924], [134.3737, 35.4955], [134.3746, 35.499], [134.3762, 35.5003], [134.3784, 35.5008], [134.3831, 35.4999], [134.3854, 35.5001], [134.3871, 35.4981], [134.3935, 35.5006], [134.3943, 35.5003], [134.3948, 35.4981], [134.3965, 35.4969], [134.3969, 35.4946], [134.4002, 35.4921], [134.4006, 35.4899], [134.4034, 35.4879], [134.408, 35.4867], [134.4135, 35.4897], [134.4187, 35.4886], [134.4223, 35.4867], [134.426, 35.4872], [134.4274, 35.4851], [134.4272, 35.4816], [134.428, 35.48], [134.4308, 35.4785], [134.4303, 35.4754], [134.4314, 35.4747], [134.4325, 35.4724], [134.4335, 35.4723], [134.4344, 35.4712]]], [[[134.3041, 35.5945], [134.3033, 35.5943], [134.3034, 35.5936], [134.3044, 35.594], [134.3041, 35.5945]]]]}, "properties": {"name": "鳥取県岩美町"}}, {"type": "Feature", "geometry": {"type": "Polygon", "coordinates": [[[134.4408, 35.4396], [134.4421, 35.439], [134.4438, 35.4361], [134.4463, 35.4349], [134.4463, 35.4329], [134.4471, 35.4323], [134.4467, 35.43], [134.4457, 35.4291], [134.4454, 35.4241], [134.4446, 35.4233], [134.4459, 35.4214], [134.4456, 35.4188], [134.444, 35.4127], [134.4405, 35.4089], [134.4383, 35.4083], [134.4383, 35.4069], [134.4372, 35.4057], [134.4366, 35.4005], [134.4341, 35.3976], [134.434, 35.3963], [134.431, 35.3955], [134.4261, 35.3912], [134.4183, 35.3905], [134.4149, 35.3889], [134.4107, 35.3888], [134.4091, 35.3881], [134.4087, 35.3872], [134.4076, 35.3876], [134.406, 35.3844], [134.3991, 35.3812], [134.3978, 35.3799], [134.3919, 35.3799], [134.3909, 35.3786], [134.3883, 35.3771], [134.3898, 35.3741], [134.3919, 35.3724], [134.3887, 35.3684], [134.3873, 35.3632], [134.3883, 35.3601], [134.3882, 35.3581], [134.3902, 35.3549], [134.389, 35.3539], [134.3871, 35.3552], [134.3864, 35.3544], [134.3876, 35.3536], [134.387, 35.3531], [134.3792, 35.3592], [134.378, 35.3614], [134.3749, 35.3609], [134.3738, 35.3568], [134.3752, 35.3511], [134.3751, 35.3467], [134.3758, 35.3455], [134.3753, 35.3426], [134.3733, 35.3414], [134.3695, 35.3406], [134.3686, 35.3395], [134.365, 35.3377], [134.3586, 35.3375], [134.3578, 35.337], [134.3585, 35.3359], [134.3582, 35.334], [134.3602, 35.3333], [134.3613, 35.3318], [134.361, 35.3287], [134.3591, 35.3264], [134.3595, 35.3247], [134.3587, 35.3213], [134.3596, 35.3196], [134.357, 35.3165], [134.3569, 35.3155], [134.3544, 35.3136], [134.3558, 35.312], [134.3545, 35.3106], [134.3541, 35.3073], [134.3591, 35.3054], [134.3603, 35.3004], [134.3637, 35.2993], [134.3691, 35.2949], [134.3756, 35.2962], [134.3778, 35.2944], [134.3798, 35.2938], [134.3812, 35.2942], [134.382, 35.2927], [134.3835, 35.292], [134.3829, 35.2906], [134.3834, 35.2887], [134.3821, 35.2865], [134.384, 35.2841], [134.3839, 35.2822], [134.386, 35.2812], [134.3876, 35.2787], [134.387, 35.2765], [134.3875, 35.2711], [134.3869, 35.2646], [134.3855, 35.2615], [134.3865, 35.2598], [134.3877, 35.2593], [134.3869, 35.2558], [134.3851, 35.2545], [134.3851, 35.2534], [134.3833, 35.252], [134.3808, 35.2512], [134.3811, 35.2487], [134.3844, 35.2491], [134.3854, 35.2502], [134.3875, 35.2503], [134.3903, 35.2522], [134.3935, 35.2526], [134.3935, 35.2519], [134.3958, 35.2505], [134.3978, 35.2504], [134.3985, 35.2488], [134.4016, 35.246], [134.4015, 35.2423], [134.403, 35.2416], [134.4027, 35.241], [134.4056, 35.241], [134.4083, 35.2397], [134.4116, 35.2399], [134.4156, 35.239], [134.4193, 35.2372], [134.4229, 35.2371], [134.4234, 35.2355], [134.4264, 35.2337], [134.4273, 35.2317], [134.4293, 35.232], [134.4352, 35.2291], [134.4403, 35.2316], [134.4439, 35.2369], [134.4457, 35.2366], [134.4478, 35.2379], [134.457, 35.2381], [134.4635, 35.2368], [134.4637, 35.2394], [134.4622, 35.2415], [134.4618, 35.2441], [134.4642, 35.2443], [134.4683, 35.2463], [134.4693, 35.2477], [134.4713, 35.2483], [134.4715, 35.2493], [134.4772, 35.2494], [134.4823, 35.2543], [134.4835, 35.26], [134.4864, 35.2627], [134.49, 35.2615], [134.4926, 35.265], [134.495, 35.2668], [134.5007, 35.2682], [134.5044, 35.2717], [134.5107, 35.2745], [134.5126, 35.2767], [134.5153, 35.2774], [134.5151, 35.2793], [134.5135, 35.2804], [134.5126, 35.2822], [134.5123, 35.2846], [134.513, 35.2866], [134.5108, 35.29], [134.5095, 35.294], [134.5108, 35.2967], [134.5105, 35.2986], [134.5116, 35.3002], [134.5108, 35.3032], [134.5117, 35.3053], [134.5139, 35.3059], [134.5147, 35.308], [134.511, 35.3106], [134.5109, 35.3123], [134.5077, 35.3137], [134.5049, 35.3165], [134.5034, 35.3188], [134.5041, 35.3213], [134.5019, 35.3265], [134.5026, 35.3304], [134.5044, 35.3345], [134.5045, 35.3372], [134.5068, 35.3385], [134.5076, 35.3411], [134.5096, 35.3427], [134.5102, 35.3507], [134.513, 35.3514], [134.5138, 35.3538], [134.5086, 35.3558], [134.5071, 35.3582], [134.5044, 35.3596], [134.5044, 35.3613], [134.5034, 35.3624], [134.5028, 35.3659], [134.4997, 35.367], [134.495, 35.3671], [134.4915, 35.3685], [134.489, 35.368], [134.4865, 35.3693], [134.4856, 35.3711], [134.4837, 35.3719], [134.4827, 35.3731], [134.4804, 35.374], [134.4779, 35.3737], [134.4772, 35.3745], [134.4748, 35.3747], [134.4715, 35.3799], [134.4733, 35.3856], [134.4745, 35.3864], [134.4738, 35.3878], [134.4741, 35.3917], [134.4775, 35.3954], [134.4778, 35.4007], [134.4792, 35.4011], [134.4805, 35.4033], [134.4797, 35.4046], [134.4798, 35.4062], [134.4807, 35.407], [134.4814, 35.4104], [134.4807, 35.4118], [134.4767, 35.4144], [134.4783, 35.4211], [134.4759, 35.4237], [134.4784, 35.425], [134.4797, 35.4249], [134.4799, 35.4273], [134.4773, 35.4291], [134.4719, 35.43], [134.4696, 35.4336], [134.4672, 35.4329], [134.466, 35.4332], [134.4657, 35.435], [134.4624, 35.4369], [134.4522, 35.4365], [134.451, 35.4378], [134.4475, 35.4392], [134.4461, 35.4421], [134.4432, 35.4423], [134.4417, 35.4432], [134.4402, 35.4427], [134.4408, 35.4396]]]}, "properties": {"name": "鳥取県若桜町"}}, {"type": "Feature", "geometry": {"type": "Polygon", "coordinates": [[[134.1392, 35.279], [134.1406, 35.277], [134.1412, 35.2747], [134.1402, 35.2734], [134.1381, 35.2729], [134.1376, 35.2693], [134.1419, 35.2642], [134.1437, 35.2637], [134.1456, 35.2619], [134.1499, 35.2602], [134.1506, 35.2579], [134.1492, 35.2571], [134.1466, 35.2534], [134.1446, 35.2537], [134.1449, 35.252], [134.1429, 35.2504], [134.1428, 35.2485], [134.1443, 35.2459], [134.1438, 35.2447], [134.1457, 35.2437], [134.1455, 35.243], [134.1428, 35.2412], [134.1414, 35.2418], [134.1401, 35.2414], [134.1371, 35.239], [134.1439, 35.2316], [134.1483, 35.2322], [134.1502, 35.2333], [134.153, 35.2333], [134.1563, 35.2345], [134.1582, 35.2346], [134.1612, 35.2328], [134.1641, 35.2278], [134.164, 35.227], [134.1624, 35.2256], [134.1616, 35.223], [134.162, 35.2217], [134.1634, 35.2206], [134.1634, 35.2195], [134.1624, 35.2189], [134.1621, 35.2165], [134.16, 35.2126], [134.1568, 35.21], [134.1565, 35.2077], [134.1548, 35.2067], [134.1545, 35.2029], [134.1532, 35.2003], [134.1541, 35.1983], [134.153, 35.1964], [134.1556, 35.1936], [134.1583, 35.1932], [134.161, 35.1917], [134.1612, 35.1904], [134.1654, 35.1876], [134.1675, 35.1818], [134.1689, 35.1801], [134.1677, 35.1777], [134.1685, 35.1748], [134.1673, 35.172], [134.1692, 35.1718], [134.1721, 35.17], [134.1746, 35.1695], [134.1785, 35.1695], [134.1804, 35.1715], [134.1832, 35.1722], [134.1899, 35.1757], [134.1914, 35.1784], [134.1909, 35.18], [134.1938, 35.1846], [134.194, 35.187], [134.1929, 35.1886], [134.1935, 35.1893], [134.2009, 35.1907], [134.2016, 35.1905], [134.2017, 35.1893], [134.203, 35.1889], [134.2116, 35.1899], [134.2132, 35.1909], [134.2168, 35.1894], [134.2187, 35.1906], [134.2217, 35.1905], [134.2233, 35.1928], [134.2258, 35.1932], [134.2263, 35.194], [134.2256, 35.1953], [134.2278, 35.1973], [134.2324, 35.1974], [134.2338, 35.1987], [134.2361, 35.1994], [134.244, 35.1985], [134.2469, 35.2], [134.2496, 35.2005], [134.2521, 35.2029], [134.2522, 35.2053], [134.2541, 35.2083], [134.2583, 35.2093], [134.2606, 35.2107], [134.2638, 35.2086], [134.2679, 35.2085], [134.2685, 35.2041], [134.2705, 35.2012], [134.2711, 35.2007], [134.2745, 35.2005], [134.2788, 35.1968], [134.2811, 35.1968], [134.2825, 35.1979], [134.2916, 35.2], [134.2936, 35.1992], [134.2959, 35.2008], [134.2977, 35.2009], [134.2989, 35.2019], [134.3021, 35.2022], [134.3063, 35.2018], [134.3084, 35.2009], [134.3138, 35.2006], [134.3152, 35.2009], [134.3167, 35.2023], [134.3184, 35.2023], [134.32, 35.2014], [134.3213, 35.2018], [134.3317, 35.2121], [134.3348, 35.2127], [134.335, 35.215], [134.3366, 35.2173], [134.3367, 35.2196], [134.3399, 35.2213], [134.3429, 35.2206], [134.3475, 35.2227], [134.3503, 35.2228], [134.3516, 35.2244], [134.3532, 35.2249], [134.3548, 35.2266], [134.3572, 35.2279], [134.3601, 35.2292], [134.3619, 35.2289], [134.3655, 35.2311], [134.3667, 35.2309], [134.3687, 35.2316], [134.3747, 35.2374], [134.3734, 35.2395], [134.3744, 35.2414], [134.3727, 35.2444], [134.3728, 35.2457], [134.3786, 35.2466], [134.3811, 35.2487], [134.3808, 35.2512], [134.3833, 35.252], [134.3851, 35.2534], [134.3851, 35.2545], [134.3869, 35.2558], [134.3877, 35.2593], [134.3865, 35.2598], [134.3855, 35.2615], [134.3869, 35.2646], [134.3875, 35.2711], [134.387, 35.2765], [134.3876, 35.2787], [134.386, 35.2812], [134.3839, 35.2822], [134.384, 35.2841], [134.3821, 35.2865], [134.3834, 35.2887], [134.3829, 35.2906], [134.3835, 35.292], [134.382, 35.2927], [134.3812, 35.2942], [134.3798, 35.2938], [134.3778, 35.2944], [134.3756, 35.2962], [134.3691, 35.2949], [134.3637, 35.2993], [134.3603, 35.3004], [134.3591, 35.3054], [134.3541, 35.3073], [134.3494, 35.3076], [134.3482, 35.307], [134.3471, 35.308], [134.3442, 35.3078], [134.343, 35.3069], [134.3394, 35.3069], [134.3386, 35.3081], [134.3311, 35.3087], [134.3286, 35.3099], [134.3275, 35.3113], [134.3202, 35.314], [134.3171, 35.3118], [134.3082, 35.3139], [134.3063, 35.3133], [134.3043, 35.3102], [134.3025, 35.3114], [134.299, 35.3114], [134.2909, 35.3095], [134.2882, 35.3051], [134.2883, 35.3035], [134.2834, 35.302], [134.2814, 35.3032], [134.2777, 35.3024], [134.2745, 35.3033], [134.2734, 35.3074], [134.2705, 35.309], [134.2689, 35.3067], [134.2669, 35.3056], [134.2561, 35.3024], [134.2538, 35.2991], [134.2534, 35.2971], [134.2521, 35.2961], [134.2495, 35.2955], [134.2477, 35.2975], [134.245, 35.2983], [134.2428, 35.2971], [134.2392, 35.2967], [134.2379, 35.2982], [134.2358, 35.2963], [134.2321, 35.2974], [134.2235, 35.2974], [134.2225, 35.2981], [134.2221, 35.2999], [134.2198, 35.3014], [134.2182, 35.2989], [134.2148, 35.2962], [134.2137, 35.2942], [134.2087, 35.292], [134.2076, 35.2893], [134.2048, 35.2886], [134.2023, 35.2872], [134.1993, 35.2872], [134.1977, 35.2804], [134.1947, 35.2788], [134.1924, 35.2786], [134.189, 35.2792], [134.1822, 35.2769], [134.1793, 35.2765], [134.1778, 35.2769], [134.1734, 35.2762], [134.1729, 35.2756], [134.1718, 35.2758], [134.1668, 35.2737], [134.1633, 35.2744], [134.1612, 35.2735], [134.16, 35.2719], [134.1574, 35.2716], [134.1552, 35.2723], [134.1534, 35.2746], [134.1482, 35.2778], [134.1483, 35.2816], [134.1469, 35.2809], [134.1457, 35.2816], [134.1435, 35.2807], [134.1398, 35.2815], [134.1392, 35.279]]]}, "properties": {"name": "鳥取県智頭町"}}, {"type": "Feature", "geometry": {"type": "Polygon", "coordinates": [[[134.2705, 35.309], [134.2734, 35.3074], [134.2745, 35.3033], [134.2777, 35.3024], [134.2814, 35.3032], [134.2834, 35.302], [134.2883, 35.3035], [134.2882, 35.3051], [134.2909, 35.3095], [134.299, 35.3114], [134.3025, 35.3114], [134.3043, 35.3102], [134.3063, 35.3133], [134.3082, 35.3139], [134.3171, 35.3118], [134.3202, 35.314], [134.3275, 35.3113], [134.3286, 35.3099], [134.3311, 35.3087], [134.3386, 35.3081], [134.3394, 35.3069], [134.343, 35.3069], [134.3442, 35.3078], [134.3471, 35.308], [134.3482, 35.307], [134.3494, 35.3076], [134.3541, 35.3073], [134.3545, 35.3106], [134.3558, 35.312], [134.3544, 35.3136], [134.3569, 35.3155], [134.357, 35.3165], [134.3596, 35.3196], [134.3587, 35.3213], [134.3595, 35.3247], [134.3591, 35.3264], [134.361, 35.3287], [134.3613, 35.3318], [134.3602, 35.3333], [134.3582, 35.334], [134.3585, 35.3359], [134.3578, 35.337], [134.3586, 35.3375], [134.365, 35.3377], [134.3686, 35.3395], [134.3695, 35.3406], [134.3733, 35.3414], [134.3753, 35.3426], [134.3758, 35.3455], [134.3751, 35.3467], [134.3752, 35.3511], [134.3738, 35.3568], [134.3749, 35.3609], [134.378, 35.3614], [134.3792, 35.3592], [134.387, 35.3531], [134.3876, 35.3536], [134.3864, 35.3544], [134.3871, 35.3552], [134.389, 35.3539], [134.3902, 35.3549], [134.3882, 35.3581], [134.3883, 35.3601], [134.3873, 35.3632], [134.3887, 35.3684], [134.3919, 35.3724], [134.3898, 35.3741], [134.3883, 35.3771], [134.3909, 35.3786], [134.3919, 35.3799], [134.3978, 35.3799], [134.3991, 35.3812], [134.406, 35.3844], [134.4076, 35.3876], [134.4087, 35.3872], [134.4091, 35.3881], [134.4107, 35.3888], [134.4149, 35.3889], [134.4183, 35.3905], [134.4261, 35.3912], [134.431, 35.3955], [134.434, 35.3963], [134.4341, 35.3976], [134.4366, 35.4005], [134.4372, 35.4057], [134.4383, 35.4069], [134.4383, 35.4083], [134.4405, 35.4089], [134.444, 35.4127], [134.4456, 35.4188], [134.4459, 35.4214], [134.4446, 35.4233], [134.4454, 35.4241], [134.4457, 35.4291], [134.4467, 35.43], [134.4471, 35.4323], [134.4463, 35.4329], [134.4463, 35.4349], [134.4438, 35.4361], [134.4421, 35.439], [134.4408, 35.4396], [134.4391, 35.438], [134.4361, 35.4376], [134.4341, 35.4364], [134.4298, 35.4366], [134.4283, 35.4349], [134.4222, 35.4361], [134.4154, 35.4339], [134.4134, 35.4345], [134.4114, 35.436], [134.4089, 35.4364], [134.4087, 35.4379], [134.4046, 35.4395], [134.4016, 35.4396], [134.4001, 35.4404], [134.3988, 35.44], [134.3975, 35.4403], [134.3937, 35.438], [134.3864, 35.4373], [134.3848, 35.4358], [134.3818, 35.4378], [134.3816, 35.4388], [134.38, 35.44], [134.3783, 35.4333], [134.3769, 35.4315], [134.373, 35.4303], [134.3723, 35.4309], [134.3714, 35.4295], [134.3659, 35.4272], [134.3634, 35.4276], [134.3631, 35.4262], [134.3519, 35.4258], [134.349, 35.4246], [134.347, 35.4263], [134.3442, 35.4268], [134.3421, 35.4283], [134.3424, 35.4295], [134.341, 35.4303], [134.3379, 35.4303], [134.3363, 35.4291], [134.3303, 35.4281], [134.3277, 35.4298], [134.3257, 35.4298], [134.3148, 35.4356], [134.3122, 35.4392], [134.3105, 35.4387], [134.3059, 35.4404], [134.3035, 35.4402], [134.3012, 35.4431], [134.2968, 35.4452], [134.2917, 35.4436], [134.2898, 35.4437], [134.2887, 35.4419], [134.2851, 35.4433], [134.2821, 35.4426], [134.2799, 35.4447], [134.2784, 35.4495], [134.2765, 35.4504], [134.2743, 35.4494], [134.2745, 35.4463], [134.2734, 35.4454], [134.2728, 35.4433], [134.2684, 35.4421], [134.2669, 35.4403], [134.2648, 35.4398], [134.2631, 35.4369], [134.2637, 35.4352], [134.2619, 35.4314], [134.26, 35.431], [134.2583, 35.4318], [134.2577, 35.4313], [134.2585, 35.4308], [134.2529, 35.4299], [134.2498, 35.4288], [134.2444, 35.4296], [134.2388, 35.427], [134.2381, 35.4252], [134.2387, 35.4236], [134.2382, 35.4212], [134.2364, 35.421], [134.2352, 35.4198], [134.231, 35.4181], [134.2298, 35.417], [134.2296, 35.4154], [134.226, 35.414], [134.2185, 35.4139], [134.2144, 35.4123], [134.2166, 35.4105], [134.2171, 35.4063], [134.2164, 35.4037], [134.2174, 35.4005], [134.2195, 35.3992], [134.2188, 35.3979], [134.2206, 35.3975], [134.2241, 35.3942], [134.2253, 35.394], [134.2253, 35.3933], [134.2288, 35.3914], [134.2323, 35.391], [134.2332, 35.3886], [134.2358, 35.3863], [134.2325, 35.3825], [134.2323, 35.3813], [134.2337, 35.379], [134.2319, 35.3746], [134.2319, 35.3729], [134.2307, 35.3716], [134.231, 35.369], [134.2321, 35.3684], [134.2325, 35.3658], [134.2348, 35.3632], [134.2342, 35.3609], [134.2378, 35.3584], [134.2384, 35.3571], [134.241, 35.3562], [134.2421, 35.3541], [134.2422, 35.3527], [134.2401, 35.3509], [134.2384, 35.3479], [134.2383, 35.3446], [134.2386, 35.3422], [134.2417, 35.3365], [134.2418, 35.3345], [134.2445, 35.332], [134.2444, 35.3308], [134.2456, 35.3289], [134.2451, 35.3281], [134.2488, 35.3264], [134.2508, 35.3273], [134.2541, 35.3274], [134.254, 35.326], [134.2551, 35.3246], [134.2546, 35.3205], [134.2574, 35.3153], [134.2627, 35.3126], [134.269, 35.3125], [134.2694, 35.3102], [134.2705, 35.309]]]}, "properties": {"name": "鳥取県八頭町"}}, {"type": "Feature", "geometry": {"type": "Polygon", "coordinates": [[[133.9515, 35.428], [133.9487, 35.4299], [133.9469, 35.4301], [133.9439, 35.4317], [133.9413, 35.4299], [133.9327, 35.4301], [133.9303, 35.4287], [133.9214, 35.4267], [133.9179, 35.4279], [133.9159, 35.4274], [133.9144, 35.4282], [133.9092, 35.4286], [133.9078, 35.4267], [133.9036, 35.4263], [133.9021, 35.4239], [133.8994, 35.4236], [133.8984, 35.4222], [133.8964, 35.422], [133.8954, 35.4232], [133.8936, 35.4237], [133.8907, 35.4229], [133.8874, 35.4235], [133.8839, 35.4233], [133.8823, 35.4221], [133.8798, 35.422], [133.8788, 35.4208], [133.8774, 35.4206], [133.8752, 35.4191], [133.8714, 35.4194], [133.8671, 35.4219], [133.8653, 35.418], [133.8637, 35.4169], [133.8636, 35.4152], [133.861, 35.4139], [133.86, 35.4102], [133.8573, 35.4095], [133.8569, 35.4081], [133.8511, 35.4082], [133.8477, 35.4041], [133.8451, 35.4032], [133.8456, 35.4012], [133.8443, 35.3977], [133.843, 35.3968], [133.8419, 35.3922], [133.838, 35.3906], [133.8383, 35.3887], [133.8362, 35.3869], [133.8367, 35.386], [133.8346, 35.3834], [133.8346, 35.3806], [133.8323, 35.3775], [133.8331, 35.3756], [133.8324, 35.3734], [133.8304, 35.372], [133.8346, 35.3668], [133.8315, 35.3647], [133.831, 35.362], [133.8304, 35.3616], [133.8302, 35.3571], [133.8291, 35.3554], [133.8253, 35.3528], [133.822, 35.353], [133.8216, 35.3502], [133.8201, 35.3486], [133.8153, 35.3478], [133.813, 35.3488], [133.8098, 35.347], [133.8071, 35.3469], [133.8036, 35.3437], [133.8028, 35.3409], [133.8006, 35.3405], [133.7983, 35.337], [133.7945, 35.3368], [133.7939, 35.336], [133.7916, 35.3354], [133.7903, 35.334], [133.786, 35.3338], [133.7863, 35.3318], [133.7833, 35.328], [133.7816, 35.327], [133.7821, 35.3258], [133.7805, 35.3259], [133.7782, 35.3247], [133.7755, 35.3265], [133.7745, 35.3234], [133.7728, 35.3225], [133.7731, 35.3208], [133.7718, 35.3204], [133.7672, 35.3166], [133.7642, 35.3169], [133.7643, 35.3154], [133.7623, 35.3111], [133.7634, 35.309], [133.7671, 35.3085], [133.7698, 35.3043], [133.7729, 35.3027], [133.7756, 35.2996], [133.7794, 35.2991], [133.7823, 35.2979], [133.7835, 35.2948], [133.7866, 35.2951], [133.7896, 35.2976], [133.7892, 35.2938], [133.7937, 35.2929], [133.7955, 35.2943], [133.7971, 35.2942], [133.8, 35.2926], [133.8002, 35.2906], [133.799, 35.2897], [133.7997, 35.2885], [133.8017, 35.2876], [133.8011, 35.2865], [133.8014, 35.2848], [133.8052, 35.2822], [133.8051, 35.2804], [133.8093, 35.2768], [133.8096, 35.2745], [133.8074, 35.2705], [133.8089, 35.2691], [133.8104, 35.269], [133.812, 35.2665], [133.8153, 35.2647], [133.8166, 35.2605], [133.8183, 35.2588], [133.8184, 35.257], [133.8175, 35.2555], [133.8179, 35.2529], [133.8224, 35.2506], [133.8264, 35.2494], [133.8277, 35.2499], [133.8324, 35.2489], [133.8385, 35.2512], [133.8417, 35.2495], [133.8437, 35.2493], [133.8446, 35.2496], [133.845, 35.2515], [133.8437, 35.2539], [133.8461, 35.2564], [133.8477, 35.2572], [133.8495, 35.2605], [133.8518, 35.2617], [133.8532, 35.2657], [133.8555, 35.2682], [133.8578, 35.2682], [133.8616, 35.2708], [133.8659, 35.2723], [133.8634, 35.2771], [133.8653, 35.2802], [133.8642, 35.2811], [133.864, 35.2827], [133.8662, 35.2834], [133.8663, 35.2849], [133.8648, 35.286], [133.8612, 35.2866], [133.861, 35.29], [133.8622, 35.2927], [133.8653, 35.2934], [133.87, 35.2926], [133.8717, 35.2934], [133.8729, 35.293], [133.8742, 35.2947], [133.8769, 35.2952], [133.8815, 35.294], [133.8838, 35.2948], [133.8846, 35.296], [133.886, 35.2942], [133.8878, 35.295], [133.8883, 35.2973], [133.8909, 35.2985], [133.8923, 35.3001], [133.8934, 35.2999], [133.8964, 35.3012], [133.898, 35.3041], [133.9021, 35.3038], [133.9066, 35.305], [133.907, 35.3066], [133.9084, 35.3072], [133.9131, 35.3072], [133.9134, 35.3066], [133.9179, 35.3076], [133.921, 35.3064], [133.9251, 35.3068], [133.9267, 35.309], [133.9262, 35.3102], [133.928, 35.3106], [133.9293, 35.3117], [133.9321, 35.317], [133.9317, 35.3188], [133.9278, 35.3219], [133.9298, 35.33], [133.9321, 35.3338], [133.934, 35.3351], [133.9361, 35.3356], [133.9372, 35.3354], [133.9384, 35.3339], [133.9412, 35.3345], [133.945, 35.3326], [133.9458, 35.3327], [133.9538, 35.3384], [133.9537, 35.3401], [133.955, 35.3417], [133.9572, 35.3423], [133.9595, 35.3442], [133.9624, 35.3442], [133.9648, 35.3468], [133.9662, 35.3465], [133.9705, 35.3479], [133.9725, 35.3462], [133.976, 35.3459], [133.9796, 35.3435], [133.9819, 35.3454], [133.9849, 35.3467], [133.9866, 35.3468], [133.9894, 35.3485], [133.9924, 35.3482], [133.995, 35.3517], [133.9973, 35.3528], [133.9999, 35.3527], [134.0033, 35.3513], [134.008, 35.3514], [134.0093, 35.3496], [134.0126, 35.3494], [134.0148, 35.3504], [134.0172, 35.3519], [134.0198, 35.356], [134.0193, 35.3586], [134.0179, 35.361], [134.0191, 35.3636], [134.024, 35.3641], [134.0243, 35.3684], [134.0284, 35.369], [134.0314, 35.3664], [134.0334, 35.3663], [134.0336, 35.3682], [134.0352, 35.3686], [134.0355, 35.3699], [134.0377, 35.3722], [134.0415, 35.3737], [134.0415, 35.3765], [134.0421, 35.3775], [134.0383, 35.3777], [134.0346, 35.3791], [134.0316, 35.3792], [134.0277, 35.3814], [134.0268, 35.3825], [134.0204, 35.3845], [134.0168, 35.3869], [134.0147, 35.3862], [134.0134, 35.3876], [134.0105, 35.3887], [134.0083, 35.388], [134.0076, 35.3893], [134.0057, 35.3901], [134.0048, 35.3896], [134.0039, 35.3907], [133.9994, 35.3892], [133.9976, 35.3906], [133.9962, 35.3905], [133.9953, 35.3916], [133.9921, 35.3923], [133.991, 35.3944], [133.9911, 35.3963], [133.9924, 35.3978], [133.9924, 35.399], [133.9955, 35.4016], [133.9949, 35.4029], [134.0008, 35.4067], [133.9988, 35.4114], [133.9974, 35.4131], [133.9959, 35.4132], [133.9944, 35.4151], [133.9948, 35.4157], [133.9939, 35.4179], [133.9958, 35.4201], [133.9957, 35.423], [133.9938, 35.4236], [133.9917, 35.4228], [133.989, 35.4205], [133.9854, 35.4222], [133.9845, 35.4241], [133.982, 35.4253], [133.9804, 35.4244], [133.9781, 35.4252], [133.9761, 35.424], [133.9741, 35.4239], [133.9725, 35.4222], [133.971, 35.4221], [133.9688, 35.4241], [133.9655, 35.4245], [133.9647, 35.4266], [133.9635, 35.4271], [133.9534, 35.4274], [133.9515, 35.428]]]}, "properties": {"name": "鳥取県三朝町"}}, {"type": "Feature", "geometry": {"type": "Polygon", "coordinates": [[[133.9652, 35.5229], [133.9633, 35.5227], [133.9619, 35.5252], [133.9598, 35.5256], [133.9593, 35.5245], [133.9603, 35.5227], [133.96, 35.5216], [133.959, 35.5214], [133.9597, 35.5199], [133.959, 35.5192], [133.9543, 35.5175], [133.9515, 35.5173], [133.9497, 35.5178], [133.9489, 35.5188], [133.9465, 35.5193], [133.945, 35.5191], [133.9439, 35.5181], [133.9413, 35.5187], [133.9395, 35.5184], [133.938, 35.5172], [133.9399, 35.5165], [133.9389, 35.515], [133.9385, 35.5153], [133.9363, 35.514], [133.9364, 35.5134], [133.9327, 35.5118], [133.9252, 35.5101], [133.9092, 35.5085], [133.9077, 35.5087], [133.9062, 35.5104], [133.9027, 35.5104], [133.8985, 35.5079], [133.8934, 35.5073], [133.8908, 35.5073], [133.8899, 35.5083], [133.8869, 35.5092], [133.8869, 35.5087], [133.8858, 35.5087], [133.8854, 35.5075], [133.8759, 35.5067], [133.8751, 35.5053], [133.8748, 35.5066], [133.8723, 35.5057], [133.8552, 35.5045], [133.8556, 35.4992], [133.8547, 35.4937], [133.8525, 35.4917], [133.8531, 35.491], [133.851, 35.4894], [133.8498, 35.4873], [133.8484, 35.4835], [133.8506, 35.4828], [133.8502, 35.4819], [133.8489, 35.4816], [133.8485, 35.4803], [133.8474, 35.4812], [133.8459, 35.4782], [133.8503, 35.4776], [133.85, 35.4769], [133.8527, 35.476], [133.8528, 35.4767], [133.8544, 35.4766], [133.8546, 35.4799], [133.8558, 35.4812], [133.8565, 35.4799], [133.8625, 35.4752], [133.8625, 35.4745], [133.8649, 35.4735], [133.8658, 35.4717], [133.866, 35.4695], [133.8651, 35.4679], [133.8664, 35.4638], [133.8654, 35.4623], [133.8658, 35.4608], [133.8638, 35.4602], [133.8625, 35.4588], [133.8631, 35.4522], [133.8615, 35.4508], [133.8605, 35.4432], [133.8639, 35.4421], [133.8653, 35.4402], [133.8677, 35.4407], [133.8683, 35.4387], [133.8701, 35.4375], [133.8709, 35.4352], [133.8725, 35.4357], [133.874, 35.4354], [133.8761, 35.4346], [133.878, 35.4328], [133.8812, 35.4327], [133.882, 35.4304], [133.8835, 35.4302], [133.8839, 35.429], [133.8855, 35.4289], [133.8873, 35.4272], [133.8874, 35.4235], [133.8907, 35.4229], [133.8936, 35.4237], [133.8954, 35.4232], [133.8964, 35.422], [133.8984, 35.4222], [133.8994, 35.4236], [133.9021, 35.4239], [133.9036, 35.4263], [133.9078, 35.4267], [133.9092, 35.4286], [133.9144, 35.4282], [133.9159, 35.4274], [133.9179, 35.4279], [133.9214, 35.4267], [133.9303, 35.4287], [133.9327, 35.4301], [133.9413, 35.4299], [133.9439, 35.4317], [133.9469, 35.4301], [133.9487, 35.4299], [133.9515, 35.428], [133.95, 35.4313], [133.9507, 35.4352], [133.9516, 35.436], [133.9509, 35.4369], [133.9481, 35.437], [133.9475, 35.4416], [133.9498, 35.4441], [133.9518, 35.4491], [133.9516, 35.4506], [133.9532, 35.4502], [133.9536, 35.451], [133.9523, 35.454], [133.9481, 35.4554], [133.9482, 35.4567], [133.9461, 35.4618], [133.9466, 35.4639], [133.9481, 35.4658], [133.9485, 35.4691], [133.9519, 35.4752], [133.9524, 35.4801], [133.9544, 35.4828], [133.9543, 35.4856], [133.9559, 35.4861], [133.9542, 35.4886], [133.9552, 35.4926], [133.9566, 35.495], [133.9562, 35.4974], [133.957, 35.4991], [133.9641, 35.5028], [133.9646, 35.5043], [133.9679, 35.5077], [133.9686, 35.5103], [133.9708, 35.5124], [133.97, 35.519], [133.9652, 35.5229]]]}, "properties": {"name": "鳥取県湯梨浜町"}}, {"type": "Feature", "geometry": {"type": "Polygon", "coordinates": [[[133.6705, 35.4201], [133.6727, 35.4228], [133.6725, 35.4241], [133.6759, 35.4249], [133.6833, 35.4306], [133.6871, 35.4317], [133.688, 35.4334], [133.6942, 35.4379], [133.7003, 35.4454], [133.7031, 35.4472], [133.7064, 35.4477], [133.7109, 35.4501], [133.711, 35.4517], [133.7137, 35.4539], [133.7151, 35.4561], [133.7215, 35.461], [133.7247, 35.4619], [133.7243, 35.4648], [133.7253, 35.4659], [133.724, 35.4695], [133.7213, 35.4741], [133.7181, 35.4773], [133.7203, 35.4818], [133.7196, 35.4831], [133.7201, 35.4863], [133.7208, 35.4866], [133.7205, 35.4881], [133.7214, 35.4882], [133.7206, 35.4919], [133.7201, 35.4918], [133.7213, 35.4925], [133.722, 35.4952], [133.7196, 35.4956], [133.721, 35.4992], [133.7197, 35.4995], [133.7195, 35.5006], [133.7179, 35.5009], [133.7174, 35.5042], [133.7126, 35.5055], [133.7075, 35.5057], [133.7049, 35.5065], [133.7038, 35.5078], [133.7029, 35.5069], [133.6986, 35.5066], [133.6863, 35.5075], [133.6857, 35.5061], [133.6856, 35.5074], [133.6724, 35.5067], [133.6636, 35.5077], [133.6615, 35.5087], [133.6617, 35.5097], [133.6605, 35.51], [133.6591, 35.5102], [133.6579, 35.5092], [133.6563, 35.5096], [133.6574, 35.5104], [133.657, 35.5108], [133.656, 35.5099], [133.6556, 35.512], [133.6567, 35.5124], [133.6577, 35.5115], [133.6581, 35.5121], [133.6568, 35.5126], [133.6553, 35.5122], [133.6508, 35.5142], [133.6495, 35.5139], [133.648, 35.5147], [133.6485, 35.5156], [133.6436, 35.5149], [133.6423, 35.5163], [133.6336, 35.5193], [133.6255, 35.5192], [133.6165, 35.5212], [133.611, 35.5212], [133.6073, 35.5223], [133.6054, 35.5189], [133.6066, 35.5171], [133.6026, 35.515], [133.5982, 35.5114], [133.599, 35.5109], [133.5998, 35.5114], [133.6016, 35.5081], [133.6014, 35.5055], [133.6031, 35.5045], [133.6017, 35.5017], [133.6018, 35.4961], [133.6002, 35.4911], [133.6009, 35.4881], [133.5999, 35.4837], [133.5984, 35.4805], [133.5984, 35.476], [133.5976, 35.4744], [133.5978, 35.4647], [133.5999, 35.4585], [133.5989, 35.4592], [133.5979, 35.4584], [133.5984, 35.4514], [133.5973, 35.4502], [133.5987, 35.4497], [133.5955, 35.4444], [133.5906, 35.4409], [133.5907, 35.4399], [133.5892, 35.4396], [133.5864, 35.4314], [133.5855, 35.4304], [133.5837, 35.4307], [133.5835, 35.4273], [133.5814, 35.4274], [133.5808, 35.4298], [133.5748, 35.4297], [133.5772, 35.4268], [133.5778, 35.423], [133.5772, 35.4219], [133.5809, 35.4179], [133.5838, 35.4082], [133.5831, 35.4051], [133.5838, 35.4021], [133.5819, 35.4006], [133.5807, 35.3967], [133.5821, 35.3936], [133.5818, 35.3917], [133.5827, 35.3886], [133.5794, 35.3863], [133.5766, 35.3823], [133.5787, 35.379], [133.5609, 35.381], [133.5589, 35.3636], [133.5613, 35.362], [133.5666, 35.3613], [133.568, 35.36], [133.569, 35.3575], [133.5715, 35.3552], [133.5746, 35.3568], [133.5751, 35.3592], [133.5764, 35.3599], [133.5758, 35.3634], [133.5762, 35.366], [133.5844, 35.3681], [133.5881, 35.3673], [133.5917, 35.3687], [133.5938, 35.3705], [133.5953, 35.3693], [133.5963, 35.3699], [133.6008, 35.3703], [133.6053, 35.3738], [133.607, 35.3739], [133.6082, 35.3749], [133.6114, 35.3758], [133.6117, 35.3765], [133.6155, 35.3775], [133.6217, 35.3776], [133.6238, 35.3789], [133.6263, 35.3792], [133.6327, 35.384], [133.6366, 35.3849], [133.6388, 35.387], [133.6396, 35.3908], [133.642, 35.3924], [133.6429, 35.3949], [133.6442, 35.3957], [133.6433, 35.3975], [133.6443, 35.4007], [133.6481, 35.4055], [133.6498, 35.4069], [133.6521, 35.4072], [133.655, 35.4093], [133.6598, 35.4109], [133.6588, 35.4124], [133.6608, 35.4137], [133.661, 35.4145], [133.666, 35.4176], [133.6656, 35.4182], [133.6668, 35.4192], [133.669, 35.4191], [133.6705, 35.4201]]]}, "properties": {"name": "鳥取県琴浦町"}}, {"type": "Feature", "geometry": {"type": "Polygon", "coordinates": [[[133.8459, 35.4782], [133.8474, 35.4812], [133.8485, 35.4803], [133.8489, 35.4816], [133.8502, 35.4819], [133.8506, 35.4828], [133.8484, 35.4835], [133.8498, 35.4873], [133.851, 35.4894], [133.8531, 35.491], [133.8525, 35.4917], [133.8547, 35.4937], [133.8556, 35.4992], [133.8552, 35.5045], [133.8554, 35.5051], [133.8527, 35.5051], [133.8388, 35.503], [133.815, 35.5015], [133.7795, 35.5006], [133.7691, 35.5011], [133.7548, 35.5007], [133.7245, 35.503], [133.7174, 35.5042], [133.7179, 35.5009], [133.7195, 35.5006], [133.7197, 35.4995], [133.721, 35.4992], [133.7196, 35.4956], [133.722, 35.4952], [133.7213, 35.4925], [133.7201, 35.4918], [133.7206, 35.4919], [133.7214, 35.4882], [133.7205, 35.4881], [133.7208, 35.4866], [133.7201, 35.4863], [133.7196, 35.4831], [133.7203, 35.4818], [133.7181, 35.4773], [133.7213, 35.4741], [133.724, 35.4695], [133.7253, 35.4659], [133.7243, 35.4648], [133.7247, 35.4619], [133.7215, 35.461], [133.7151, 35.4561], [133.7137, 35.4539], [133.711, 35.4517], [133.7109, 35.4501], [133.7064, 35.4477], [133.7031, 35.4472], [133.7003, 35.4454], [133.6942, 35.4379], [133.688, 35.4334], [133.6871, 35.4317], [133.6833, 35.4306], [133.6759, 35.4249], [133.6725, 35.4241], [133.6727, 35.4228], [133.6705, 35.4201], [133.673, 35.4194], [133.6781, 35.4209], [133.6822, 35.4207], [133.6869, 35.4216], [133.6902, 35.4228], [133.6905, 35.4236], [133.693, 35.4248], [133.6985, 35.4265], [133.7014, 35.4287], [133.7045, 35.4296], [133.7056, 35.431], [133.7076, 35.4314], [133.7095, 35.4327], [133.713, 35.4337], [133.7143, 35.4331], [133.7172, 35.4338], [133.7263, 35.4402], [133.7316, 35.4409], [133.7375, 35.4455], [133.7381, 35.4475], [133.7407, 35.4488], [133.7417, 35.4502], [133.7433, 35.4508], [133.7453, 35.4537], [133.7481, 35.4548], [133.7487, 35.4563], [133.7469, 35.4606], [133.7508, 35.4629], [133.7513, 35.4649], [133.7524, 35.4652], [133.7515, 35.466], [133.7546, 35.4674], [133.755, 35.467], [133.7614, 35.4713], [133.7633, 35.4707], [133.7636, 35.4698], [133.7658, 35.4685], [133.7651, 35.4676], [133.7723, 35.4683], [133.7755, 35.4721], [133.7775, 35.4711], [133.7764, 35.4695], [133.7792, 35.4683], [133.7781, 35.4677], [133.7798, 35.4661], [133.7863, 35.4626], [133.7866, 35.4634], [133.7859, 35.4637], [133.7864, 35.4639], [133.7895, 35.4639], [133.7892, 35.4647], [133.7872, 35.4645], [133.7876, 35.4653], [133.79, 35.4665], [133.7909, 35.4676], [133.7923, 35.4674], [133.7946, 35.4684], [133.7965, 35.47], [133.8014, 35.4658], [133.804, 35.4659], [133.8038, 35.4606], [133.8047, 35.4611], [133.8048, 35.4604], [133.8057, 35.4606], [133.8067, 35.4612], [133.8087, 35.4603], [133.8094, 35.4615], [133.8111, 35.4609], [133.8107, 35.4599], [133.81, 35.4599], [133.8103, 35.4592], [133.8124, 35.4598], [133.8138, 35.4595], [133.814, 35.4588], [133.8161, 35.4595], [133.8183, 35.4579], [133.8217, 35.4608], [133.8219, 35.4622], [133.8208, 35.4635], [133.8228, 35.4632], [133.8256, 35.4638], [133.8257, 35.4707], [133.8266, 35.4722], [133.825, 35.4757], [133.8261, 35.4753], [133.8254, 35.4769], [133.8274, 35.4814], [133.8287, 35.4811], [133.8316, 35.4802], [133.832, 35.4812], [133.8358, 35.4801], [133.8351, 35.4784], [133.8386, 35.4773], [133.839, 35.4782], [133.841, 35.4776], [133.8414, 35.4784], [133.8459, 35.4782]]]}, "properties": {"name": "鳥取県北栄町"}}, {"type": "Feature", "geometry": {"type": "Polygon", "coordinates": [[[133.3917, 35.4536], [133.3873, 35.4551], [133.3881, 35.4546], [133.388, 35.4541], [133.3869, 35.4545], [133.3878, 35.4545], [133.3872, 35.4548], [133.3832, 35.455], [133.3764, 35.4565], [133.376, 35.4558], [133.3741, 35.4564], [133.3689, 35.4414], [133.3673, 35.4344], [133.3703, 35.4335], [133.3702, 35.4331], [133.3751, 35.4326], [133.3751, 35.4321], [133.3765, 35.4338], [133.3768, 35.4308], [133.3799, 35.4302], [133.3803, 35.4296], [133.3809, 35.4296], [133.381, 35.4314], [133.3821, 35.4313], [133.3832, 35.4302], [133.3833, 35.4323], [133.385, 35.4317], [133.3841, 35.4324], [133.3857, 35.4361], [133.3853, 35.4377], [133.384, 35.4386], [133.3869, 35.439], [133.3866, 35.4414], [133.3879, 35.4435], [133.3908, 35.4461], [133.3917, 35.4536]]]}, "properties": {"name": "鳥取県日吉津村"}}, {"type": "Feature", "geometry": {"type": "Polygon", "coordinates": [[[133.4453, 35.398], [133.4497, 35.3963], [133.4537, 35.3978], [133.4616, 35.3985], [133.4659, 35.3977], [133.471, 35.3991], [133.4753, 35.3987], [133.4768, 35.3975], [133.4827, 35.398], [133.4876, 35.3998], [133.4925, 35.4002], [133.5086, 35.3983], [133.5159, 35.3964], [133.5163, 35.3958], [133.5152, 35.3943], [133.516, 35.3927], [133.5189, 35.3902], [133.5222, 35.389], [133.5235, 35.3873], [133.5208, 35.3849], [133.5247, 35.3829], [133.5227, 35.3792], [133.5211, 35.3697], [133.5275, 35.3596], [133.5288, 35.3586], [133.5306, 35.3585], [133.5339, 35.3561], [133.5366, 35.3555], [133.5426, 35.3496], [133.5452, 35.3527], [133.545, 35.3502], [133.5493, 35.3479], [133.5495, 35.3461], [133.5508, 35.3477], [133.551, 35.3526], [133.5533, 35.3555], [133.553, 35.3562], [133.556, 35.3565], [133.5589, 35.3636], [133.5609, 35.381], [133.5787, 35.379], [133.5766, 35.3823], [133.5794, 35.3863], [133.5827, 35.3886], [133.5818, 35.3917], [133.5821, 35.3936], [133.5807, 35.3967], [133.5819, 35.4006], [133.5838, 35.4021], [133.5831, 35.4051], [133.5838, 35.4082], [133.5809, 35.4179], [133.5772, 35.4219], [133.5778, 35.423], [133.5772, 35.4268], [133.5748, 35.4297], [133.5808, 35.4298], [133.5814, 35.4274], [133.5835, 35.4273], [133.5837, 35.4307], [133.5855, 35.4304], [133.5864, 35.4314], [133.5892, 35.4396], [133.5907, 35.4399], [133.5906, 35.4409], [133.5955, 35.4444], [133.5987, 35.4497], [133.5973, 35.4502], [133.5984, 35.4514], [133.5979, 35.4584], [133.5989, 35.4592], [133.5999, 35.4585], [133.5978, 35.4647], [133.5976, 35.4744], [133.5984, 35.476], [133.5984, 35.4805], [133.5999, 35.4837], [133.6009, 35.4881], [133.6002, 35.4911], [133.6018, 35.4961], [133.6017, 35.5017], [133.6031, 35.5045], [133.6014, 35.5055], [133.6016, 35.5081], [133.5998, 35.5114], [133.599, 35.5109], [133.5982, 35.5114], [133.6026, 35.515], [133.6066, 35.5171], [133.6054, 35.5189], [133.6073, 35.5223], [133.6035, 35.5238], [133.6003, 35.5264], [133.5946, 35.5266], [133.593, 35.5279], [133.5911, 35.5313], [133.5935, 35.5312], [133.5904, 35.532], [133.5827, 35.5312], [133.5793, 35.5301], [133.5685, 35.5305], [133.5664, 35.5297], [133.5656, 35.5304], [133.5639, 35.5306], [133.5656, 35.5302], [133.5653, 35.5291], [133.5643, 35.5288], [133.5636, 35.5294], [133.5638, 35.5284], [133.5607, 35.528], [133.559, 35.5271], [133.557, 35.5243], [133.5551, 35.5236], [133.552, 35.5235], [133.5463, 35.5216], [133.5439, 35.522], [133.5424, 35.5213], [133.541, 35.5216], [133.538, 35.5238], [133.536, 35.524], [133.5343, 35.5231], [133.5328, 35.5206], [133.5303, 35.5194], [133.5227, 35.5195], [133.52, 35.5208], [133.5174, 35.5197], [133.5162, 35.5178], [133.5121, 35.5173], [133.5094, 35.5159], [133.5023, 35.5154], [133.4974, 35.5158], [133.4954, 35.5134], [133.4946, 35.5134], [133.4955, 35.5131], [133.4954, 35.5124], [133.4942, 35.5118], [133.4942, 35.5128], [133.4937, 35.5127], [133.4939, 35.5118], [133.4926, 35.5111], [133.491, 35.5087], [133.4864, 35.5067], [133.4845, 35.5048], [133.4721, 35.4989], [133.4642, 35.498], [133.4604, 35.4987], [133.4539, 35.4961], [133.4466, 35.4943], [133.4437, 35.4912], [133.4424, 35.4871], [133.436, 35.4844], [133.4319, 35.481], [133.4336, 35.4803], [133.4346, 35.4786], [133.4326, 35.4762], [133.4318, 35.4737], [133.4295, 35.4715], [133.4292, 35.4696], [133.4321, 35.4696], [133.4321, 35.4685], [133.4345, 35.4686], [133.435, 35.4627], [133.4337, 35.4612], [133.4353, 35.4606], [133.4342, 35.4596], [133.4417, 35.4598], [133.4416, 35.4626], [133.4462, 35.4612], [133.4497, 35.4621], [133.4531, 35.462], [133.4551, 35.4608], [133.4556, 35.4597], [133.4551, 35.4564], [133.4577, 35.4526], [133.4591, 35.4517], [133.4583, 35.448], [133.4642, 35.4475], [133.4663, 35.4438], [133.4712, 35.4401], [133.4748, 35.4399], [133.4806, 35.437], [133.479, 35.4322], [133.4793, 35.4294], [133.4729, 35.4251], [133.4714, 35.4234], [133.4688, 35.4227], [133.4687, 35.4211], [133.4673, 35.4186], [133.4677, 35.4177], [133.4656, 35.4159], [133.4596, 35.4165], [133.4549, 35.4157], [133.452, 35.4164], [133.4481, 35.4151], [133.4422, 35.4144], [133.4417, 35.4126], [133.4431, 35.411], [133.4421, 35.4105], [133.442, 35.4097], [133.4428, 35.4081], [133.4427, 35.4064], [133.4445, 35.4035], [133.4453, 35.398]]]}, "properties": {"name": "鳥取県大山町"}}, {"type": "Feature", "geometry": {"type": "Polygon", "coordinates": [[[133.3246, 35.3746], [133.3241, 35.3734], [133.3219, 35.3723], [133.3185, 35.3733], [133.3192, 35.369], [133.3169, 35.3675], [133.3159, 35.3656], [133.3103, 35.3659], [133.3089, 35.3666], [133.3077, 35.3658], [133.3047, 35.3596], [133.3029, 35.3586], [133.3024, 35.3565], [133.301, 35.3559], [133.3005, 35.3537], [133.2989, 35.3529], [133.2977, 35.3506], [133.2961, 35.3494], [133.2952, 35.3467], [133.2965, 35.3444], [133.2955, 35.3437], [133.2959, 35.3426], [133.2953, 35.3404], [133.2972, 35.3385], [133.2958, 35.3343], [133.2968, 35.332], [133.2956, 35.3297], [133.2956, 35.327], [133.2973, 35.3265], [133.2984, 35.3249], [133.2958, 35.3219], [133.2925, 35.3207], [133.2924, 35.3191], [133.2947, 35.3175], [133.2987, 35.3128], [133.2981, 35.3116], [133.2996, 35.3111], [133.2999, 35.3099], [133.3013, 35.3089], [133.3023, 35.3056], [133.3069, 35.3034], [133.3023, 35.2959], [133.3002, 35.2945], [133.2995, 35.2918], [133.3002, 35.2909], [133.3014, 35.2907], [133.3019, 35.2889], [133.3041, 35.2865], [133.305, 35.2835], [133.3074, 35.2817], [133.3068, 35.2807], [133.308, 35.2793], [133.3088, 35.2719], [133.3104, 35.2684], [133.3122, 35.2691], [133.3134, 35.2676], [133.3167, 35.2666], [133.3169, 35.2651], [133.3201, 35.2636], [133.3244, 35.2627], [133.3253, 35.2631], [133.3274, 35.2628], [133.3291, 35.26], [133.3323, 35.2574], [133.3333, 35.255], [133.3323, 35.2534], [133.3325, 35.2509], [133.3336, 35.2493], [133.3303, 35.2471], [133.3301, 35.2452], [133.3323, 35.2424], [133.3335, 35.2394], [133.3347, 35.2388], [133.3359, 35.2368], [133.3361, 35.2345], [133.3388, 35.2349], [133.34, 35.2322], [133.3415, 35.2331], [133.3429, 35.2324], [133.3439, 35.2331], [133.3462, 35.2381], [133.3493, 35.2384], [133.3516, 35.2371], [133.3519, 35.2362], [133.3547, 35.2374], [133.3572, 35.2401], [133.357, 35.2437], [133.3557, 35.2452], [133.3602, 35.2472], [133.3573, 35.2526], [133.3552, 35.2541], [133.3539, 35.2566], [133.3523, 35.2573], [133.3547, 35.2591], [133.3548, 35.2604], [133.358, 35.2612], [133.3597, 35.2634], [133.3622, 35.2639], [133.363, 35.2647], [133.3651, 35.2648], [133.3659, 35.2662], [133.369, 35.2658], [133.3703, 35.2669], [133.3715, 35.2668], [133.3723, 35.2683], [133.3758, 35.2698], [133.3779, 35.2691], [133.3788, 35.2701], [133.3842, 35.2714], [133.3863, 35.2748], [133.3855, 35.2792], [133.386, 35.2807], [133.3832, 35.2854], [133.3834, 35.2875], [133.3826, 35.288], [133.3817, 35.2906], [133.3842, 35.2916], [133.385, 35.2947], [133.3834, 35.298], [133.3838, 35.2991], [133.3823, 35.3007], [133.3823, 35.3027], [133.3807, 35.3039], [133.3796, 35.3064], [133.384, 35.3147], [133.3836, 35.3165], [133.3843, 35.3202], [133.3836, 35.3225], [133.3884, 35.3228], [133.3902, 35.3218], [133.3922, 35.3217], [133.3959, 35.3245], [133.3971, 35.3247], [133.3986, 35.3219], [133.4027, 35.3213], [133.404, 35.3218], [133.4045, 35.3212], [133.4057, 35.3215], [133.4082, 35.3201], [133.4096, 35.3225], [133.4107, 35.3226], [133.412, 35.3245], [133.4111, 35.3274], [133.4097, 35.3277], [133.4085, 35.3292], [133.4081, 35.3319], [133.4101, 35.333], [133.4125, 35.3327], [133.4153, 35.3338], [133.417, 35.3351], [133.4186, 35.3393], [133.4217, 35.3409], [133.4239, 35.3435], [133.4273, 35.3448], [133.4278, 35.3459], [133.4273, 35.3496], [133.4258, 35.3499], [133.4219, 35.3538], [133.4173, 35.3522], [133.4158, 35.3527], [133.4151, 35.352], [133.4133, 35.3521], [133.4117, 35.3552], [133.4102, 35.3563], [133.4071, 35.3533], [133.4042, 35.3569], [133.4039, 35.3615], [133.4033, 35.3626], [133.4019, 35.3628], [133.4017, 35.3663], [133.3986, 35.3685], [133.3965, 35.3677], [133.3947, 35.3685], [133.3928, 35.3705], [133.3925, 35.3734], [133.3915, 35.3743], [133.3876, 35.3729], [133.3856, 35.3735], [133.3824, 35.372], [133.3795, 35.3732], [133.3775, 35.373], [133.3762, 35.3742], [133.3752, 35.3739], [133.3744, 35.3744], [133.3752, 35.3756], [133.3743, 35.3747], [133.3745, 35.3755], [133.3722, 35.3755], [133.3731, 35.3772], [133.3711, 35.3789], [133.3697, 35.3787], [133.3692, 35.3796], [133.3641, 35.3801], [133.3639, 35.3809], [133.359, 35.3815], [133.3581, 35.3831], [133.3566, 35.3832], [133.3568, 35.3851], [133.3559, 35.3852], [133.3558, 35.3865], [133.3519, 35.3852], [133.3515, 35.3857], [133.3525, 35.3876], [133.3517, 35.3881], [133.3495, 35.3861], [133.3475, 35.3853], [133.3452, 35.3859], [133.345, 35.3874], [133.3431, 35.3887], [133.3433, 35.3869], [133.3418, 35.3854], [133.3392, 35.3851], [133.3384, 35.3823], [133.335, 35.3818], [133.3341, 35.3798], [133.3323, 35.3794], [133.331, 35.3778], [133.3307, 35.3762], [133.329, 35.3747], [133.3265, 35.3742], [133.3246, 35.3746]]]}, "properties": {"name": "鳥取県南部町"}}, {"type": "Feature", "geometry": {"type": "Polygon", "coordinates": [[[133.3711, 35.3789], [133.3731, 35.3772], [133.3722, 35.3755], [133.3745, 35.3755], [133.3743, 35.3747], [133.3752, 35.3756], [133.3744, 35.3744], [133.3752, 35.3739], [133.3762, 35.3742], [133.3775, 35.373], [133.3795, 35.3732], [133.3824, 35.372], [133.3856, 35.3735], [133.3876, 35.3729], [133.3915, 35.3743], [133.3925, 35.3734], [133.3928, 35.3705], [133.3947, 35.3685], [133.3965, 35.3677], [133.3986, 35.3685], [133.4017, 35.3663], [133.4019, 35.3628], [133.4033, 35.3626], [133.4039, 35.3615], [133.4042, 35.3569], [133.4071, 35.3533], [133.4102, 35.3563], [133.4117, 35.3552], [133.4133, 35.3521], [133.4151, 35.352], [133.4158, 35.3527], [133.4173, 35.3522], [133.4219, 35.3538], [133.4258, 35.3499], [133.4273, 35.3496], [133.4278, 35.3459], [133.4273, 35.3448], [133.4239, 35.3435], [133.4217, 35.3409], [133.4186, 35.3393], [133.417, 35.3351], [133.4153, 35.3338], [133.4125, 35.3327], [133.4101, 35.333], [133.4081, 35.3319], [133.4085, 35.3292], [133.4097, 35.3277], [133.4111, 35.3274], [133.412, 35.3245], [133.4107, 35.3226], [133.4096, 35.3225], [133.4082, 35.3201], [133.4057, 35.3215], [133.4045, 35.3212], [133.404, 35.3218], [133.4027, 35.3213], [133.3986, 35.3219], [133.3971, 35.3247], [133.3959, 35.3245], [133.3922, 35.3217], [133.3902, 35.3218], [133.3884, 35.3228], [133.3836, 35.3225], [133.3843, 35.3202], [133.3836, 35.3165], [133.384, 35.3147], [133.3796, 35.3064], [133.3807, 35.3039], [133.3823, 35.3027], [133.3823, 35.3007], [133.3838, 35.2991], [133.3834, 35.298], [133.385, 35.2947], [133.3842, 35.2916], [133.3817, 35.2906], [133.3826, 35.288], [133.3834, 35.2875], [133.3832, 35.2854], [133.386, 35.2807], [133.3855, 35.2792], [133.3863, 35.2748], [133.3842, 35.2714], [133.3788, 35.2701], [133.3779, 35.2691], [133.3758, 35.2698], [133.3723, 35.2683], [133.3715, 35.2668], [133.3703, 35.2669], [133.369, 35.2658], [133.3659, 35.2662], [133.3651, 35.2648], [133.363, 35.2647], [133.3622, 35.2639], [133.3597, 35.2634], [133.358, 35.2612], [133.3601, 35.2589], [133.362, 35.2557], [133.3621, 35.2543], [133.364, 35.2548], [133.3675, 35.2539], [133.3679, 35.2529], [133.3699, 35.2523], [133.3692, 35.2499], [133.3696, 35.2481], [133.3708, 35.2479], [133.3724, 35.246], [133.3746, 35.2454], [133.3761, 35.2422], [133.3756, 35.2402], [133.3785, 35.238], [133.3805, 35.2349], [133.3848, 35.2354], [133.3868, 35.2363], [133.3917, 35.2362], [133.3924, 35.237], [133.3942, 35.2368], [133.3953, 35.2378], [133.397, 35.238], [133.3998, 35.2402], [133.3998, 35.244], [133.4046, 35.2469], [133.4052, 35.2492], [133.4072, 35.2496], [133.4112, 35.2517], [133.4124, 35.2545], [133.4165, 35.2556], [133.4189, 35.2572], [133.4206, 35.2566], [133.4233, 35.2574], [133.4246, 35.2596], [133.4285, 35.2619], [133.43, 35.2652], [133.432, 35.2654], [133.4333, 35.2668], [133.4373, 35.268], [133.4413, 35.271], [133.4448, 35.2708], [133.4456, 35.2748], [133.4484, 35.2775], [133.4492, 35.2795], [133.4481, 35.2817], [133.4491, 35.2849], [133.4469, 35.2877], [133.4471, 35.2891], [133.4438, 35.2909], [133.4441, 35.2923], [133.4452, 35.2927], [133.4443, 35.294], [133.4452, 35.2965], [133.4471, 35.2973], [133.4502, 35.3009], [133.4529, 35.3002], [133.4564, 35.3026], [133.4574, 35.3018], [133.4591, 35.3028], [133.4607, 35.3064], [133.4637, 35.3093], [133.4663, 35.3105], [133.4704, 35.3107], [133.4758, 35.3138], [133.4767, 35.3149], [133.4765, 35.3161], [133.4794, 35.3174], [133.4797, 35.3201], [133.4846, 35.3226], [133.4885, 35.3238], [133.4919, 35.3231], [133.4938, 35.3253], [133.4991, 35.3249], [133.5048, 35.3271], [133.5081, 35.3272], [133.5081, 35.3285], [133.506, 35.3287], [133.5074, 35.3309], [133.5069, 35.3318], [133.511, 35.3345], [133.5106, 35.3326], [133.514, 35.3342], [133.5137, 35.3353], [133.5086, 35.3344], [133.5146, 35.3429], [133.5138, 35.3448], [133.5187, 35.347], [133.5192, 35.352], [133.5243, 35.3548], [133.5275, 35.3596], [133.5211, 35.3697], [133.5227, 35.3792], [133.5247, 35.3829], [133.5208, 35.3849], [133.5235, 35.3873], [133.5222, 35.389], [133.5189, 35.3902], [133.516, 35.3927], [133.5152, 35.3943], [133.5163, 35.3958], [133.5159, 35.3964], [133.5086, 35.3983], [133.4925, 35.4002], [133.4876, 35.3998], [133.4827, 35.398], [133.4768, 35.3975], [133.4753, 35.3987], [133.471, 35.3991], [133.4659, 35.3977], [133.4616, 35.3985], [133.4537, 35.3978], [133.4497, 35.3963], [133.4453, 35.398], [133.4471, 35.3948], [133.4463, 35.3935], [133.4453, 35.3924], [133.4405, 35.3904], [133.4305, 35.3916], [133.4209, 35.3901], [133.421, 35.3892], [133.4193, 35.3885], [133.415, 35.3896], [133.4124, 35.3916], [133.4113, 35.3916], [133.4115, 35.3922], [133.408, 35.3954], [133.4065, 35.3946], [133.4054, 35.3969], [133.4036, 35.3974], [133.4027, 35.3986], [133.4021, 35.4042], [133.4, 35.4046], [133.4, 35.4021], [133.3976, 35.4021], [133.398, 35.4001], [133.3959, 35.3986], [133.3979, 35.3948], [133.3959, 35.3947], [133.3952, 35.3958], [133.3915, 35.396], [133.3916, 35.3968], [133.3892, 35.397], [133.389, 35.3942], [133.3902, 35.3941], [133.3906, 35.393], [133.39, 35.3921], [133.3876, 35.3923], [133.3871, 35.3874], [133.3859, 35.3868], [133.388, 35.3854], [133.3893, 35.3853], [133.389, 35.3836], [133.3846, 35.3853], [133.3829, 35.3868], [133.3824, 35.3885], [133.3807, 35.386], [133.3823, 35.3851], [133.3818, 35.3839], [133.3807, 35.3841], [133.3805, 35.3831], [133.3815, 35.3828], [133.3805, 35.3811], [133.3792, 35.3813], [133.3755, 35.3787], [133.3711, 35.3789]]]}, "properties": {"name": "鳥取県伯耆町"}}, {"type": "Feature", "geometry": {"type": "Polygon", "coordinates": [[[133.3104, 35.2684], [133.3084, 35.2662], [133.3048, 35.2656], [133.3048, 35.2645], [133.3028, 35.2632], [133.2985, 35.2646], [133.2957, 35.2642], [133.2953, 35.2628], [133.2932, 35.2622], [133.2917, 35.2607], [133.2899, 35.2615], [133.2885, 35.2608], [133.2877, 35.2613], [133.2852, 35.2612], [133.2823, 35.2624], [133.2798, 35.2612], [133.2799, 35.2604], [133.2783, 35.2589], [133.2758, 35.2578], [133.2693, 35.2588], [133.2643, 35.2583], [133.2625, 35.2588], [133.2586, 35.2614], [133.2534, 35.2601], [133.2518, 35.2591], [133.25, 35.2564], [133.2457, 35.2547], [133.2434, 35.2505], [133.2413, 35.25], [133.24, 35.2507], [133.2388, 35.2497], [133.2357, 35.2492], [133.2335, 35.2469], [133.2319, 35.2466], [133.2309, 35.2471], [133.2276, 35.2471], [133.2255, 35.2496], [133.2228, 35.2491], [133.2194, 35.2463], [133.2131, 35.243], [133.212, 35.2417], [133.2062, 35.242], [133.2051, 35.2412], [133.198, 35.2396], [133.1942, 35.2378], [133.1924, 35.2359], [133.1897, 35.2369], [133.1849, 35.2349], [133.1827, 35.2348], [133.1786, 35.2323], [133.1773, 35.2305], [133.1716, 35.229], [133.1714, 35.2284], [133.1723, 35.2273], [133.1692, 35.2264], [133.1634, 35.2225], [133.1622, 35.2236], [133.1588, 35.2226], [133.1558, 35.2213], [133.1551, 35.2191], [133.1525, 35.219], [133.1515, 35.2166], [133.1519, 35.2137], [133.1513, 35.2127], [133.153, 35.2094], [133.1523, 35.2076], [133.1508, 35.2069], [133.1526, 35.2039], [133.1536, 35.2041], [133.155, 35.2031], [133.1562, 35.2041], [133.1577, 35.2039], [133.1597, 35.2065], [133.1638, 35.2064], [133.1671, 35.2077], [133.1677, 35.2089], [133.1687, 35.2093], [133.1695, 35.2086], [133.172, 35.2087], [133.1734, 35.2055], [133.1762, 35.2052], [133.1784, 35.203], [133.1806, 35.2027], [133.1824, 35.2008], [133.1845, 35.1952], [133.1829, 35.1928], [133.182, 35.1885], [133.1851, 35.1851], [133.1884, 35.1852], [133.1892, 35.1847], [133.1907, 35.1814], [133.1904, 35.1804], [133.1916, 35.18], [133.1936, 35.1775], [133.1935, 35.1725], [133.1949, 35.1698], [133.1932, 35.1669], [133.1935, 35.1653], [133.1917, 35.1626], [133.1902, 35.1616], [133.1887, 35.1617], [133.1869, 35.1593], [133.1848, 35.1584], [133.1837, 35.1565], [133.1775, 35.1557], [133.1754, 35.1542], [133.1706, 35.1534], [133.1684, 35.1521], [133.1658, 35.149], [133.1619, 35.1483], [133.1599, 35.1492], [133.1574, 35.1489], [133.1552, 35.1474], [133.1555, 35.1458], [133.1548, 35.1437], [133.1485, 35.14], [133.148, 35.1378], [133.1485, 35.1371], [133.1467, 35.1358], [133.1466, 35.1331], [133.1451, 35.1314], [133.1466, 35.1236], [133.1448, 35.1215], [133.1429, 35.121], [133.1423, 35.1189], [133.1402, 35.1181], [133.142, 35.1128], [133.1442, 35.1112], [133.1455, 35.105], [133.1398, 35.0999], [133.1396, 35.0991], [133.1411, 35.0982], [133.141, 35.0975], [133.138, 35.0948], [133.1354, 35.0945], [133.1348, 35.0937], [133.1379, 35.092], [133.1366, 35.0906], [133.1376, 35.0895], [133.137, 35.0885], [133.1381, 35.0876], [133.1375, 35.0851], [133.1397, 35.084], [133.1403, 35.0828], [133.1417, 35.0826], [133.1422, 35.0812], [133.1395, 35.0791], [133.1414, 35.0763], [133.1364, 35.0742], [133.1359, 35.0706], [133.1364, 35.0693], [133.1383, 35.0688], [133.1403, 35.0661], [133.1422, 35.0647], [133.1454, 35.066], [133.1464, 35.0678], [133.1481, 35.0668], [133.1525, 35.0688], [133.1538, 35.0718], [133.1564, 35.0725], [133.1581, 35.0716], [133.1595, 35.0735], [133.161, 35.0741], [133.1626, 35.0728], [133.1639, 35.0729], [133.1652, 35.0709], [133.1653, 35.0694], [133.1667, 35.0693], [133.1677, 35.0676], [133.1685, 35.0674], [133.1703, 35.0686], [133.1731, 35.0692], [133.1757, 35.0674], [133.177, 35.0679], [133.178, 35.0672], [133.1796, 35.0673], [133.1804, 35.0689], [133.1832, 35.0685], [133.1862, 35.0698], [133.1941, 35.0705], [133.1948, 35.0713], [133.1973, 35.0715], [133.1993, 35.0726], [133.2031, 35.072], [133.2062, 35.0735], [133.2112, 35.0742], [133.2148, 35.0739], [133.2172, 35.0726], [133.2179, 35.0713], [133.2203, 35.0715], [133.226, 35.0686], [133.2299, 35.068], [133.2316, 35.0694], [133.2334, 35.0698], [133.2322, 35.0713], [133.2332, 35.0751], [133.2324, 35.0755], [133.2323, 35.0774], [133.2359, 35.0772], [133.2392, 35.0795], [133.244, 35.0782], [133.2494, 35.0789], [133.2517, 35.0775], [133.2518, 35.0757], [133.2537, 35.0751], [133.2551, 35.071], [133.2595, 35.0671], [133.2608, 35.0634], [133.2656, 35.0614], [133.2691, 35.0576], [133.2723, 35.0594], [133.2723, 35.0614], [133.2749, 35.0628], [133.2751, 35.0641], [133.2768, 35.0661], [133.2835, 35.0659], [133.2843, 35.0654], [133.2851, 35.0668], [133.2885, 35.0685], [133.2908, 35.0709], [133.2901, 35.0738], [133.2884, 35.0752], [133.2889, 35.0802], [133.29, 35.0811], [133.2906, 35.0829], [133.2897, 35.0865], [133.2902, 35.0903], [133.2882, 35.0922], [133.2877, 35.094], [133.2883, 35.0959], [133.2898, 35.0964], [133.291, 35.0979], [133.291, 35.1002], [133.293, 35.1016], [133.2949, 35.1017], [133.299, 35.1038], [133.3016, 35.1017], [133.3026, 35.0998], [133.3084, 35.0994], [133.3104, 35.0962], [133.3128, 35.0982], [133.3137, 35.0975], [133.3161, 35.0975], [133.3188, 35.0941], [133.3208, 35.0936], [133.3222, 35.0944], [133.3232, 35.0937], [133.3255, 35.0935], [133.3279, 35.0946], [133.3279, 35.0958], [133.3308, 35.0986], [133.3331, 35.0995], [133.3323, 35.1013], [133.3351, 35.103], [133.3384, 35.1066], [133.3438, 35.1053], [133.3471, 35.1056], [133.3548, 35.1008], [133.3564, 35.102], [133.3583, 35.1022], [133.3593, 35.1044], [133.3622, 35.1053], [133.3634, 35.107], [133.3657, 35.1082], [133.3668, 35.1101], [133.3703, 35.1107], [133.3726, 35.1128], [133.3814, 35.115], [133.386, 35.1144], [133.3869, 35.1131], [133.388, 35.1127], [133.3947, 35.1135], [133.4, 35.115], [133.4033, 35.1143], [133.4059, 35.1182], [133.4082, 35.1198], [133.4118, 35.1211], [133.4124, 35.1247], [133.412, 35.1267], [133.4127, 35.1283], [133.4117, 35.1316], [133.4125, 35.1337], [133.4112, 35.1355], [133.4111, 35.1388], [133.4081, 35.1416], [133.4049, 35.1431], [133.4041, 35.1456], [133.4045, 35.1486], [133.4031, 35.1511], [133.4002, 35.1536], [133.4007, 35.1586], [133.3986, 35.1615], [133.398, 35.1648], [133.3953, 35.1657], [133.3934, 35.1674], [133.3935, 35.1693], [133.3967, 35.1724], [133.3947, 35.1744], [133.3947, 35.1773], [133.3924, 35.1758], [133.3905, 35.1759], [133.3866, 35.1744], [133.3824, 35.1745], [133.3796, 35.1755], [133.3781, 35.177], [133.3751, 35.1757], [133.3744, 35.1726], [133.3735, 35.1721], [133.3738, 35.1706], [133.3724, 35.1692], [133.3713, 35.169], [133.3718, 35.1654], [133.3698, 35.1609], [133.368, 35.1595], [133.3653, 35.1589], [133.364, 35.1607], [133.3595, 35.1619], [133.3587, 35.1642], [133.3567, 35.1667], [133.3543, 35.1665], [133.3528, 35.1672], [133.3509, 35.1657], [133.348, 35.1654], [133.3471, 35.164], [133.3449, 35.1626], [133.3438, 35.1626], [133.341, 35.1642], [133.3391, 35.164], [133.3369, 35.1657], [133.3349, 35.1658], [133.3339, 35.169], [133.3297, 35.1736], [133.3291, 35.1766], [133.3266, 35.1771], [133.3218, 35.1803], [133.3193, 35.1796], [133.3182, 35.1808], [133.3159, 35.1812], [133.3141, 35.1827], [133.3128, 35.1827], [133.312, 35.1837], [133.3087, 35.1845], [133.3085, 35.1861], [133.3048, 35.1895], [133.3033, 35.19], [133.3006, 35.1895], [133.2977, 35.1924], [133.2957, 35.1931], [133.2937, 35.1973], [133.2932, 35.2012], [133.2937, 35.203], [133.2953, 35.2042], [133.2979, 35.2089], [133.2988, 35.2098], [133.3004, 35.2102], [133.3036, 35.2132], [133.3073, 35.2109], [133.3058, 35.2083], [133.3071, 35.2065], [133.3069, 35.2035], [133.3087, 35.2026], [133.3115, 35.2026], [133.317, 35.2063], [133.3196, 35.2064], [133.3211, 35.2056], [133.3222, 35.2061], [133.3233, 35.2055], [133.3248, 35.2075], [133.3275, 35.2068], [133.3298, 35.2089], [133.3313, 35.2092], [133.3349, 35.2149], [133.3368, 35.2155], [133.3454, 35.2135], [133.3471, 35.2145], [133.3506, 35.2149], [133.3535, 35.2186], [133.3539, 35.2202], [133.3538, 35.2244], [133.3515, 35.2263], [133.3518, 35.2298], [133.351, 35.2321], [133.3519, 35.2362], [133.3516, 35.2371], [133.3493, 35.2384], [133.3462, 35.2381], [133.3439, 35.2331], [133.3429, 35.2324], [133.3415, 35.2331], [133.34, 35.2322], [133.3388, 35.2349], [133.3361, 35.2345], [133.3359, 35.2368], [133.3347, 35.2388], [133.3335, 35.2394], [133.3323, 35.2424], [133.3301, 35.2452], [133.3303, 35.2471], [133.3336, 35.2493], [133.3325, 35.2509], [133.3323, 35.2534], [133.3333, 35.255], [133.3323, 35.2574], [133.3291, 35.26], [133.3274, 35.2628], [133.3253, 35.2631], [133.3244, 35.2627], [133.3201, 35.2636], [133.3169, 35.2651], [133.3167, 35.2666], [133.3134, 35.2676], [133.3122, 35.2691], [133.3104, 35.2684]]]}, "properties": {"name": "鳥取県日南町"}}, {"type": "Feature", "geometry": {"type": "Polygon", "coordinates": [[[133.3519, 35.2362], [133.351, 35.2321], [133.3518, 35.2298], [133.3515, 35.2263], [133.3538, 35.2244], [133.3539, 35.2202], [133.3535, 35.2186], [133.3506, 35.2149], [133.3471, 35.2145], [133.3454, 35.2135], [133.3368, 35.2155], [133.3349, 35.2149], [133.3313, 35.2092], [133.3298, 35.2089], [133.3275, 35.2068], [133.3248, 35.2075], [133.3233, 35.2055], [133.3222, 35.2061], [133.3211, 35.2056], [133.3196, 35.2064], [133.317, 35.2063], [133.3115, 35.2026], [133.3087, 35.2026], [133.3069, 35.2035], [133.3071, 35.2065], [133.3058, 35.2083], [133.3073, 35.2109], [133.3036, 35.2132], [133.3004, 35.2102], [133.2988, 35.2098], [133.2979, 35.2089], [133.2953, 35.2042], [133.2937, 35.203], [133.2932, 35.2012], [133.2937, 35.1973], [133.2957, 35.1931], [133.2977, 35.1924], [133.3006, 35.1895], [133.3033, 35.19], [133.3048, 35.1895], [133.3085, 35.1861], [133.3087, 35.1845], [133.312, 35.1837], [133.3128, 35.1827], [133.3141, 35.1827], [133.3159, 35.1812], [133.3182, 35.1808], [133.3193, 35.1796], [133.3218, 35.1803], [133.3266, 35.1771], [133.3291, 35.1766], [133.3297, 35.1736], [133.3339, 35.169], [133.3349, 35.1658], [133.3369, 35.1657], [133.3391, 35.164], [133.341, 35.1642], [133.3438, 35.1626], [133.3449, 35.1626], [133.3471, 35.164], [133.348, 35.1654], [133.3509, 35.1657], [133.3528, 35.1672], [133.3543, 35.1665], [133.3567, 35.1667], [133.3587, 35.1642], [133.3595, 35.1619], [133.364, 35.1607], [133.3653, 35.1589], [133.368, 35.1595], [133.3698, 35.1609], [133.3718, 35.1654], [133.3713, 35.169], [133.3724, 35.1692], [133.3738, 35.1706], [133.3735, 35.1721], [133.3744, 35.1726], [133.3751, 35.1757], [133.3781, 35.177], [133.3796, 35.1755], [133.3824, 35.1745], [133.3866, 35.1744], [133.3905, 35.1759], [133.3924, 35.1758], [133.3947, 35.1773], [133.3962, 35.1807], [133.3989, 35.1805], [133.4021, 35.1816], [133.4042, 35.1842], [133.4078, 35.1858], [133.4104, 35.1841], [133.4155, 35.1846], [133.4189, 35.1816], [133.4209, 35.1808], [133.4213, 35.177], [133.4221, 35.1761], [133.4255, 35.1764], [133.4283, 35.1774], [133.4378, 35.1732], [133.4416, 35.1734], [133.446, 35.1729], [133.4479, 35.1713], [133.4527, 35.173], [133.4564, 35.173], [133.4581, 35.1762], [133.4599, 35.1778], [133.4631, 35.1778], [133.4656, 35.1765], [133.4662, 35.1754], [133.4675, 35.1753], [133.4704, 35.1775], [133.4722, 35.177], [133.4734, 35.1789], [133.4734, 35.181], [133.4746, 35.1818], [133.4825, 35.1824], [133.4838, 35.184], [133.4852, 35.1845], [133.4855, 35.1864], [133.4885, 35.1865], [133.4898, 35.1877], [133.4959, 35.1867], [133.4988, 35.1887], [133.5009, 35.1926], [133.503, 35.1917], [133.5077, 35.193], [133.5114, 35.1898], [133.5136, 35.19], [133.5149, 35.1909], [133.5163, 35.1906], [133.5168, 35.1882], [133.5187, 35.1867], [133.5193, 35.1827], [133.5209, 35.1822], [133.5237, 35.1833], [133.5262, 35.1829], [133.5275, 35.1859], [133.5292, 35.1871], [133.5264, 35.1906], [133.5267, 35.1939], [133.5253, 35.1941], [133.5232, 35.1963], [133.5234, 35.1998], [133.5208, 35.2058], [133.5224, 35.2084], [133.5216, 35.2105], [133.5185, 35.2142], [133.519, 35.2159], [133.5157, 35.2202], [133.5113, 35.2214], [133.5073, 35.2247], [133.5065, 35.2269], [133.5056, 35.2275], [133.5081, 35.2331], [133.5056, 35.2361], [133.5027, 35.2361], [133.4994, 35.2371], [133.4955, 35.2398], [133.4897, 35.2363], [133.4878, 35.2341], [133.4874, 35.2323], [133.4819, 35.2332], [133.4797, 35.2324], [133.4773, 35.2325], [133.4718, 35.2302], [133.4698, 35.23], [133.4678, 35.2329], [133.4681, 35.2343], [133.467, 35.2355], [133.4668, 35.2407], [133.4658, 35.2426], [133.4658, 35.243], [133.4682, 35.2435], [133.4695, 35.2456], [133.4682, 35.2482], [133.4663, 35.2493], [133.4637, 35.2521], [133.4608, 35.2576], [133.4579, 35.2556], [133.4552, 35.2545], [133.4515, 35.2596], [133.449, 35.2609], [133.4449, 35.2667], [133.4448, 35.2708], [133.4413, 35.271], [133.4373, 35.268], [133.4333, 35.2668], [133.432, 35.2654], [133.43, 35.2652], [133.4285, 35.2619], [133.4246, 35.2596], [133.4233, 35.2574], [133.4206, 35.2566], [133.4189, 35.2572], [133.4165, 35.2556], [133.4124, 35.2545], [133.4112, 35.2517], [133.4072, 35.2496], [133.4052, 35.2492], [133.4046, 35.2469], [133.3998, 35.244], [133.3998, 35.2402], [133.397, 35.238], [133.3953, 35.2378], [133.3942, 35.2368], [133.3924, 35.237], [133.3917, 35.2362], [133.3868, 35.2363], [133.3848, 35.2354], [133.3805, 35.2349], [133.3785, 35.238], [133.3756, 35.2402], [133.3761, 35.2422], [133.3746, 35.2454], [133.3724, 35.246], [133.3708, 35.2479], [133.3696, 35.2481], [133.3692, 35.2499], [133.3699, 35.2523], [133.3679, 35.2529], [133.3675, 35.2539], [133.364, 35.2548], [133.3621, 35.2543], [133.362, 35.2557], [133.3601, 35.2589], [133.358, 35.2612], [133.3548, 35.2604], [133.3547, 35.2591], [133.3523, 35.2573], [133.3539, 35.2566], [133.3552, 35.2541], [133.3573, 35.2526], [133.3602, 35.2472], [133.3557, 35.2452], [133.357, 35.2437], [133.3572, 35.2401], [133.3547, 35.2374], [133.3519, 35.2362]]]}, "properties": {"name": "鳥取県日野町"}}, {"type": "Feature", "geometry": {"type": "Polygon", "coordinates": [[[133.5764, 35.3599], [133.5751, 35.3592], [133.5746, 35.3568], [133.5715, 35.3552], [133.569, 35.3575], [133.568, 35.36], [133.5666, 35.3613], [133.5613, 35.362], [133.5589, 35.3636], [133.556, 35.3565], [133.553, 35.3562], [133.5533, 35.3555], [133.551, 35.3526], [133.5508, 35.3477], [133.5495, 35.3461], [133.5493, 35.3479], [133.545, 35.3502], [133.5452, 35.3527], [133.5426, 35.3496], [133.5366, 35.3555], [133.5339, 35.3561], [133.5306, 35.3585], [133.5288, 35.3586], [133.5275, 35.3596], [133.5243, 35.3548], [133.5192, 35.352], [133.5187, 35.347], [133.5138, 35.3448], [133.5146, 35.3429], [133.5086, 35.3344], [133.5137, 35.3353], [133.514, 35.3342], [133.5106, 35.3326], [133.511, 35.3345], [133.5069, 35.3318], [133.5074, 35.3309], [133.506, 35.3287], [133.5081, 35.3285], [133.5081, 35.3272], [133.5048, 35.3271], [133.4991, 35.3249], [133.4938, 35.3253], [133.4919, 35.3231], [133.4885, 35.3238], [133.4846, 35.3226], [133.4797, 35.3201], [133.4794, 35.3174], [133.4765, 35.3161], [133.4767, 35.3149], [133.4758, 35.3138], [133.4704, 35.3107], [133.4663, 35.3105], [133.4637, 35.3093], [133.4607, 35.3064], [133.4591, 35.3028], [133.4574, 35.3018], [133.4564, 35.3026], [133.4529, 35.3002], [133.4502, 35.3009], [133.4471, 35.2973], [133.4452, 35.2965], [133.4443, 35.294], [133.4452, 35.2927], [133.4441, 35.2923], [133.4438, 35.2909], [133.4471, 35.2891], [133.4469, 35.2877], [133.4491, 35.2849], [133.4481, 35.2817], [133.4492, 35.2795], [133.4484, 35.2775], [133.4456, 35.2748], [133.4448, 35.2708], [133.4449, 35.2667], [133.449, 35.2609], [133.4515, 35.2596], [133.4552, 35.2545], [133.4579, 35.2556], [133.4608, 35.2576], [133.4637, 35.2521], [133.4663, 35.2493], [133.4682, 35.2482], [133.4695, 35.2456], [133.4682, 35.2435], [133.4658, 35.243], [133.4658, 35.2426], [133.4668, 35.2407], [133.467, 35.2355], [133.4681, 35.2343], [133.4678, 35.2329], [133.4698, 35.23], [133.4718, 35.2302], [133.4773, 35.2325], [133.4797, 35.2324], [133.4819, 35.2332], [133.4874, 35.2323], [133.4878, 35.2341], [133.4897, 35.2363], [133.4955, 35.2398], [133.4994, 35.2371], [133.5027, 35.2361], [133.5056, 35.2361], [133.5081, 35.2331], [133.5143, 35.2355], [133.5148, 35.238], [133.5171, 35.2407], [133.5229, 35.2391], [133.5257, 35.2392], [133.5283, 35.2365], [133.5345, 35.2365], [133.5383, 35.2387], [133.5393, 35.2409], [133.5438, 35.243], [133.5482, 35.2437], [133.5497, 35.2426], [133.5548, 35.2418], [133.5565, 35.2429], [133.5577, 35.2456], [133.5607, 35.2467], [133.5617, 35.2489], [133.5624, 35.2542], [133.5665, 35.2554], [133.5681, 35.2568], [133.5682, 35.2593], [133.5669, 35.2608], [133.5678, 35.2633], [133.5669, 35.2665], [133.5679, 35.2687], [133.5708, 35.2709], [133.5719, 35.2727], [133.5707, 35.2755], [133.5687, 35.2768], [133.5722, 35.2801], [133.5705, 35.2871], [133.5748, 35.2899], [133.5742, 35.2922], [133.5769, 35.2955], [133.5768, 35.2968], [133.5777, 35.2972], [133.5776, 35.2986], [133.5764, 35.2992], [133.5759, 35.3004], [133.5772, 35.3019], [133.576, 35.3041], [133.5765, 35.3108], [133.5775, 35.3125], [133.5772, 35.3143], [133.5788, 35.3159], [133.581, 35.3166], [133.5812, 35.3192], [133.5827, 35.3214], [133.5845, 35.3216], [133.5849, 35.3233], [133.5875, 35.3244], [133.5901, 35.3272], [133.5893, 35.3288], [133.5921, 35.3304], [133.5922, 35.3325], [133.5893, 35.3333], [133.5894, 35.3357], [133.5884, 35.3369], [133.5943, 35.3407], [133.5963, 35.3449], [133.5956, 35.3455], [133.5956, 35.3469], [133.5935, 35.3512], [133.5911, 35.351], [133.5896, 35.3517], [133.5858, 35.3517], [133.5804, 35.3589], [133.5764, 35.3599]]]}, "properties": {"name": "鳥取県江府町"}}]}