{"type":"FeatureCollection", "features": [
{"type":"Feature","geometry":{"type":"MultiPolygon","coordinates":[[[[140.1972,41.3978],[140.6395,41.8164],[140.9665,41.7101],[141.1866,41.8022],[140.7592,42.1169],[140.549,42.1134],[140.2881,42.2519],[140.4757,42.589],[140.7086,42.5826],[141.0025,42.301],[141.6954,42.6574],[141.6249,42.6201],[141.9023,42.5781],[143.2491,41.9244],[143.4319,42.4768],[143.9617,42.8984],[144.2718,43.0038],[144.7742,42.9327],[144.7852,43.0555],[144.9735,42.9812],[145.1726,43.076],[145.1469,43.1453],[145.5202,43.165],[145.5679,43.283],[145.8175,43.3854],[145.3964,43.291],[145.1936,43.6206],[145.3435,43.584],[145.1397,43.6491],[145.0591,43.7846],[145.3444,44.3394],[144.7953,43.9314],[144.3543,43.9584],[144.2437,44.1133],[143.5355,44.2606],[142.9902,44.5603],[141.95,45.5204],[141.7963,45.4067],[141.6432,45.4489],[141.5689,45.1983],[141.7899,44.6051],[141.6474,44.3161],[141.6463,43.9419],[141.3288,43.725],[141.4235,43.3282],[141.162,43.1439],[141.0097,43.2399],[140.7904,43.1948],[140.4965,43.3727],[140.3462,43.3338],[140.5206,42.9908],[140.3044,42.7775],[140.1861,42.8277],[139.8222,42.6106],[139.7744,42.2592],[140.1328,41.9749],[139.9859,41.5511],[140.1972,41.3978]]],[[[146.625,43.7283],[146.9147,43.8473],[146.6098,43.8203],[146.625,43.7283]]],[[[139.4246,42.0833],[139.5586,42.2528],[139.4254,42.2053],[139.4246,42.0833]]],[[[141.0035,45.3333],[141.043,45.2739],[141.0674,45.424],[140.9673,45.4642],[141.0035,45.3333]]],[[[141.2377,45.097],[141.3246,45.1837],[141.1935,45.2592],[141.1268,45.186],[141.2377,45.097]]],[[[145.5357,43.6667],[145.5894,43.8678],[145.7811,43.9319],[145.9221,44.1361],[146.5763,44.456],[146.0933,44.4835],[145.7414,44.0511],[145.4033,43.8387],[145.5357,43.6667]]],[[[146.875,44.4383],[147.2527,44.6003],[147.6573,44.9957],[147.9045,44.961],[148.3023,45.2151],[148.8418,45.3362],[148.8875,45.5206],[148.6542,45.5385],[148.4181,45.3272],[148.1664,45.2586],[148.0291,45.2712],[147.9038,45.4299],[147.8693,45.2236],[147.6508,45.0787],[147.4963,45.1129],[147.5172,44.9974],[147.2423,44.8081],[147.1073,44.8223],[147.1861,44.6974],[147.0064,44.6593],[146.993,44.5754],[146.9481,44.6314],[146.875,44.4383]]]]},"properties":{"name":"北海道"}},
{"type":"Feature","geometry":{"type":"Polygon","coordinates":[[[139.9363,40.4282],[140.3877,40.4871],[140.6526,40.4033],[140.8783,40.511],[140.8613,40.4406],[140.9852,40.4272],[140.9551,40.2476],[141.316,40.3726],[141.5372,40.3474],[141.6826,40.4503],[141.4246,40.7068],[141.465,41.4296],[141.2719,41.3542],[140.9077,41.5442],[140.7642,41.1456],[141.1711,41.2796],[141.2725,41.1351],[141.145,40.8776],[140.8789,41.0099],[140.8452,40.873],[140.7039,40.8501],[140.6393,41.1843],[140.3443,41.263],[140.2543,40.8059],[139.8608,40.6158],[139.9363,40.4282]]]},"properties":{"name":"青森県"}},
{"type":"Feature","geometry":{"type":"Polygon","coordinates":[[[140.9551,40.2476],[140.8592,40.1714],[140.8781,39.8746],[140.7822,39.8678],[140.8223,39.65],[140.6531,39.391],[140.8082,39.1804],[140.7736,38.9581],[141.1398,38.8775],[141.2325,38.7477],[141.3093,38.8222],[141.4379,38.7822],[141.4905,38.9979],[141.6317,38.9707],[141.7052,38.9388],[141.722,39.0658],[141.8473,39.0262],[141.8122,39.1136],[141.9212,39.1047],[141.836,39.1469],[141.997,39.3507],[141.8972,39.3374],[142.0725,39.5469],[142.0245,39.6563],[141.9481,39.5877],[141.956,39.9837],[141.6826,40.4503],[141.5372,40.3474],[141.316,40.3726],[140.9551,40.2476]]]},"properties":{"name":"岩手県"}},
{"type":"Feature","geometry":{"type":"Polygon","coordinates":[[[140.7736,38.9581],[140.5471,38.8892],[140.6465,38.7695],[140.5374,38.6354],[140.62,38.4548],[140.28,37.9766],[140.6626,37.9002],[140.7921,37.7733],[140.9311,37.8962],[141.0744,38.3779],[141.4298,38.3997],[141.525,38.2726],[141.4474,38.4439],[141.5298,38.6367],[141.4442,38.6734],[141.5617,38.6914],[141.575,38.9062],[141.6746,38.8582],[141.6317,38.9707],[141.4905,38.9979],[141.4379,38.7822],[141.3093,38.8222],[141.2325,38.7477],[141.1398,38.8775],[140.7736,38.9581]]]},"properties":{"name":"宮城県"}},
{"type":"Feature","geometry":{"type":"Polygon","coordinates":[[[139.9363,40.4282],[140.0261,40.3433],[139.9491,40.0789],[139.8183,39.9601],[139.693,39.9952],[139.7553,39.8568],[139.9249,39.8995],[140.0503,39.7706],[140.0244,39.4155],[139.8696,39.1183],[140.0624,39.1335],[140.5471,38.8892],[140.7736,38.9581],[140.8082,39.1804],[140.6531,39.391],[140.8223,39.65],[140.7822,39.8678],[140.8781,39.8746],[140.8592,40.1714],[140.9551,40.2476],[140.9852,40.4272],[140.8613,40.4406],[140.8783,40.511],[140.6526,40.4033],[140.3877,40.4871],[139.9363,40.4282]]]},"properties":{"name":"秋田県"}},
{"type":"Feature","geometry":{"type":"Polygon","coordinates":[[[140.5471,38.8892],[140.0624,39.1335],[139.8696,39.1183],[139.8699,39.0706],[139.5478,38.5529],[139.8989,38.293],[139.6823,38.1718],[139.6808,37.847],[140.2355,37.7459],[140.28,37.9766],[140.62,38.4548],[140.5374,38.6354],[140.6465,38.7695],[140.5471,38.8892]]]},"properties":{"name":"山形県"}},
{"type":"Feature","geometry":{"type":"Polygon","coordinates":[[[140.28,37.9766],[140.2355,37.7459],[139.6808,37.847],[139.7415,37.8177],[139.5493,37.649],[139.5851,37.5129],[139.1974,37.4111],[139.2319,36.9405],[139.3933,36.9108],[139.9024,37.1543],[140.1374,37.1064],[140.2643,36.9333],[140.4642,36.7914],[140.5861,36.9453],[140.7934,36.8592],[140.9831,36.9955],[140.9755,37.8276],[140.9311,37.8962],[140.7921,37.7733],[140.6626,37.9002],[140.28,37.9766]]]},"properties":{"name":"福島県"}},
{"type":"Feature","geometry":{"type":"Polygon","coordinates":[[[140.2643,36.9333],[140.1926,36.4047],[139.9735,36.3785],[139.6879,36.1997],[139.7762,36.0908],[140.1507,35.8434],[140.5112,35.9587],[140.852,35.7447],[140.7132,35.9645],[140.6524,35.9266],[140.5582,36.2726],[140.7934,36.8592],[140.5861,36.9453],[140.4642,36.7914],[140.2643,36.9333]]]},"properties":{"name":"茨城県"}},
{"type":"Feature","geometry":{"type":"Polygon","coordinates":[[[139.3933,36.9108],[139.3296,36.6277],[139.4835,36.5819],[139.361,36.3837],[139.6644,36.2071],[139.6879,36.1997],[139.9735,36.3785],[140.1926,36.4047],[140.2643,36.9333],[140.1374,37.1064],[139.9024,37.1543],[139.3933,36.9108]]]},"properties":{"name":"栃木県"}},
{"type":"Feature","geometry":{"type":"Polygon","coordinates":[[[139.2319,36.9405],[139.097,37.0586],[138.9291,36.8326],[138.6959,36.7385],[138.5143,36.6908],[138.3971,36.4905],[138.4596,36.4048],[138.6478,36.4093],[138.5773,36.1681],[138.7126,35.9853],[139.0419,36.1279],[139.1297,36.2834],[139.6644,36.2071],[139.361,36.3837],[139.4835,36.5819],[139.3296,36.6277],[139.3933,36.9108],[139.2319,36.9405]]]},"properties":{"name":"群馬県"}},
{"type":"Feature","geometry":{"type":"Polygon","coordinates":[[[139.6879,36.1997],[139.6644,36.2071],[139.1297,36.2834],[139.0419,36.1279],[138.7126,35.9853],[138.729,35.9092],[138.9439,35.8548],[139.0188,35.8984],[139.3922,35.7633],[139.8938,35.7827],[139.7762,36.0908],[139.6879,36.1997]]]},"properties":{"name":"埼玉県"}},
{"type":"Feature","geometry":{"type":"Polygon","coordinates":[[[139.7762,36.0908],[139.8938,35.7827],[139.8715,35.6386],[139.9868,35.6903],[140.127,35.5693],[139.7839,35.3128],[139.8583,34.9999],[139.7531,34.9659],[139.8886,34.8994],[140.1196,35.1149],[140.3772,35.1811],[140.4476,35.5221],[140.852,35.7447],[140.5112,35.9587],[140.1507,35.8434],[139.7762,36.0908]]]},"properties":{"name":"千葉県"}},
{"type":"Feature","geometry":{"type":"MultiPolygon","coordinates":[[[[138.9439,35.8548],[139.1313,35.672],[139.4687,35.502],[139.5255,35.6427],[139.7765,35.5345],[139.7648,35.6564],[139.8715,35.6386],[139.8938,35.7827],[139.3922,35.7633],[139.0188,35.8984],[138.9439,35.8548]]],[[[139.7802,33.0833],[139.8575,33.0991],[139.7584,33.1595],[139.7802,33.0833]]],[[[139.375,34.6976],[139.4493,34.7403],[139.3605,34.7991],[139.375,34.6976]]]]},"properties":{"name":"東京都"}},
{"type":"Feature","geometry":{"type":"Polygon","coordinates":[[[139.1313,35.672],[139.1101,35.5323],[138.9164,35.4006],[139.0014,35.3997],[138.9876,35.201],[139.1116,35.1414],[139.2079,35.2773],[139.4321,35.3193],[139.5713,35.293],[139.6779,35.1393],[139.747,35.2535],[139.6311,35.3],[139.6329,35.4645],[139.7765,35.5345],[139.5255,35.6427],[139.4687,35.502],[139.1313,35.672]]]},"properties":{"name":"神奈川県"}},
{"type":"Feature","geometry":{"type":"MultiPolygon","coordinates":[[[[139.5478,38.5529],[139.368,38.1002],[138.831,37.8111],[138.5438,37.3685],[138.2315,37.1741],[137.635,36.9798],[137.7624,36.7662],[137.8672,36.9156],[138.0137,36.904],[138.0542,36.8001],[138.2876,36.8457],[138.5234,37.0304],[138.6959,36.7385],[138.9291,36.8326],[139.097,37.0586],[139.2319,36.9405],[139.1974,37.4111],[139.5851,37.5129],[139.5493,37.649],[139.7415,37.8177],[139.6808,37.847],[139.6823,38.1718],[139.8989,38.293],[139.5478,38.5529]]],[[[138.2132,37.8333],[138.5001,37.9203],[138.5726,38.0786],[138.4343,38.0938],[138.5148,38.3321],[138.2423,38.0874],[138.2272,37.9797],[138.3437,37.9651],[138.2132,37.8333]]]]},"properties":{"name":"新潟県"}},
{"type":"Feature","geometry":{"type":"Polygon","coordinates":[[[137.635,36.9798],[137.4258,36.925],[137.3011,36.7557],[137.0081,36.8357],[137.0517,36.9592],[136.8956,36.9247],[136.7892,36.719],[136.7923,36.2992],[136.8712,36.3675],[136.9753,36.2744],[137.1607,36.4566],[137.5873,36.3898],[137.7624,36.7662],[137.635,36.9798]]]},"properties":{"name":"富山県"}},
{"type":"Feature","geometry":{"type":"Polygon","coordinates":[[[137.0517,36.9592],[137.0575,37.1088],[136.9971,37.0608],[136.8592,37.0761],[136.9063,37.2182],[137.0108,37.1832],[137.234,37.2947],[137.3265,37.5308],[136.7372,37.3478],[136.6692,37.1475],[136.7439,36.8277],[136.2439,36.2953],[136.358,36.1651],[136.7543,36.0863],[136.8518,36.2471],[136.7923,36.2992],[136.7892,36.719],[136.8956,36.9247],[137.0517,36.9592]]]},"properties":{"name":"石川県"}},
{"type":"Feature","geometry":{"type":"Polygon","coordinates":[[[136.2439,36.2953],[135.9577,35.9825],[136.0725,35.6609],[136.0175,35.7641],[135.9788,35.6279],[135.8147,35.6423],[135.8337,35.5359],[135.7146,35.5699],[135.7177,35.4838],[135.4866,35.5579],[135.5276,35.3801],[135.7688,35.356],[135.9396,35.5205],[136.1698,35.5659],[136.1509,35.6982],[136.2807,35.6586],[136.3767,35.7952],[136.7893,35.7994],[136.7543,36.0863],[136.358,36.1651],[136.2439,36.2953]]]},"properties":{"name":"福井県"}},
{"type":"Feature","geometry":{"type":"Polygon","coordinates":[[[138.729,35.9092],[138.4716,35.8962],[138.3705,35.9714],[138.1856,35.7955],[138.2187,35.6445],[138.2487,35.3316],[138.4309,35.1804],[138.5331,35.2007],[138.5819,35.4457],[138.6805,35.3577],[138.9164,35.4006],[139.1101,35.5323],[139.1313,35.672],[138.9439,35.8548],[138.729,35.9092]]]},"properties":{"name":"山梨県"}},
{"type":"Feature","geometry":{"type":"Polygon","coordinates":[[[138.6959,36.7385],[138.5234,37.0304],[138.2876,36.8457],[138.0542,36.8001],[138.0137,36.904],[137.8672,36.9156],[137.7624,36.7662],[137.5873,36.3898],[137.5948,36.0129],[137.3246,35.812],[137.6316,35.5099],[137.562,35.2893],[137.5787,35.1984],[137.8381,35.2125],[138.1413,35.3696],[138.2187,35.6445],[138.1856,35.7955],[138.3705,35.9714],[138.4716,35.8962],[138.729,35.9092],[138.7126,35.9853],[138.5773,36.1681],[138.6478,36.4093],[138.4596,36.4048],[138.3971,36.4905],[138.5143,36.6908],[138.6959,36.7385]]]},"properties":{"name":"長野県"}},
{"type":"Feature","geometry":{"type":"Polygon","coordinates":[[[136.7923,36.2992],[136.8518,36.2471],[136.7543,36.0863],[136.7893,35.7994],[136.3767,35.7952],[136.2807,35.6586],[136.4444,35.3894],[136.4151,35.2177],[136.5342,35.2571],[136.6728,35.1348],[136.7619,35.3611],[136.9687,35.4221],[137.1865,35.2531],[137.562,35.2893],[137.6316,35.5099],[137.3246,35.812],[137.5948,36.0129],[137.5873,36.3898],[137.1607,36.4566],[136.9753,36.2744],[136.8712,36.3675],[136.7923,36.2992]]]},"properties":{"name":"岐阜県"}},
{"type":"Feature","geometry":{"type":"Polygon","coordinates":[[[138.9164,35.4006],[138.6805,35.3577],[138.5819,35.4457],[138.5331,35.2007],[138.4309,35.1804],[138.2487,35.3316],[138.2187,35.6445],[138.1413,35.3696],[137.8381,35.2125],[137.6413,34.8931],[137.487,34.8117],[137.485,34.6741],[138.2272,34.5951],[138.3558,34.9137],[138.6949,35.1449],[138.9073,35.0485],[138.7624,34.9717],[138.7391,34.6901],[138.8434,34.6009],[139.1407,34.8909],[139.1116,35.1414],[138.9876,35.201],[139.0014,35.3997],[138.9164,35.4006]]]},"properties":{"name":"静岡県"}},
{"type":"Feature","geometry":{"type":"Polygon","coordinates":[[[137.562,35.2893],[137.1865,35.2531],[136.9687,35.4221],[136.7619,35.3611],[136.6728,35.1348],[136.7706,35.0214],[136.8423,35.0827],[136.8403,34.7639],[136.9719,34.6952],[136.9261,34.8212],[136.981,34.9568],[137.0299,34.775],[137.2161,34.8232],[137.3518,34.7275],[137.0176,34.5784],[137.485,34.6741],[137.487,34.8117],[137.6413,34.8931],[137.8381,35.2125],[137.5787,35.1984],[137.562,35.2893]]]},"properties":{"name":"愛知県"}},
{"type":"Feature","geometry":{"type":"Polygon","coordinates":[[[136.4151,35.2177],[136.366,34.9049],[136.1108,34.9019],[136.0223,34.7916],[136.0555,34.7386],[136.0498,34.5802],[136.2299,34.4929],[136.0691,34.3943],[136.1187,34.0824],[136.0036,34.0099],[135.9091,33.9185],[135.8808,33.9094],[135.8748,33.8616],[135.8579,33.8732],[136.0119,33.7233],[136.2107,33.9996],[136.2722,33.9726],[136.2008,34.076],[136.2979,34.0868],[136.3219,34.1962],[136.6051,34.2585],[136.662,34.3458],[136.9018,34.2784],[136.9093,34.3652],[136.8124,34.3676],[136.9227,34.4471],[136.5271,34.6105],[136.6503,34.9912],[136.7706,35.0214],[136.6728,35.1348],[136.5342,35.2571],[136.4151,35.2177]]]},"properties":{"name":"三重県"}},
{"type":"Feature","geometry":{"type":"Polygon","coordinates":[[[135.7688,35.356],[135.8608,35.283],[135.8666,34.8921],[136.0223,34.7916],[136.1108,34.9019],[136.366,34.9049],[136.4151,35.2177],[136.4444,35.3894],[136.2807,35.6586],[136.1509,35.6982],[136.1698,35.5659],[135.9396,35.5205],[135.7688,35.356]]]},"properties":{"name":"滋賀県"}},
{"type":"Feature","geometry":{"type":"Polygon","coordinates":[[[135.4866,35.5579],[135.3425,35.5519],[135.3982,35.4789],[135.3167,35.4512],[135.2562,35.5985],[135.1925,35.5402],[135.3086,35.6936],[135.2234,35.7793],[134.8675,35.6582],[134.9269,35.5125],[135.0452,35.5087],[134.9216,35.3151],[135.3898,35.1288],[135.3712,35.0453],[135.5413,34.9152],[135.6133,34.9712],[135.7286,34.778],[135.849,34.706],[136.0555,34.7386],[136.0223,34.7916],[135.8666,34.8921],[135.8608,35.283],[135.7688,35.356],[135.5276,35.3801],[135.4866,35.5579]]]},"properties":{"name":"京都府"}},
{"type":"Feature","geometry":{"type":"Polygon","coordinates":[[[135.3712,35.0453],[135.3464,34.9647],[135.4685,34.9263],[135.4073,34.6971],[135.4318,34.5309],[135.0928,34.312],[135.6511,34.3832],[135.7286,34.778],[135.6133,34.9712],[135.5413,34.9152],[135.3712,35.0453]]]},"properties":{"name":"大阪府"}},
{"type":"Feature","geometry":{"type":"MultiPolygon","coordinates":[[[[134.8675,35.6582],[134.3699,35.6146],[134.5139,35.3535],[134.4028,35.241],[134.2634,35.0113],[134.3217,34.7219],[134.4658,34.8091],[135.0517,34.6245],[135.4073,34.6971],[135.4685,34.9263],[135.3464,34.9647],[135.3712,35.0453],[135.3898,35.1288],[134.9216,35.3151],[135.0452,35.5087],[134.9269,35.5125],[134.8675,35.6582]]],[[[134.7217,34.25],[134.7341,34.1887],[134.9518,34.2667],[134.8951,34.4167],[135.0038,34.6086],[134.6547,34.2944],[134.7217,34.25]]]]},"properties":{"name":"兵庫県"}},
{"type":"Feature","geometry":{"type":"Polygon","coordinates":[[[136.0555,34.7386],[135.849,34.706],[135.7286,34.778],[135.6511,34.3832],[135.7302,34.2284],[135.5463,34.0981],[135.6011,33.9026],[135.8579,33.8732],[135.8748,33.8616],[135.8808,33.9094],[135.9091,33.9185],[136.0036,34.0099],[136.1187,34.0824],[136.0691,34.3943],[136.2299,34.4929],[136.0498,34.5802],[136.0555,34.7386]]]},"properties":{"name":"奈良県"}},
{"type":"Feature","geometry":{"type":"Polygon","coordinates":[[[135.8579,33.8732],[135.6011,33.9026],[135.5463,34.0981],[135.7302,34.2284],[135.6511,34.3832],[135.0928,34.312],[135.2096,34.1495],[135.0786,34.0738],[135.1715,34.0277],[135.0577,33.8798],[135.4002,33.7208],[135.3295,33.6706],[135.4462,33.549],[135.7877,33.4378],[135.9909,33.6818],[136.0119,33.7233],[135.8579,33.8732]]]},"properties":{"name":"和歌山県"}},
{"type":"Feature","geometry":{"type":"Polygon","coordinates":[[[134.3699,35.6146],[133.402,35.4528],[133.2446,35.5491],[133.3106,35.2679],[133.1526,35.219],[133.1364,35.0743],[133.2691,35.0577],[133.5262,35.1829],[133.5968,35.345],[133.8321,35.2488],[134.0148,35.3504],[134.1724,35.1697],[134.4028,35.241],[134.5139,35.3535],[134.3699,35.6146]]]},"properties":{"name":"鳥取県"}},
{"type":"Feature","geometry":{"type":"MultiPolygon","coordinates":[[[[133.2446,35.5491],[133.3268,35.5679],[133.0901,35.6038],[132.6289,35.4348],[132.6285,35.2879],[131.8493,34.7113],[131.6906,34.681],[131.668,34.5041],[131.8201,34.3026],[131.9592,34.3065],[132.0686,34.4677],[132.242,34.8064],[132.6987,34.8429],[132.634,34.9048],[132.8732,35.1023],[133.1364,35.0743],[133.1526,35.219],[133.3106,35.2679],[133.2446,35.5491]]],[[[132.9522,36.0833],[132.9984,36.038],[133.0929,36.1393],[132.9522,36.0833]]],[[[133.2486,36.1667],[133.3859,36.2683],[133.279,36.3489],[133.1793,36.288],[133.2486,36.1667]]]]},"properties":{"name":"島根県"}},
{"type":"Feature","geometry":{"type":"Polygon","coordinates":[[[134.4028,35.241],[134.1724,35.1697],[134.0148,35.3504],[133.8321,35.2488],[133.5968,35.345],[133.5262,35.1829],[133.2691,35.0577],[133.4469,34.4803],[133.6876,34.5256],[133.7336,34.4687],[133.7393,34.5252],[133.7866,34.4355],[133.9349,34.4509],[134.0472,34.5766],[133.9461,34.5992],[134.12,34.5886],[134.2449,34.6982],[134.186,34.7432],[134.3217,34.7219],[134.2634,35.0113],[134.4028,35.241]]]},"properties":{"name":"岡山県"}},
{"type":"Feature","geometry":{"type":"MultiPolygon","coordinates":[[[[133.1364,35.0743],[132.8732,35.1023],[132.634,34.9048],[132.6987,34.8429],[132.242,34.8064],[132.0686,34.4677],[132.1443,34.2368],[132.2456,34.2107],[132.3383,34.3541],[132.4756,34.3671],[132.5935,34.2125],[133.2512,34.4415],[133.3669,34.3687],[133.4469,34.4803],[133.2691,35.0577],[133.1364,35.0743]]],[[[132.4457,34.1667],[132.4295,34.1287],[132.4892,34.1413],[132.4796,34.2963],[132.4741,34.2085],[132.3721,34.2586],[132.4457,34.1667]]],[[[132.5508,34.0789],[132.5274,34.2003],[132.5049,34.1339],[132.4477,34.0943],[132.5508,34.0789]]]]},"properties":{"name":"広島県"}},
{"type":"Feature","geometry":{"type":"MultiPolygon","coordinates":[[[[131.6906,34.681],[131.3063,34.3828],[130.9723,34.4423],[131.0359,34.3713],[130.8669,34.2878],[130.9151,33.9389],[131.0368,34.0571],[131.2449,33.919],[131.3852,34.0512],[131.4406,33.9827],[131.7423,34.072],[131.8276,34.0294],[131.7779,33.9739],[131.8642,34.0071],[132.1397,33.8317],[132.2456,34.2107],[132.1443,34.2368],[132.0686,34.4677],[131.9592,34.3065],[131.8201,34.3026],[131.668,34.5041],[131.6906,34.681]]],[[[132.1769,33.9167],[132.3611,33.8606],[132.4721,33.9502],[132.1769,33.9167]]]]},"properties":{"name":"山口県"}},
{"type":"Feature","geometry":{"type":"Polygon","coordinates":[[[133.6607,33.8818],[134.0328,33.8284],[134.0581,33.691],[134.3059,33.5484],[134.7502,33.8339],[134.6288,33.8569],[134.7045,33.9296],[134.5883,34.0081],[134.5903,34.2377],[134.4402,34.2079],[133.6795,34.0125],[133.6607,33.8818]]]},"properties":{"name":"徳島県"}},
{"type":"Feature","geometry":{"type":"MultiPolygon","coordinates":[[[[134.4402,34.2079],[134.1366,34.4003],[133.9277,34.3897],[133.674,34.222],[133.557,34.2618],[133.6486,34.1932],[133.5985,34.0436],[133.6795,34.0125],[134.4402,34.2079]]],[[[134.2309,34.4167],[134.3383,34.4333],[134.3668,34.5615],[134.1672,34.5249],[134.2309,34.4167]]]]},"properties":{"name":"香川県"}},
{"type":"Feature","geometry":{"type":"MultiPolygon","coordinates":[[[[133.6795,34.0125],[133.5985,34.0436],[133.2301,33.9514],[133.119,33.9245],[132.8914,34.1184],[132.6528,33.6969],[132.0126,33.3442],[132.4209,33.4634],[132.3702,33.3192],[132.5229,33.3157],[132.4678,33.2543],[132.5577,33.2202],[132.3931,33.2049],[132.5028,33.1297],[132.3787,33.0215],[132.4847,33.0472],[132.5539,32.9603],[132.4698,32.9696],[132.4909,32.8979],[132.6555,32.9252],[132.6194,33.1809],[132.6958,33.1376],[132.9005,33.319],[132.8094,33.4648],[133.0153,33.4808],[133.1928,33.7939],[133.6607,33.8818],[133.6795,34.0125]]],[[[132.9941,34.25],[132.9484,34.1929],[133.058,34.2192],[132.9941,34.25]]],[[[133.0357,34.1667],[133.0147,34.1094],[133.1135,34.1786],[133.0357,34.1667]]]]},"properties":{"name":"愛媛県"}},
{"type":"Feature","geometry":{"type":"Polygon","coordinates":[[[133.6607,33.8818],[133.1928,33.7939],[133.0153,33.4808],[132.8094,33.4648],[132.9005,33.319],[132.6958,33.1376],[132.6194,33.1809],[132.6555,32.9252],[132.7225,32.881],[132.6295,32.7625],[133.0201,32.7234],[132.9504,32.8206],[133.0082,33.0114],[133.223,33.1533],[133.2903,33.4048],[133.4574,33.42],[133.3504,33.4159],[133.5526,33.5408],[133.7452,33.5371],[133.9348,33.4871],[134.1765,33.243],[134.3059,33.5484],[134.0581,33.691],[134.0328,33.8284],[133.6607,33.8818]]]},"properties":{"name":"高知県"}},
{"type":"Feature","geometry":{"type":"Polygon","coordinates":[[[130.3558,33.1404],[130.4141,33.0023],[130.68,33.1713],[130.8398,33.1041],[130.8949,33.4462],[131.1773,33.5072],[131.1856,33.6169],[131.0937,33.6235],[131.005,33.8064],[131.0022,33.9699],[130.8915,33.8876],[130.7426,33.8736],[130.7697,33.949],[130.5251,33.8901],[130.3181,33.6609],[130.4306,33.6867],[130.3932,33.5973],[130.2077,33.667],[130.039,33.47],[130.5357,33.4398],[130.3558,33.1404]]]},"properties":{"name":"福岡県"}},
{"type":"Feature","geometry":{"type":"Polygon","coordinates":[[[130.039,33.47],[129.8459,33.5561],[129.859,33.4541],[129.783,33.4513],[129.8537,33.2916],[129.7908,33.3404],[129.8171,33.1845],[130.2036,32.9571],[130.1261,33.1172],[130.2464,33.2029],[130.3558,33.1404],[130.5357,33.4398],[130.039,33.47]]]},"properties":{"name":"佐賀県"}},
{"type":"Feature","geometry":{"type":"MultiPolygon","coordinates":[[[[129.7908,33.3404],[129.5694,33.3778],[129.5525,33.2176],[129.9324,33.0266],[130.005,32.8405],[129.7886,32.8671],[129.8224,32.9826],[129.6773,33.0993],[129.6337,32.9255],[129.8707,32.7487],[129.7388,32.5694],[130.0855,32.795],[130.2079,32.7527],[130.1674,32.5907],[130.3433,32.6685],[130.38,32.7845],[130.3116,32.8776],[130.1841,32.8577],[130.2036,32.9571],[129.8171,33.1845],[129.7908,33.3404]]],[[[129.0477,32.8333],[129.1831,32.973],[129.0871,32.9842],[129.1137,33.1642],[128.9917,32.9438],[129.0477,32.8333]]],[[[128.7519,32.5833],[128.8973,32.6507],[128.8106,32.7981],[128.7737,32.7343],[128.651,32.7755],[128.5981,32.6133],[128.7519,32.5833]]],[[[129.6777,33.75],[129.7885,33.7421],[129.7687,33.8464],[129.6769,33.8478],[129.6777,33.75]]],[[[129.1733,34.1667],[129.2143,34.0839],[129.3478,34.2976],[129.2044,34.3313],[129.1733,34.1667]]],[[[129.3514,34.3333],[129.4497,34.7066],[129.3197,34.6472],[129.2273,34.3624],[129.3514,34.3333]]]]},"properties":{"name":"長崎県"}},
{"type":"Feature","geometry":{"type":"MultiPolygon","coordinates":[[[[130.4141,33.0023],[130.6144,32.7927],[130.4594,32.6073],[130.6614,32.6319],[130.3608,32.1686],[130.4537,32.1129],[130.6086,32.1874],[130.7206,32.1008],[131.109,32.1601],[131.0181,32.5469],[131.3295,32.833],[131.1115,33.1831],[130.9922,33.1832],[130.9909,33.0238],[130.8398,33.1041],[130.68,33.1713],[130.4141,33.0023]]],[[[130,32.2355],[130.2044,32.3252],[130.189,32.5488],[130.0126,32.5298],[129.9769,32.3292],[130.0717,32.3003],[130,32.2355]]],[[[130.3538,32.3767],[130.461,32.5303],[130.2046,32.4514],[130.3538,32.3767]]]]},"properties":{"name":"熊本県"}},
{"type":"Feature","geometry":{"type":"Polygon","coordinates":[[[130.8398,33.1041],[130.9909,33.0238],[130.9922,33.1832],[131.1115,33.1831],[131.3295,32.833],[131.5684,32.7541],[131.8244,32.8299],[131.8857,32.7459],[132.008,32.8266],[131.977,32.9229],[132.0854,32.933],[131.8897,32.9911],[132.0028,33.0963],[131.7984,33.1272],[131.9031,33.2674],[131.5126,33.2675],[131.4982,33.3587],[131.7031,33.4071],[131.7451,33.5426],[131.6358,33.6823],[131.4679,33.6159],[131.1856,33.6169],[131.1773,33.5072],[130.8949,33.4462],[130.8398,33.1041]]]},"properties":{"name":"大分県"}},
{"type":"Feature","geometry":{"type":"Polygon","coordinates":[[[130.7206,32.1008],[130.914,31.8858],[130.8836,31.8059],[131.0544,31.6334],[131.1884,31.6246],[131.1603,31.4619],[131.3492,31.3665],[131.6568,32.4802],[131.8857,32.7459],[131.8244,32.8299],[131.5684,32.7541],[131.3295,32.833],[131.0181,32.5469],[131.109,32.1601],[130.7206,32.1008]]]},"properties":{"name":"宮崎県"}},
{"type":"Feature","geometry":{"type":"MultiPolygon","coordinates":[[[[130.3608,32.1686],[130.1713,32.088],[130.1668,31.7915],[130.3346,31.5959],[130.2711,31.4265],[130.1078,31.4178],[130.2144,31.2496],[130.6399,31.1895],[130.5137,31.4908],[130.6851,31.7349],[130.8231,31.6576],[130.7547,31.559],[130.6792,31.6294],[130.5911,31.5888],[130.6994,31.5545],[130.8034,31.3363],[130.6601,30.9943],[131.1297,31.2769],[131.0161,31.3803],[131.1603,31.4619],[131.1884,31.6246],[131.0544,31.6334],[130.8836,31.8059],[130.914,31.8858],[130.7206,32.1008],[130.6086,32.1874],[130.4537,32.1129],[130.3608,32.1686]]],[[[130.875,30.3457],[131.0551,30.6048],[131.0567,30.8398],[130.8491,30.4671],[130.875,30.3457]]],[[[129.9568,28.3333],[129.9438,28.2744],[130.0333,28.3693],[129.9568,28.3333]]],[[[128.5494,27.3333],[128.7112,27.4389],[128.5315,27.4044],[128.5494,27.3333]]],[[[128.9248,27.6667],[129.0374,27.7597],[128.971,27.8927],[128.8815,27.8465],[128.9248,27.6667]]],[[[129.3191,28.0833],[129.1757,28.1883],[129.2153,28.077],[129.3191,28.0833]]],[[[130.5,30.231],[130.6718,30.3755],[130.4978,30.4695],[130.3764,30.3828],[130.5,30.231]]],[[[129.375,28.1121],[129.338,28.1702],[129.4772,28.2115],[129.4078,28.2504],[129.7104,28.422],[129.6899,28.5308],[129.6536,28.4225],[129.5442,28.4625],[129.2108,28.3067],[129.2742,28.2614],[129.1339,28.2543],[129.375,28.1121]]],[[[129.677,31.6667],[129.7135,31.6217],[129.8023,31.7852],[129.677,31.6667]]]]},"properties":{"name":"鹿児島県"}},
{"type":"Feature","geometry":{"type":"MultiPolygon","coordinates":[[[[126.7626,26.3333],[126.8126,26.2918],[126.779,26.3911],[126.7626,26.3333]]],[[[123.75,24.2833],[123.8806,24.2562],[123.9398,24.3649],[123.7695,24.4367],[123.7516,24.3127],[123.6617,24.3089],[123.75,24.2833]]],[[[124.1642,24.3333],[124.3399,24.6056],[124.2229,24.4554],[124.0767,24.4534],[124.1642,24.3333]]],[[[125.2561,24.75],[125.4693,24.7191],[125.2679,24.914],[125.2561,24.75]]],[[[127.6569,26.0833],[127.8306,26.1658],[127.7606,26.2023],[127.8394,26.3324],[127.9222,26.2955],[127.8307,26.4321],[128.2785,26.6753],[128.2636,26.8742],[128.1232,26.6601],[127.88,26.7098],[127.984,26.5756],[127.7114,26.4405],[127.7601,26.3086],[127.6305,26.2062],[127.6569,26.0833]]]]},"properties":{"name":"沖縄県"}}
]}