{"type": "FeatureCollection", "features": [{"type": "Feature", "geometry": {"type": "MultiPolygon", "coordinates": [[[[140.6606, 40.9485], [140.6541, 40.9825], [140.6578, 40.983], [140.6579, 40.9835], [140.6559, 40.983], [140.6556, 40.9837], [140.6571, 40.9843], [140.6557, 40.9838], [140.6556, 40.986], [140.6584, 40.9835], [140.6569, 40.9861], [140.6548, 40.986], [140.6499, 41.006], [140.6453, 41.0393], [140.6449, 41.0451], [140.6476, 41.0477], [140.645, 41.0463], [140.6455, 41.0489], [140.6491, 41.0474], [140.6442, 41.05], [140.6383, 41.0627], [140.6316, 41.0971], [140.6318, 41.117], [140.6342, 41.125], [140.6326, 41.128], [140.6396, 41.1482], [140.6378, 41.1538], [140.6415, 41.1591], [140.6394, 41.1584], [140.6408, 41.1611], [140.6426, 41.1585], [140.6424, 41.1608], [140.6398, 41.162], [140.644, 41.1741], [140.6393, 41.1843], [140.6327, 41.1913], [140.6216, 41.1954], [140.6221, 41.1972], [140.619, 41.1968], [140.6223, 41.1976], [140.6177, 41.197], [140.6036, 41.2146], [140.5895, 41.2166], [140.5788, 41.2218], [140.5796, 41.223], [140.5668, 41.2237], [140.5633, 41.2269], [140.5623, 41.2241], [140.5597, 41.2245], [140.5618, 41.2258], [140.5546, 41.2244], [140.5492, 41.2289], [140.5432, 41.2206], [140.5385, 41.2179], [140.5362, 41.2186], [140.5385, 41.2204], [140.5362, 41.2199], [140.5364, 41.2212], [140.5268, 41.2212], [140.5233, 41.2182], [140.5245, 41.2161], [140.5206, 41.2157], [140.5229, 41.215], [140.5193, 41.2129], [140.5203, 41.211], [140.5185, 41.2114], [140.5219, 41.2092], [140.5207, 41.2065], [140.5013, 41.1914], [140.4863, 41.1838], [140.4854, 41.1848], [140.4821, 41.1831], [140.4816, 41.1843], [140.4775, 41.1833], [140.4814, 41.1851], [140.4777, 41.184], [140.4771, 41.1828], [140.4636, 41.1825], [140.459, 41.1877], [140.4465, 41.1892], [140.4366, 41.195], [140.4366, 41.1973], [140.4366, 41.195], [140.4324, 41.1956], [140.4336, 41.1976], [140.4325, 41.1959], [140.4308, 41.1968], [140.431, 41.1989], [140.4331, 41.1981], [140.4346, 41.1978], [140.4367, 41.1982], [140.432, 41.1986], [140.4306, 41.2005], [140.4307, 41.2016], [140.4283, 41.2031], [140.4282, 41.2056], [140.4268, 41.205], [140.4264, 41.2077], [140.4245, 41.2078], [140.4248, 41.209], [140.4033, 41.2215], [140.3968, 41.2352], [140.3903, 41.238], [140.3942, 41.2374], [140.3844, 41.2398], [140.3764, 41.2446], [140.3752, 41.248], [140.3719, 41.2473], [140.3644, 41.251], [140.3613, 41.2502], [140.3592, 41.2533], [140.3457, 41.2591], [140.3435, 41.2609], [140.3453, 41.2629], [140.3391, 41.2602], [140.338, 41.2551], [140.3428, 41.2495], [140.3396, 41.2424], [140.3413, 41.2419], [140.3401, 41.2391], [140.3325, 41.2381], [140.3303, 41.2206], [140.3286, 41.2207], [140.3348, 41.2075], [140.3324, 41.2064], [140.3345, 41.205], [140.3305, 41.1998], [140.3314, 41.1954], [140.3355, 41.1932], [140.3356, 41.1885], [140.3324, 41.1838], [140.3339, 41.1804], [140.3309, 41.1763], [140.3309, 41.1699], [140.3285, 41.1685], [140.3288, 41.165], [140.3263, 41.1642], [140.328, 41.16], [140.3217, 41.148], [140.3188, 41.1451], [140.3194, 41.1462], [140.311, 41.1458], [140.3123, 41.1376], [140.3086, 41.1364], [140.3104, 41.1352], [140.3073, 41.1321], [140.3041, 41.1329], [140.3028, 41.131], [140.2922, 41.134], [140.298, 41.1316], [140.2958, 41.1311], [140.2869, 41.1365], [140.2879, 41.138], [140.2852, 41.1387], [140.2862, 41.1367], [140.2842, 41.1359], [140.2778, 41.1398], [140.2714, 41.1369], [140.267, 41.138], [140.2651, 41.1356], [140.2571, 41.1407], [140.2534, 41.1382], [140.2537, 41.1355], [140.2488, 41.1336], [140.2507, 41.131], [140.2493, 41.1236], [140.2567, 41.1211], [140.2659, 41.1217], [140.2664, 41.1204], [140.2687, 41.1194], [140.2755, 41.1193], [140.2687, 41.1194], [140.2667, 41.1203], [140.2729, 41.1207], [140.2692, 41.1205], [140.2715, 41.1214], [140.2875, 41.1199], [140.2919, 41.1154], [140.2977, 41.1141], [140.3018, 41.1076], [140.3061, 41.1065], [140.3122, 41.0956], [140.3191, 41.0933], [140.3227, 41.0794], [140.324, 41.0545], [140.3226, 41.0384], [140.3192, 41.0372], [140.3213, 41.0375], [140.3219, 41.0287], [140.3166, 40.9805], [140.3097, 40.9751], [140.3147, 40.9777], [140.3146, 40.9754], [140.313, 40.9757], [140.3145, 40.9729], [140.3091, 40.9741], [140.3135, 40.9728], [140.3139, 40.9667], [140.3064, 40.9281], [140.3044, 40.9272], [140.2868, 40.8691], [140.2773, 40.8488], [140.2784, 40.8462], [140.2754, 40.8443], [140.2729, 40.8451], [140.2754, 40.8441], [140.2735, 40.8371], [140.259, 40.8121], [140.2471, 40.7972], [140.2487, 40.7968], [140.2454, 40.7953], [140.2416, 40.7973], [140.2421, 40.7922], [140.2361, 40.7955], [140.2409, 40.7922], [140.238, 40.7883], [140.2412, 40.7899], [140.2399, 40.788], [140.2201, 40.7789], [140.2104, 40.7802], [140.2084, 40.7844], [140.2077, 40.7811], [140.2055, 40.7841], [140.2077, 40.7846], [140.2058, 40.7853], [140.2116, 40.7857], [140.2038, 40.7856], [140.2005, 40.7831], [140.1956, 40.7843], [140.1916, 40.7827], [140.1848, 40.7757], [140.1738, 40.7713], [140.17, 40.7719], [140.1685, 40.7701], [140.1703, 40.7727], [140.1676, 40.7713], [140.1688, 40.7696], [140.158, 40.7596], [140.1545, 40.7593], [140.1438, 40.7511], [140.1208, 40.7411], [140.1213, 40.7425], [140.1121, 40.7416], [140.0961, 40.7469], [140.0972, 40.7492], [140.0889, 40.7525], [140.0897, 40.7573], [140.0754, 40.7601], [140.0619, 40.7685], [140.0527, 40.7695], [140.0503, 40.7662], [140.0376, 40.7629], [140.0319, 40.7591], [140.0264, 40.7503], [140.0198, 40.7504], [140.0049, 40.7436], [140.0046, 40.745], [139.9999, 40.745], [140, 40.7376], [139.9939, 40.735], [139.9897, 40.7232], [139.9851, 40.72], [139.9877, 40.7159], [139.9815, 40.7054], [139.9676, 40.6989], [139.9691, 40.6961], [139.9657, 40.6876], [139.968, 40.6878], [139.9668, 40.6855], [139.9707, 40.6841], [139.965, 40.6849], [139.95, 40.67], [139.942, 40.6678], [139.9363, 40.6717], [139.9359, 40.6695], [139.9395, 40.6671], [139.9354, 40.6635], [139.9376, 40.66], [139.9354, 40.6544], [139.9379, 40.6553], [139.9321, 40.6531], [139.9274, 40.6543], [139.9292, 40.651], [139.9246, 40.6468], [139.9299, 40.6454], [139.9289, 40.6425], [139.9247, 40.6421], [139.9249, 40.6446], [139.9178, 40.6449], [139.9121, 40.6421], [139.9064, 40.6456], [139.9029, 40.6452], [139.8915, 40.6313], [139.8649, 40.6165], [139.861, 40.616], [139.8622, 40.6042], [139.8587, 40.602], [139.8611, 40.6028], [139.8642, 40.5998], [139.8653, 40.5965], [139.8613, 40.5963], [139.8655, 40.5942], [139.8635, 40.5925], [139.8674, 40.5847], [139.8754, 40.5817], [139.8848, 40.5845], [139.899, 40.5814], [139.9058, 40.5861], [139.9104, 40.5865], [139.9103, 40.5832], [139.9132, 40.5871], [139.9192, 40.5859], [139.9257, 40.5793], [139.9285, 40.5793], [139.9267, 40.5771], [139.932, 40.5707], [139.9335, 40.5633], [139.9299, 40.5555], [139.9367, 40.5566], [139.943, 40.5502], [139.9412, 40.5495], [139.9484, 40.5278], [139.9465, 40.5287], [139.9481, 40.517], [139.9464, 40.5118], [139.9487, 40.5095], [139.95, 40.4959], [139.9486, 40.4891], [139.9456, 40.489], [139.9471, 40.4774], [139.9434, 40.4682], [139.9451, 40.4642], [139.9404, 40.452], [139.942, 40.4493], [139.9383, 40.4461], [139.9398, 40.4306], [139.9364, 40.4281], [139.9525, 40.4314], [139.9596, 40.4349], [139.97, 40.4275], [139.9813, 40.4274], [139.9859, 40.4283], [139.9955, 40.4348], [139.9969, 40.4328], [140.0032, 40.4318], [140.0089, 40.4254], [140.019, 40.42], [140.0173, 40.4269], [140.0221, 40.4299], [140.0225, 40.4353], [140.0261, 40.4391], [140.02, 40.4469], [140.0231, 40.4516], [140.0314, 40.4578], [140.0342, 40.4579], [140.0362, 40.4615], [140.0486, 40.4601], [140.054, 40.4643], [140.0536, 40.4678], [140.0683, 40.4689], [140.0735, 40.4647], [140.0794, 40.4667], [140.0837, 40.4622], [140.0935, 40.459], [140.0995, 40.4531], [140.0974, 40.4493], [140.0992, 40.444], [140.1048, 40.4411], [140.1077, 40.4358], [140.1177, 40.435], [140.1371, 40.4396], [140.1473, 40.4382], [140.1521, 40.435], [140.1631, 40.4394], [140.1686, 40.4398], [140.1712, 40.4381], [140.1854, 40.4434], [140.1942, 40.4347], [140.2094, 40.4386], [140.2206, 40.4311], [140.2438, 40.4376], [140.2499, 40.4429], [140.2665, 40.4406], [140.2787, 40.4459], [140.2884, 40.4449], [140.2913, 40.4465], [140.2985, 40.4464], [140.3019, 40.443], [140.3073, 40.4421], [140.3093, 40.4363], [140.3177, 40.4397], [140.3353, 40.4394], [140.3407, 40.4431], [140.3411, 40.4499], [140.3438, 40.4524], [140.3429, 40.4611], [140.3478, 40.4624], [140.3485, 40.468], [140.3523, 40.4689], [140.3613, 40.4783], [140.3777, 40.4764], [140.3874, 40.4872], [140.3935, 40.4854], [140.3966, 40.4783], [140.4014, 40.4775], [140.4022, 40.4752], [140.4086, 40.4751], [140.4272, 40.4826], [140.4356, 40.48], [140.4373, 40.4784], [140.4331, 40.472], [140.4335, 40.4679], [140.437, 40.4655], [140.4401, 40.4501], [140.4488, 40.4541], [140.4644, 40.4564], [140.4659, 40.454], [140.4811, 40.4516], [140.4843, 40.4465], [140.4813, 40.4418], [140.4981, 40.4364], [140.5084, 40.4286], [140.5187, 40.4308], [140.5297, 40.4306], [140.5297, 40.4204], [140.5244, 40.4196], [140.5236, 40.4106], [140.5324, 40.4113], [140.5406, 40.4027], [140.5477, 40.404], [140.5588, 40.3971], [140.5671, 40.3988], [140.5693, 40.4008], [140.5658, 40.4035], [140.5659, 40.4065], [140.5594, 40.4113], [140.5534, 40.4208], [140.5576, 40.4256], [140.5619, 40.427], [140.5738, 40.4261], [140.5767, 40.4293], [140.5872, 40.4293], [140.5898, 40.4361], [140.603, 40.4309], [140.6044, 40.4271], [140.6114, 40.4238], [140.626, 40.4243], [140.6255, 40.4216], [140.6338, 40.4166], [140.6363, 40.4092], [140.6325, 40.4041], [140.6341, 40.4023], [140.6411, 40.4053], [140.645, 40.4031], [140.6529, 40.4034], [140.6614, 40.4046], [140.6662, 40.4116], [140.673, 40.4115], [140.6784, 40.4154], [140.6849, 40.4166], [140.6878, 40.42], [140.6877, 40.4272], [140.6991, 40.4294], [140.7024, 40.4271], [140.7125, 40.4291], [140.7174, 40.426], [140.7175, 40.4211], [140.723, 40.4166], [140.7337, 40.4159], [140.7359, 40.4278], [140.7313, 40.4312], [140.7356, 40.434], [140.7327, 40.436], [140.7335, 40.4391], [140.752, 40.4388], [140.7625, 40.4512], [140.7694, 40.454], [140.7728, 40.4514], [140.7868, 40.4574], [140.7904, 40.4557], [140.7932, 40.4495], [140.8036, 40.4487], [140.8114, 40.4781], [140.8094, 40.4811], [140.8105, 40.4875], [140.8146, 40.4887], [140.8201, 40.4957], [140.8269, 40.4963], [140.8358, 40.5038], [140.8418, 40.5036], [140.8449, 40.5073], [140.8482, 40.508], [140.8524, 40.5052], [140.8783, 40.5111], [140.88, 40.5103], [140.8781, 40.4984], [140.8613, 40.4406], [140.8923, 40.4234], [140.8969, 40.4254], [140.907, 40.4256], [140.912, 40.4238], [140.9196, 40.4274], [140.9261, 40.4215], [140.9333, 40.421], [140.9375, 40.4276], [140.9417, 40.43], [140.9517, 40.4262], [140.9635, 40.4268], [140.9723, 40.4309], [140.9855, 40.4277], [140.9858, 40.4217], [140.9787, 40.4161], [140.9828, 40.4133], [140.9815, 40.4056], [140.9857, 40.4033], [140.9876, 40.3971], [140.9845, 40.3885], [140.995, 40.3729], [140.9941, 40.3682], [140.9912, 40.3672], [140.9913, 40.3611], [140.9953, 40.3533], [140.9809, 40.3432], [140.9717, 40.3435], [140.9678, 40.3514], [140.962, 40.3472], [140.968, 40.339], [140.9673, 40.3338], [140.9623, 40.3281], [140.9621, 40.3226], [140.9598, 40.3256], [140.9573, 40.3244], [140.9589, 40.3193], [140.9568, 40.3047], [140.9441, 40.2965], [140.9447, 40.2881], [140.9525, 40.2873], [140.9575, 40.2824], [140.9543, 40.2797], [140.9462, 40.2582], [140.9493, 40.253], [140.9542, 40.2505], [140.9551, 40.2447], [140.967, 40.238], [140.9686, 40.2265], [140.9758, 40.2259], [140.9793, 40.2199], [140.9911, 40.2228], [140.9966, 40.2192], [141.0019, 40.2206], [141.0058, 40.2181], [141.0119, 40.2179], [141.0259, 40.2219], [141.0268, 40.2266], [141.0428, 40.2365], [141.0596, 40.2382], [141.0656, 40.2457], [141.0763, 40.2524], [141.0896, 40.2521], [141.0943, 40.255], [141.1042, 40.2559], [141.1085, 40.2604], [141.0997, 40.2806], [141.1065, 40.2813], [141.1201, 40.2902], [141.1346, 40.2946], [141.1381, 40.3003], [141.154, 40.3011], [141.1614, 40.3058], [141.169, 40.3066], [141.173, 40.3101], [141.1853, 40.3076], [141.1975, 40.3078], [141.209, 40.314], [141.2186, 40.3153], [141.2266, 40.328], [141.2325, 40.3284], [141.2487, 40.3413], [141.2599, 40.342], [141.2616, 40.3495], [141.2667, 40.3498], [141.2762, 40.3444], [141.2793, 40.3447], [141.292, 40.3513], [141.2919, 40.3581], [141.2958, 40.3605], [141.2935, 40.3632], [141.2982, 40.3658], [141.3105, 40.367], [141.3158, 40.3727], [141.3241, 40.37], [141.3245, 40.3661], [141.3281, 40.363], [141.3362, 40.3603], [141.3367, 40.3506], [141.3337, 40.3456], [141.3469, 40.3402], [141.3484, 40.3384], [141.3459, 40.3358], [141.3504, 40.3349], [141.3507, 40.3312], [141.3702, 40.3386], [141.3732, 40.3436], [141.377, 40.3389], [141.381, 40.3418], [141.3898, 40.3529], [141.3892, 40.3591], [141.3931, 40.3608], [141.3971, 40.367], [141.4016, 40.3662], [141.4071, 40.357], [141.419, 40.3633], [141.4224, 40.3635], [141.4236, 40.361], [141.4273, 40.3618], [141.4341, 40.374], [141.4381, 40.3737], [141.4418, 40.376], [141.4537, 40.373], [141.4662, 40.3772], [141.4805, 40.3763], [141.4856, 40.3719], [141.488, 40.3724], [141.4965, 40.3676], [141.4991, 40.3622], [141.5079, 40.3632], [141.5092, 40.3596], [141.518, 40.3518], [141.5273, 40.3498], [141.532, 40.3514], [141.5358, 40.3473], [141.5399, 40.3483], [141.5554, 40.361], [141.5618, 40.361], [141.5718, 40.3659], [141.5722, 40.3694], [141.5816, 40.374], [141.5813, 40.3764], [141.5856, 40.3784], [141.5868, 40.3809], [141.5826, 40.3847], [141.5847, 40.3895], [141.5812, 40.3921], [141.5814, 40.3988], [141.5853, 40.4013], [141.5867, 40.4071], [141.5901, 40.407], [141.5974, 40.4133], [141.6128, 40.4158], [141.6162, 40.4204], [141.6311, 40.4201], [141.64, 40.4231], [141.6471, 40.4285], [141.6537, 40.4282], [141.66, 40.4314], [141.6611, 40.4342], [141.6702, 40.4376], [141.6758, 40.4486], [141.6826, 40.4505], [141.6807, 40.4529], [141.6739, 40.455], [141.6755, 40.4538], [141.6731, 40.4537], [141.6696, 40.4574], [141.6683, 40.4563], [141.6619, 40.4626], [141.6634, 40.4634], [141.6607, 40.4632], [141.6609, 40.4659], [141.6573, 40.4657], [141.6564, 40.4682], [141.647, 40.4714], [141.6483, 40.4744], [141.6372, 40.4806], [141.6336, 40.4844], [141.6339, 40.4884], [141.6293, 40.4912], [141.631, 40.4915], [141.6308, 40.4927], [141.6329, 40.4944], [141.6327, 40.4955], [141.6319, 40.4953], [141.6326, 40.4958], [141.6307, 40.4969], [141.6325, 40.4943], [141.6292, 40.4955], [141.6301, 40.4967], [141.6285, 40.4949], [141.6211, 40.4993], [141.6198, 40.5046], [141.6221, 40.5056], [141.6189, 40.5044], [141.6159, 40.5066], [141.6173, 40.505], [141.6132, 40.5048], [141.6106, 40.5061], [141.6115, 40.5117], [141.6086, 40.514], [141.5991, 40.5175], [141.5988, 40.5202], [141.5922, 40.519], [141.588, 40.5223], [141.5823, 40.5306], [141.5835, 40.534], [141.5799, 40.5359], [141.5823, 40.5383], [141.576, 40.5431], [141.5671, 40.5428], [141.4775, 40.587], [141.4728, 40.5866], [141.4706, 40.5893], [141.4689, 40.5886], [141.4647, 40.606], [141.4629, 40.6055], [141.4565, 40.6186], [141.4538, 40.6257], [141.4558, 40.6264], [141.4528, 40.6265], [141.4448, 40.6488], [141.4427, 40.6473], [141.4447, 40.649], [141.4457, 40.6475], [141.4415, 40.6607], [141.4406, 40.6621], [141.4383, 40.6608], [141.4406, 40.6622], [141.4414, 40.6609], [141.4375, 40.6743], [141.4428, 40.6757], [141.4408, 40.678], [141.4443, 40.6816], [141.4407, 40.678], [141.4388, 40.6778], [141.4393, 40.6805], [141.4362, 40.6781], [141.4356, 40.6798], [141.4384, 40.68], [141.4355, 40.6803], [141.4346, 40.6832], [141.4374, 40.6821], [141.437, 40.6839], [141.4343, 40.6838], [141.4336, 40.6859], [141.438, 40.6864], [141.4419, 40.681], [141.4382, 40.6865], [141.4317, 40.6859], [141.4265, 40.6988], [141.4176, 40.7428], [141.4159, 40.7414], [141.4175, 40.7429], [141.3923, 40.8867], [141.4429, 40.9086], [141.444, 41.0092], [141.3854, 41.0094], [141.3852, 41.0129], [141.3827, 41.0113], [141.3853, 41.013], [141.3861, 41.0254], [141.3829, 41.0219], [141.3837, 41.0259], [141.3861, 41.0255], [141.3875, 41.0393], [141.3854, 41.0387], [141.3886, 41.0453], [141.3868, 41.0453], [141.3864, 41.0476], [141.3844, 41.0482], [141.3869, 41.0483], [141.3882, 41.0455], [141.389, 41.052], [141.3874, 41.0519], [141.3929, 41.0829], [141.3954, 41.0903], [141.3979, 41.091], [141.3965, 41.0923], [141.4001, 41.1019], [141.3946, 41.0997], [141.3929, 41.1033], [141.3955, 41.1015], [141.3946, 41.1046], [141.3958, 41.105], [141.3976, 41.1027], [141.3956, 41.1056], [141.3941, 41.1055], [141.3933, 41.1141], [141.3969, 41.1269], [141.3958, 41.1326], [141.3935, 41.1317], [141.3913, 41.1335], [141.3924, 41.1367], [141.3941, 41.135], [141.3962, 41.1363], [141.3959, 41.1343], [141.3937, 41.1343], [141.3966, 41.134], [141.3964, 41.137], [141.3915, 41.1374], [141.3888, 41.1445], [141.3896, 41.1673], [141.3856, 41.1655], [141.3897, 41.1675], [141.391, 41.1768], [141.3885, 41.1781], [141.3914, 41.1775], [141.3954, 41.1962], [141.3938, 41.1947], [141.3967, 41.1992], [141.3947, 41.2014], [141.3967, 41.1992], [141.4028, 41.2234], [141.4054, 41.2235], [141.4084, 41.2251], [141.4033, 41.2234], [141.4032, 41.2254], [141.4049, 41.224], [141.4044, 41.2254], [141.408, 41.2254], [141.4032, 41.2255], [141.4028, 41.2269], [141.4062, 41.2426], [141.4006, 41.2402], [141.4063, 41.2429], [141.4101, 41.2564], [141.4044, 41.255], [141.4101, 41.2565], [141.4134, 41.2671], [141.4056, 41.2659], [141.4117, 41.267], [141.4112, 41.269], [141.4136, 41.2671], [141.4204, 41.2876], [141.419, 41.2896], [141.4202, 41.2879], [141.4244, 41.3016], [141.4204, 41.2996], [141.4247, 41.302], [141.4265, 41.3064], [141.4432, 41.3599], [141.447, 41.3676], [141.4508, 41.3702], [141.4503, 41.3742], [141.4522, 41.3716], [141.4513, 41.3742], [141.4558, 41.3754], [141.4547, 41.3778], [141.4574, 41.3778], [141.4598, 41.3807], [141.4583, 41.386], [141.4604, 41.3894], [141.4526, 41.3962], [141.4558, 41.3946], [141.4532, 41.3968], [141.4564, 41.4025], [141.4608, 41.4013], [141.4637, 41.4026], [141.4598, 41.4119], [141.4619, 41.417], [141.4687, 41.4186], [141.4636, 41.4245], [141.4654, 41.43], [141.4612, 41.4313], [141.4566, 41.4253], [141.441, 41.4138], [141.4365, 41.4151], [141.4337, 41.4133], [141.4382, 41.4136], [141.4371, 41.4095], [141.4335, 41.4095], [141.4333, 41.4059], [141.4119, 41.3917], [141.4126, 41.3932], [141.4046, 41.3838], [141.396, 41.3782], [141.3567, 41.3639], [141.3588, 41.361], [141.3563, 41.3638], [141.3371, 41.3577], [141.3384, 41.3594], [141.3323, 41.355], [141.3082, 41.351], [141.2962, 41.3505], [141.2962, 41.3524], [141.2913, 41.3524], [141.2911, 41.3509], [141.2732, 41.3538], [141.243, 41.3619], [141.2391, 41.3639], [141.2391, 41.3688], [141.2386, 41.3641], [141.2335, 41.3662], [141.2357, 41.3693], [141.2334, 41.3662], [141.2255, 41.3711], [141.2274, 41.3693], [141.2232, 41.3707], [141.2252, 41.3722], [141.2231, 41.3708], [141.21, 41.3762], [141.2104, 41.3745], [141.2113, 41.3743], [141.2107, 41.3727], [141.2095, 41.3759], [141.21, 41.3762], [141.2124, 41.3759], [141.1927, 41.3873], [141.1913, 41.3903], [141.1881, 41.389], [141.1903, 41.3902], [141.1794, 41.3978], [141.1788, 41.3998], [141.184, 41.4036], [141.1784, 41.4008], [141.1795, 41.405], [141.1769, 41.4032], [141.1677, 41.4109], [141.1693, 41.412], [141.1715, 41.4101], [141.1767, 41.4088], [141.1712, 41.4106], [141.1691, 41.4138], [141.1675, 41.4116], [141.1685, 41.4137], [141.1594, 41.4155], [141.1513, 41.4214], [141.1435, 41.4331], [141.1349, 41.435], [141.1306, 41.4417], [141.1277, 41.4419], [141.1213, 41.4483], [141.1198, 41.4558], [141.1181, 41.4547], [141.1131, 41.4578], [141.1123, 41.4632], [141.1073, 41.4638], [141.107, 41.4658], [141.0943, 41.4671], [141.0934, 41.4707], [141.0935, 41.4678], [141.0893, 41.4703], [141.0926, 41.4706], [141.0878, 41.4709], [141.0863, 41.4737], [141.0837, 41.473], [141.0706, 41.4784], [141.0667, 41.4821], [141.0228, 41.4845], [141.0203, 41.4831], [141.0022, 41.4854], [140.9981, 41.4899], [140.9992, 41.4879], [140.9979, 41.4893], [140.9965, 41.488], [140.9946, 41.4911], [140.9737, 41.4985], [140.9694, 41.5035], [140.9698, 41.5064], [140.9648, 41.5077], [140.9632, 41.514], [140.96, 41.5147], [140.96, 41.5166], [140.9572, 41.5159], [140.9516, 41.5246], [140.945, 41.5235], [140.9404, 41.5295], [140.937, 41.529], [140.9247, 41.5343], [140.9204, 41.5408], [140.921, 41.5464], [140.9201, 41.5412], [140.9198, 41.5439], [140.9169, 41.545], [140.9199, 41.546], [140.9186, 41.5468], [140.9161, 41.5453], [140.9121, 41.5463], [140.9098, 41.5414], [140.9077, 41.5442], [140.9091, 41.5353], [140.9056, 41.5326], [140.9081, 41.53], [140.9052, 41.5289], [140.9032, 41.5318], [140.9038, 41.5281], [140.9006, 41.5243], [140.8991, 41.5266], [140.8973, 41.526], [140.8984, 41.5294], [140.8971, 41.5267], [140.8973, 41.5259], [140.8988, 41.5239], [140.8988, 41.5217], [140.9068, 41.5136], [140.9106, 41.5029], [140.9093, 41.5046], [140.9059, 41.498], [140.9095, 41.4937], [140.9048, 41.4937], [140.9074, 41.4933], [140.9047, 41.4918], [140.9038, 41.4939], [140.9019, 41.484], [140.8985, 41.4826], [140.8985, 41.4767], [140.8941, 41.4757], [140.8899, 41.4713], [140.8913, 41.4701], [140.8866, 41.4699], [140.8871, 41.472], [140.8866, 41.4699], [140.882, 41.4685], [140.8847, 41.4667], [140.8748, 41.4566], [140.879, 41.4563], [140.8788, 41.453], [140.8732, 41.4503], [140.8696, 41.4523], [140.8694, 41.4502], [140.8645, 41.448], [140.8671, 41.4424], [140.864, 41.4334], [140.8624, 41.4351], [140.8613, 41.4354], [140.8628, 41.4343], [140.8623, 41.4345], [140.8625, 41.4342], [140.8614, 41.4338], [140.8609, 41.4341], [140.8604, 41.4329], [140.8597, 41.4345], [140.8569, 41.4326], [140.8606, 41.4359], [140.8558, 41.4346], [140.8475, 41.4207], [140.8357, 41.4191], [140.8383, 41.4176], [140.8351, 41.4157], [140.8388, 41.4131], [140.8354, 41.4108], [140.836, 41.4063], [140.8327, 41.4059], [140.8332, 41.4006], [140.8315, 41.3987], [140.8308, 41.401], [140.8314, 41.3964], [140.8267, 41.389], [140.8275, 41.3708], [140.8238, 41.3694], [140.8201, 41.346], [140.814, 41.3359], [140.8043, 41.3325], [140.8054, 41.3315], [140.8006, 41.3281], [140.8076, 41.3285], [140.7987, 41.3215], [140.8062, 41.314], [140.7998, 41.3039], [140.8022, 41.3031], [140.7987, 41.3006], [140.8018, 41.2925], [140.7987, 41.2934], [140.7958, 41.2789], [140.7893, 41.2749], [140.7915, 41.2712], [140.7857, 41.2614], [140.7853, 41.2559], [140.7797, 41.253], [140.7855, 41.2347], [140.7794, 41.2168], [140.7795, 41.209], [140.7703, 41.2028], [140.7639, 41.1949], [140.7686, 41.1718], [140.7663, 41.1614], [140.7681, 41.1573], [140.7641, 41.1454], [140.766, 41.1442], [140.7672, 41.1454], [140.7693, 41.1406], [140.7737, 41.1422], [140.7751, 41.1389], [140.779, 41.1388], [140.7773, 41.1356], [140.7831, 41.1314], [140.7916, 41.1335], [140.7985, 41.129], [140.8065, 41.1298], [140.8112, 41.1277], [140.8179, 41.1381], [140.8218, 41.1387], [140.8219, 41.1412], [140.8257, 41.1429], [140.8226, 41.1418], [140.8253, 41.1454], [140.8264, 41.1429], [140.8316, 41.1492], [140.8423, 41.1526], [140.8543, 41.1614], [140.8599, 41.1614], [140.8767, 41.1669], [140.8921, 41.1636], [140.8964, 41.1668], [140.8983, 41.1656], [140.8997, 41.1658], [140.8979, 41.1662], [140.8996, 41.1667], [140.8997, 41.1661], [140.8997, 41.1666], [140.8993, 41.1672], [140.9049, 41.1688], [140.9089, 41.1738], [140.916, 41.176], [140.9326, 41.1731], [140.9328, 41.1758], [140.9455, 41.1739], [140.9586, 41.1869], [140.9615, 41.1856], [140.9596, 41.1871], [140.9637, 41.1883], [140.9614, 41.1896], [140.9804, 41.1992], [140.9861, 41.1954], [140.9842, 41.1989], [140.9898, 41.1969], [140.9864, 41.1963], [140.9895, 41.1959], [140.992, 41.1983], [140.9907, 41.1962], [140.9968, 41.1952], [141.0093, 41.198], [141.032, 41.1856], [141.0572, 41.183], [141.0628, 41.1912], [141.0749, 41.2008], [141.0911, 41.2093], [141.0924, 41.2082], [141.0986, 41.2129], [141.1137, 41.2133], [141.1127, 41.2145], [141.1146, 41.2139], [141.1372, 41.231], [141.1442, 41.234], [141.1437, 41.2356], [141.1537, 41.2428], [141.1585, 41.2527], [141.1979, 41.2724], [141.2278, 41.2476], [141.2485, 41.2229], [141.2619, 41.1998], [141.2594, 41.2008], [141.265, 41.198], [141.2634, 41.1988], [141.2747, 41.1759], [141.2788, 41.1584], [141.2723, 41.1349], [141.2646, 41.1263], [141.2625, 41.1259], [141.2615, 41.1261], [141.262, 41.127], [141.2616, 41.1265], [141.26, 41.1267], [141.2613, 41.1277], [141.2601, 41.1271], [141.2591, 41.126], [141.2461, 41.1037], [141.2478, 41.0927], [141.2466, 41.0873], [141.2436, 41.0829], [141.2418, 41.0833], [141.2422, 41.0604], [141.2398, 41.0594], [141.2383, 41.0608], [141.2423, 41.056], [141.2391, 41.0308], [141.2339, 41.0071], [141.222, 40.9739], [141.1997, 40.9305], [141.1725, 40.8978], [141.1507, 40.8801], [141.139, 40.8772], [141.1312, 40.8724], [141.1254, 40.8745], [141.1132, 40.8696], [141.1159, 40.8727], [141.1121, 40.8738], [141.113, 40.8706], [141.1109, 40.8725], [141.1123, 40.8768], [141.1092, 40.8727], [141.1061, 40.8725], [141.1076, 40.8745], [141.1031, 40.8725], [141.0914, 40.8802], [141.0954, 40.8797], [141.0853, 40.8837], [141.0783, 40.8974], [141.0819, 40.8967], [141.072, 40.9021], [141.0641, 40.9135], [141.0546, 40.9167], [141.045, 40.9148], [141.0401, 40.9155], [141.0408, 40.9172], [141.0373, 40.9161], [141.0228, 40.925], [141.0219, 40.9286], [141.0246, 40.9273], [141.0225, 40.9287], [141.0071, 40.932], [141.0014, 40.9359], [140.9889, 40.9343], [140.9903, 40.9361], [140.9883, 40.9361], [140.9883, 40.9342], [140.979, 40.9331], [140.9719, 40.9346], [140.9703, 40.9369], [140.9725, 40.9406], [140.9754, 40.9418], [140.9779, 40.9401], [140.9768, 40.9414], [140.9797, 40.9437], [140.9816, 40.9413], [140.9776, 40.9487], [140.9821, 40.9544], [140.9818, 40.9603], [140.9839, 40.9585], [140.9836, 40.9603], [140.961, 40.9734], [140.9508, 40.9842], [140.9481, 40.9927], [140.9434, 40.9927], [140.9397, 40.9951], [140.9332, 40.993], [140.9247, 40.993], [140.9234, 40.9946], [140.9195, 40.9934], [140.9163, 40.9952], [140.9219, 40.9951], [140.9174, 40.9961], [140.916, 40.9951], [140.9144, 40.9974], [140.9163, 40.9974], [140.9029, 41.0078], [140.8896, 41.0106], [140.8807, 41.0086], [140.8722, 41.0172], [140.8715, 41.0125], [140.8787, 41.0094], [140.8808, 41.0046], [140.8723, 40.9875], [140.8635, 40.9844], [140.8722, 40.9823], [140.8714, 40.977], [140.8706, 40.9788], [140.8667, 40.9741], [140.8603, 40.9723], [140.8589, 40.9634], [140.8599, 40.9609], [140.8635, 40.9627], [140.864, 40.9599], [140.8622, 40.9571], [140.8548, 40.9571], [140.8526, 40.9544], [140.8379, 40.9533], [140.8384, 40.9512], [140.8444, 40.951], [140.8452, 40.9486], [140.857, 40.9437], [140.8616, 40.9447], [140.86, 40.9456], [140.862, 40.9473], [140.8685, 40.9439], [140.8699, 40.9459], [140.8717, 40.9445], [140.8711, 40.9419], [140.8668, 40.9406], [140.8662, 40.9319], [140.8688, 40.9244], [140.867, 40.9236], [140.8662, 40.9253], [140.865, 40.9203], [140.869, 40.9184], [140.8698, 40.9133], [140.8691, 40.9097], [140.8664, 40.91], [140.8656, 40.9084], [140.8678, 40.9098], [140.8664, 40.9082], [140.8685, 40.9079], [140.8652, 40.9039], [140.8486, 40.9054], [140.6879, 40.8663], [140.6843, 40.8728], [140.6866, 40.8736], [140.6847, 40.8747], [140.6874, 40.8738], [140.6856, 40.8751], [140.6833, 40.8744], [140.6765, 40.8896], [140.6791, 40.8916], [140.6774, 40.8912], [140.6769, 40.8929], [140.6799, 40.8916], [140.6782, 40.8932], [140.6762, 40.893], [140.6659, 40.9316], [140.6676, 40.9329], [140.6659, 40.9317], [140.6671, 40.9336], [140.6648, 40.9351], [140.6689, 40.933], [140.6665, 40.9355], [140.6644, 40.9351], [140.6606, 40.9485]]], [[[140.9118, 41.5558], [140.9092, 41.5558], [140.912, 41.552], [140.9142, 41.5545], [140.9118, 41.5558]]]]}, "properties": {"name": "青森県"}}]}