{"type": "FeatureCollection", "features": [{"type": "Feature", "geometry": {"type": "MultiPolygon", "coordinates": [[[[132.4645, 34.3111], [132.4891, 34.3311], [132.4755, 34.3119], [132.4871, 34.3071], [132.4904, 34.2929], [132.4939, 34.2898], [132.4965, 34.289], [132.5125, 34.2995], [132.5058, 34.2943], [132.5124, 34.289], [132.5148, 34.2894], [132.5128, 34.2859], [132.5183, 34.2834], [132.5191, 34.28], [132.5144, 34.2676], [132.5173, 34.2634], [132.5143, 34.2575], [132.518, 34.2556], [132.5118, 34.2402], [132.5436, 34.2075], [132.5379, 34.1941], [132.5534, 34.1946], [132.5627, 34.1993], [132.568, 34.1978], [132.5725, 34.2024], [132.6409, 34.2018], [132.6543, 34.2074], [132.6769, 34.2094], [132.677, 34.2131], [132.6843, 34.2103], [132.6864, 34.2142], [132.6842, 34.2218], [132.6894, 34.2237], [132.6917, 34.2295], [132.6922, 34.2279], [132.6969, 34.2316], [132.694, 34.2333], [132.6952, 34.2336], [132.6949, 34.2341], [132.6961, 34.235], [132.6969, 34.2329], [132.6969, 34.2343], [132.696, 34.2353], [132.6995, 34.2335], [132.7013, 34.2375], [132.7005, 34.2353], [132.7056, 34.2365], [132.7051, 34.2383], [132.7057, 34.2369], [132.7104, 34.2389], [132.7114, 34.237], [132.7119, 34.2394], [132.7203, 34.2411], [132.7285, 34.2395], [132.7315, 34.2424], [132.7354, 34.241], [132.7403, 34.2433], [132.7485, 34.2425], [132.7532, 34.2387], [132.7606, 34.2405], [132.7583, 34.2466], [132.7686, 34.2499], [132.7734, 34.2554], [132.771, 34.2598], [132.7681, 34.2593], [132.7649, 34.2626], [132.7603, 34.2617], [132.7559, 34.257], [132.753, 34.2595], [132.7597, 34.2679], [132.7537, 34.2758], [132.7542, 34.2821], [132.7503, 34.283], [132.757, 34.2815], [132.7558, 34.2798], [132.7616, 34.2826], [132.7697, 34.2791], [132.7752, 34.2808], [132.7845, 34.2757], [132.786, 34.2795], [132.7885, 34.278], [132.7873, 34.2863], [132.79, 34.2877], [132.7936, 34.2977], [132.7952, 34.296], [132.7962, 34.3061], [132.7998, 34.3079], [132.7959, 34.3109], [132.7994, 34.3129], [132.8008, 34.3087], [132.81, 34.3118], [132.8092, 34.3132], [132.8132, 34.3114], [132.8113, 34.3147], [132.8147, 34.3173], [132.8147, 34.3151], [132.819, 34.3148], [132.8169, 34.3168], [132.8199, 34.317], [132.8238, 34.3142], [132.8257, 34.3144], [132.8235, 34.3161], [132.8315, 34.314], [132.8346, 34.3166], [132.832, 34.313], [132.8374, 34.3128], [132.8348, 34.3046], [132.8426, 34.2983], [132.8461, 34.2997], [132.847, 34.2917], [132.8528, 34.2933], [132.8519, 34.2958], [132.8562, 34.3], [132.8589, 34.3005], [132.8621, 34.2976], [132.8685, 34.3052], [132.874, 34.3022], [132.8763, 34.3072], [132.8723, 34.3064], [132.8683, 34.3116], [132.8707, 34.3134], [132.8736, 34.3123], [132.8755, 34.3145], [132.8738, 34.3164], [132.8773, 34.313], [132.8783, 34.3168], [132.8854, 34.3154], [132.8915, 34.3215], [132.8876, 34.3185], [132.8859, 34.3218], [132.8888, 34.3241], [132.8933, 34.3224], [132.8936, 34.3269], [132.9147, 34.3271], [132.9116, 34.3278], [132.9147, 34.3312], [132.914, 34.3398], [132.915, 34.3332], [132.92, 34.3305], [132.9166, 34.3298], [132.9175, 34.3271], [132.9224, 34.3248], [132.9303, 34.3261], [132.9419, 34.3357], [132.9485, 34.3367], [132.9508, 34.3403], [132.9503, 34.337], [132.9604, 34.334], [132.9637, 34.3351], [132.9629, 34.3376], [132.9831, 34.3312], [132.9899, 34.3328], [132.994, 34.3381], [133.0006, 34.3339], [133.0024, 34.3354], [133.0046, 34.331], [133.0086, 34.3294], [133.0155, 34.3288], [133.0349, 34.333], [133.0374, 34.3364], [133.0401, 34.3313], [133.0457, 34.3339], [133.0431, 34.3369], [133.0475, 34.3363], [133.053, 34.3433], [133.0608, 34.3456], [133.0723, 34.343], [133.0789, 34.3453], [133.0835, 34.3547], [133.087, 34.3749], [133.1485, 34.3785], [133.1531, 34.3903], [133.1516, 34.3818], [133.1557, 34.3799], [133.1559, 34.3744], [133.1647, 34.376], [133.1711, 34.3728], [133.1726, 34.3795], [133.1672, 34.3873], [133.1679, 34.3899], [133.1708, 34.3899], [133.1765, 34.3712], [133.1743, 34.3665], [133.1818, 34.3639], [133.1837, 34.3585], [133.1877, 34.3591], [133.1893, 34.357], [133.2076, 34.3616], [133.2121, 34.3562], [133.2141, 34.3605], [133.2124, 34.363], [133.2178, 34.3637], [133.2161, 34.3658], [133.219, 34.3804], [133.2286, 34.3862], [133.2317, 34.3916], [133.2304, 34.3942], [133.2345, 34.3927], [133.2354, 34.3897], [133.2536, 34.3884], [133.2612, 34.395], [133.2664, 34.3922], [133.275, 34.3933], [133.2775, 34.3998], [133.2814, 34.4017], [133.2831, 34.3964], [133.2801, 34.395], [133.2846, 34.3923], [133.2819, 34.3912], [133.2859, 34.3893], [133.285, 34.3891], [133.2845, 34.3863], [133.2851, 34.3881], [133.2857, 34.3857], [133.2859, 34.3877], [133.2904, 34.3833], [133.29, 34.3853], [133.293, 34.3832], [133.2968, 34.3852], [133.299, 34.383], [133.3013, 34.3832], [133.3, 34.3858], [133.3046, 34.3856], [133.3048, 34.3875], [133.3061, 34.3859], [133.3058, 34.3876], [133.3069, 34.3844], [133.308, 34.3859], [133.3079, 34.3836], [133.3099, 34.3843], [133.3089, 34.3826], [133.3109, 34.3839], [133.3228, 34.3764], [133.3244, 34.3798], [133.3312, 34.3802], [133.3326, 34.3784], [133.3349, 34.381], [133.3438, 34.3784], [133.3482, 34.3728], [133.346, 34.3656], [133.3511, 34.3658], [133.3574, 34.3693], [133.3671, 34.3688], [133.3745, 34.3763], [133.3823, 34.3755], [133.3751, 34.3769], [133.3796, 34.3791], [133.3782, 34.3821], [133.3818, 34.383], [133.3813, 34.3803], [133.3846, 34.3844], [133.3801, 34.3952], [133.3858, 34.4214], [133.3902, 34.4219], [133.3894, 34.4237], [133.3913, 34.4219], [133.3964, 34.4269], [133.4077, 34.4284], [133.4046, 34.4344], [133.4066, 34.4369], [133.4108, 34.4338], [133.4134, 34.4361], [133.4311, 34.4237], [133.4492, 34.4234], [133.4458, 34.4832], [133.4562, 34.4957], [133.4565, 34.4999], [133.4553, 34.5055], [133.445, 34.5061], [133.4466, 34.512], [133.4498, 34.5118], [133.4472, 34.5201], [133.4544, 34.531], [133.4535, 34.5352], [133.4488, 34.5396], [133.446, 34.5561], [133.4354, 34.5658], [133.4266, 34.5692], [133.423, 34.5862], [133.4133, 34.5864], [133.4115, 34.59], [133.4058, 34.589], [133.3974, 34.5951], [133.3988, 34.5979], [133.3923, 34.6081], [133.3932, 34.612], [133.3857, 34.6168], [133.3847, 34.6249], [133.392, 34.6312], [133.3872, 34.6362], [133.3876, 34.6417], [133.3964, 34.652], [133.4034, 34.6719], [133.3983, 34.6753], [133.3908, 34.6748], [133.3827, 34.6802], [133.3866, 34.6853], [133.3807, 34.6922], [133.3741, 34.6952], [133.3731, 34.7078], [133.3699, 34.7097], [133.3697, 34.7229], [133.3641, 34.7244], [133.3582, 34.7333], [133.3703, 34.7459], [133.3672, 34.7494], [133.3681, 34.7523], [133.3616, 34.7555], [133.3676, 34.7617], [133.3645, 34.7672], [133.3673, 34.7744], [133.3767, 34.7818], [133.3713, 34.7843], [133.3695, 34.7891], [133.3775, 34.7973], [133.3781, 34.8085], [133.3742, 34.8138], [133.3685, 34.8147], [133.3678, 34.8189], [133.3585, 34.8199], [133.3529, 34.8306], [133.3478, 34.8318], [133.3481, 34.8292], [133.3442, 34.8298], [133.3357, 34.8351], [133.3325, 34.8413], [133.3354, 34.8451], [133.3288, 34.853], [133.3314, 34.8557], [133.323, 34.8595], [133.324, 34.8647], [133.3156, 34.8683], [133.3146, 34.8728], [133.3076, 34.8761], [133.3062, 34.8816], [133.2984, 34.8841], [133.2961, 34.8875], [133.2973, 34.8998], [133.2943, 34.9034], [133.3035, 34.9145], [133.3047, 34.9222], [133.3021, 34.9289], [133.3097, 34.9375], [133.2973, 34.9562], [133.3047, 34.9648], [133.3031, 34.972], [133.3106, 34.9745], [133.3132, 34.9802], [133.3201, 34.9836], [133.3218, 34.9889], [133.3195, 35.0012], [133.3218, 35.006], [133.3156, 35.0124], [133.3045, 35.0152], [133.3034, 35.0203], [133.2969, 35.0247], [133.2908, 35.0363], [133.2852, 35.0407], [133.2798, 35.0413], [133.2693, 35.0497], [133.2668, 35.0531], [133.2691, 35.0578], [133.2609, 35.0632], [133.251, 35.0783], [133.239, 35.0797], [133.2325, 35.0775], [133.2334, 35.0697], [133.2289, 35.0681], [133.2236, 35.0591], [133.2241, 35.0695], [133.2114, 35.0741], [133.1806, 35.0689], [133.1787, 35.0669], [133.1735, 35.069], [133.1679, 35.0676], [133.1608, 35.074], [133.1419, 35.0648], [133.1359, 35.0694], [133.1356, 35.0743], [133.1268, 35.0769], [133.1213, 35.0841], [133.1132, 35.0855], [133.1011, 35.082], [133.0933, 35.0846], [133.0861, 35.078], [133.0721, 35.0821], [133.0679, 35.0795], [133.0605, 35.0815], [133.0524, 35.0698], [133.0373, 35.0678], [133.0328, 35.0684], [133.0315, 35.0726], [133.0248, 35.0778], [133.0162, 35.0783], [133.0144, 35.0878], [133.0035, 35.0903], [133.0002, 35.0971], [132.9928, 35.098], [132.9908, 35.1012], [132.9826, 35.098], [132.9788, 35.092], [132.9795, 35.087], [132.9743, 35.0826], [132.9502, 35.0753], [132.9341, 35.0839], [132.9263, 35.0809], [132.9237, 35.0843], [132.9094, 35.0862], [132.8955, 35.1049], [132.8881, 35.1058], [132.8775, 35.1017], [132.873, 35.1022], [132.8609, 35.0956], [132.8597, 35.0905], [132.8481, 35.083], [132.8391, 35.0705], [132.8279, 35.0623], [132.8371, 35.0525], [132.8366, 35.0471], [132.8313, 35.0456], [132.8276, 35.0472], [132.8136, 35.0406], [132.8088, 35.0287], [132.7886, 35.0156], [132.7878, 35.0047], [132.7816, 35.0034], [132.7772, 34.9987], [132.7658, 34.9969], [132.7635, 34.9928], [132.767, 34.9913], [132.7655, 34.9891], [132.7688, 34.9841], [132.7556, 34.9772], [132.7533, 34.9789], [132.7453, 34.977], [132.7531, 34.9668], [132.7492, 34.9658], [132.7497, 34.9603], [132.7411, 34.9566], [132.7384, 34.9623], [132.7384, 34.9603], [132.7275, 34.9563], [132.7272, 34.9527], [132.7204, 34.9482], [132.7142, 34.9534], [132.7071, 34.9553], [132.7023, 34.9518], [132.6983, 34.9537], [132.6854, 34.9508], [132.6759, 34.9326], [132.6667, 34.9307], [132.6609, 34.9234], [132.6515, 34.9205], [132.6479, 34.9111], [132.6428, 34.909], [132.6416, 34.9041], [132.634, 34.9051], [132.6352, 34.8989], [132.6553, 34.8997], [132.6614, 34.8903], [132.6667, 34.8903], [132.675, 34.8945], [132.6805, 34.8845], [132.7011, 34.8817], [132.711, 34.8527], [132.7106, 34.8498], [132.7023, 34.8474], [132.6986, 34.8426], [132.6929, 34.8441], [132.6914, 34.8506], [132.6803, 34.8518], [132.6726, 34.8451], [132.6677, 34.8322], [132.6596, 34.8326], [132.6531, 34.8367], [132.6524, 34.8404], [132.6438, 34.8375], [132.6367, 34.841], [132.6359, 34.839], [132.6328, 34.8402], [132.6317, 34.8431], [132.6151, 34.8433], [132.6105, 34.8377], [132.6121, 34.8332], [132.6044, 34.8308], [132.5987, 34.8333], [132.5919, 34.8272], [132.59, 34.8212], [132.5857, 34.8233], [132.5822, 34.8171], [132.5689, 34.8114], [132.5679, 34.8064], [132.5541, 34.8083], [132.5465, 34.8027], [132.5434, 34.7965], [132.538, 34.795], [132.5197, 34.8042], [132.5113, 34.8014], [132.5064, 34.796], [132.4949, 34.8014], [132.4838, 34.7971], [132.4717, 34.8024], [132.4543, 34.8008], [132.4565, 34.8074], [132.4356, 34.8209], [132.4307, 34.8146], [132.4258, 34.8125], [132.4209, 34.8136], [132.4248, 34.7991], [132.4147, 34.7978], [132.3966, 34.7794], [132.3928, 34.7837], [132.388, 34.7826], [132.3816, 34.7859], [132.3827, 34.7958], [132.3742, 34.8011], [132.3608, 34.8001], [132.3563, 34.7969], [132.3519, 34.7981], [132.3461, 34.7933], [132.3338, 34.7901], [132.3233, 34.7936], [132.3183, 34.8016], [132.306, 34.7935], [132.3067, 34.7896], [132.3005, 34.7847], [132.298, 34.7767], [132.2801, 34.7836], [132.2789, 34.7904], [132.2745, 34.7926], [132.278, 34.7992], [132.2697, 34.7984], [132.2671, 34.8029], [132.2595, 34.8069], [132.2427, 34.8066], [132.2383, 34.8015], [132.2435, 34.7988], [132.2427, 34.7832], [132.2328, 34.7764], [132.2343, 34.7736], [132.2292, 34.7733], [132.2251, 34.7698], [132.227, 34.7651], [132.2222, 34.7605], [132.2249, 34.7576], [132.2222, 34.7494], [132.2126, 34.745], [132.2025, 34.7487], [132.1957, 34.7445], [132.1965, 34.7384], [132.1917, 34.7371], [132.1893, 34.7336], [132.1781, 34.7367], [132.174, 34.7313], [132.1554, 34.7232], [132.151, 34.7182], [132.1441, 34.7171], [132.1414, 34.7101], [132.1306, 34.7082], [132.1319, 34.7024], [132.1296, 34.6995], [132.1419, 34.6918], [132.1444, 34.6939], [132.1586, 34.6923], [132.1618, 34.6833], [132.1546, 34.679], [132.1554, 34.6766], [132.147, 34.6661], [132.1474, 34.6622], [132.1372, 34.652], [132.1372, 34.6482], [132.1337, 34.6482], [132.1345, 34.6452], [132.1276, 34.6417], [132.1307, 34.6292], [132.1232, 34.6237], [132.1214, 34.6173], [132.1163, 34.6124], [132.1177, 34.6016], [132.1315, 34.5984], [132.1244, 34.5889], [132.1257, 34.5831], [132.1175, 34.5781], [132.1189, 34.5724], [132.1142, 34.563], [132.1004, 34.5553], [132.0844, 34.5382], [132.0639, 34.5341], [132.0583, 34.5296], [132.0522, 34.5298], [132.0485, 34.5228], [132.0488, 34.5156], [132.0362, 34.5016], [132.039, 34.4995], [132.0522, 34.4989], [132.0598, 34.4923], [132.058, 34.4805], [132.067, 34.473], [132.0713, 34.4584], [132.0812, 34.4435], [132.0767, 34.438], [132.0751, 34.4266], [132.0773, 34.4257], [132.0688, 34.4161], [132.0746, 34.4023], [132.0698, 34.3911], [132.0777, 34.3881], [132.0727, 34.3772], [132.0753, 34.3749], [132.0703, 34.3709], [132.072, 34.3658], [132.0697, 34.3564], [132.0768, 34.3555], [132.0853, 34.3579], [132.0879, 34.3518], [132.0954, 34.3501], [132.1015, 34.3449], [132.1011, 34.3364], [132.1082, 34.3278], [132.1188, 34.3304], [132.1222, 34.3339], [132.1273, 34.3328], [132.1289, 34.3234], [132.1243, 34.3194], [132.1227, 34.3103], [132.1242, 34.3065], [132.1293, 34.3036], [132.1241, 34.2967], [132.1286, 34.2959], [132.1257, 34.2908], [132.1297, 34.2945], [132.1401, 34.2848], [132.1336, 34.272], [132.1404, 34.2604], [132.1464, 34.2568], [132.1443, 34.2368], [132.1503, 34.2372], [132.1574, 34.2289], [132.1602, 34.2294], [132.1602, 34.2335], [132.1705, 34.2339], [132.1707, 34.2289], [132.1672, 34.2278], [132.1719, 34.2252], [132.1804, 34.2299], [132.1933, 34.2266], [132.1931, 34.2306], [132.198, 34.2307], [132.1968, 34.2272], [132.1996, 34.2252], [132.2047, 34.2286], [132.2054, 34.2257], [132.1934, 34.2071], [132.1957, 34.2046], [132.202, 34.2078], [132.2077, 34.203], [132.2125, 34.2031], [132.2196, 34.208], [132.2474, 34.215], [132.2385, 34.227], [132.2361, 34.2256], [132.2206, 34.2327], [132.2232, 34.2364], [132.2274, 34.2354], [132.2289, 34.2445], [132.224, 34.2472], [132.2281, 34.2473], [132.2304, 34.2519], [132.2278, 34.2524], [132.2336, 34.2553], [132.2302, 34.2546], [132.2345, 34.259], [132.2496, 34.2647], [132.2531, 34.2695], [132.2605, 34.2724], [132.2596, 34.2738], [132.2643, 34.2725], [132.267, 34.2746], [132.267, 34.2776], [132.2637, 34.2783], [132.2665, 34.2816], [132.2671, 34.2781], [132.2705, 34.2766], [132.274, 34.2789], [132.2719, 34.2817], [132.2745, 34.2802], [132.2803, 34.2836], [132.2821, 34.2863], [132.2792, 34.2884], [132.2813, 34.2873], [132.284, 34.2899], [132.282, 34.2901], [132.2893, 34.2997], [132.2944, 34.3042], [132.2948, 34.3026], [132.3006, 34.3053], [132.3018, 34.3099], [132.3051, 34.3097], [132.3099, 34.3153], [132.3062, 34.3125], [132.3052, 34.3139], [132.3189, 34.3234], [132.3197, 34.3362], [132.3232, 34.3368], [132.3196, 34.3376], [132.32, 34.3392], [132.3225, 34.3383], [132.3268, 34.3441], [132.333, 34.344], [132.3319, 34.3467], [132.3368, 34.3377], [132.3587, 34.3453], [132.3568, 34.3488], [132.3884, 34.3374], [132.3823, 34.3163], [132.3862, 34.3067], [132.3917, 34.3014], [132.4047, 34.3191], [132.4013, 34.312], [132.4152, 34.2997], [132.4211, 34.2993], [132.424, 34.3027], [132.433, 34.2971], [132.4367, 34.3007], [132.4428, 34.2968], [132.4645, 34.3111]]], [[[132.578, 34.1682], [132.5701, 34.1605], [132.5722, 34.1553], [132.579, 34.1591], [132.578, 34.1682]]], [[[132.5627, 34.1573], [132.5609, 34.1562], [132.563, 34.1548], [132.5627, 34.1573]]], [[[132.6825, 34.1927], [132.6819, 34.1945], [132.6807, 34.1927], [132.6783, 34.1942], [132.6813, 34.1949], [132.68, 34.1963], [132.677, 34.194], [132.6746, 34.1961], [132.6772, 34.2032], [132.6722, 34.2036], [132.669, 34.1994], [132.6668, 34.2004], [132.6628, 34.1968], [132.6561, 34.1965], [132.6486, 34.1863], [132.6488, 34.1805], [132.6442, 34.1711], [132.6505, 34.1707], [132.6566, 34.1763], [132.6633, 34.1735], [132.6626, 34.1695], [132.6739, 34.1729], [132.6806, 34.1841], [132.6839, 34.1851], [132.6825, 34.1927]]], [[[132.6576, 34.1558], [132.6585, 34.158], [132.6562, 34.1558], [132.6518, 34.1562], [132.6519, 34.1509], [132.6576, 34.1558]]], [[[132.6723, 34.159], [132.6658, 34.155], [132.6689, 34.1511], [132.6738, 34.1525], [132.6723, 34.159]]], [[[132.692, 34.2211], [132.6934, 34.2176], [132.701, 34.2186], [132.6971, 34.2235], [132.692, 34.2211]]], [[[132.5399, 34.1642], [132.5408, 34.1728], [132.5468, 34.1766], [132.5513, 34.1764], [132.5572, 34.1705], [132.5591, 34.1732], [132.5561, 34.1746], [132.5569, 34.18], [132.5523, 34.1807], [132.5527, 34.1866], [132.5474, 34.1896], [132.5355, 34.1876], [132.5332, 34.1916], [132.5379, 34.1995], [132.5296, 34.198], [132.527, 34.2002], [132.5185, 34.1924], [132.503, 34.1854], [132.499, 34.1727], [132.4949, 34.1679], [132.4941, 34.1489], [132.5049, 34.1475], [132.5088, 34.142], [132.5058, 34.1435], [132.5078, 34.1396], [132.5048, 34.1339], [132.5029, 34.132], [132.499, 34.1346], [132.4992, 34.1328], [132.4885, 34.1304], [132.4772, 34.1235], [132.4737, 34.1254], [132.4749, 34.1206], [132.4719, 34.1181], [132.4688, 34.122], [132.4653, 34.1204], [132.4655, 34.1161], [132.4551, 34.115], [132.4472, 34.1081], [132.4495, 34.1065], [132.4474, 34.1041], [132.4479, 34.0938], [132.4541, 34.0939], [132.4571, 34.0851], [132.4612, 34.0825], [132.4774, 34.0893], [132.4806, 34.0889], [132.4822, 34.0853], [132.4865, 34.0916], [132.4905, 34.0893], [132.4916, 34.0925], [132.4984, 34.0909], [132.5039, 34.1041], [132.5095, 34.1033], [132.5137, 34.0995], [132.5123, 34.0911], [132.5152, 34.0956], [132.5188, 34.093], [132.5218, 34.0959], [132.5249, 34.0949], [132.5291, 34.1014], [132.5328, 34.1023], [132.5319, 34.1039], [132.5348, 34.1031], [132.5353, 34.0955], [132.5423, 34.0964], [132.5397, 34.0966], [132.5415, 34.0997], [132.5445, 34.0988], [132.5431, 34.0918], [132.5482, 34.0891], [132.5469, 34.0858], [132.549, 34.0852], [132.5499, 34.0792], [132.5469, 34.0785], [132.5389, 34.0678], [132.5335, 34.0742], [132.5316, 34.0736], [132.5318, 34.0696], [132.5268, 34.0644], [132.5267, 34.0579], [132.5197, 34.0526], [132.5297, 34.0464], [132.535, 34.0487], [132.5389, 34.0678], [132.549, 34.071], [132.5556, 34.0686], [132.5588, 34.0711], [132.5563, 34.0752], [132.5523, 34.0725], [132.5505, 34.0735], [132.5504, 34.0716], [132.5474, 34.0764], [132.5499, 34.0776], [132.55, 34.0794], [132.5566, 34.0802], [132.5631, 34.0941], [132.5678, 34.0971], [132.5704, 34.1156], [132.5759, 34.1159], [132.5774, 34.1107], [132.5852, 34.1061], [132.5868, 34.109], [132.5895, 34.1084], [132.593, 34.1152], [132.5888, 34.1108], [132.5826, 34.1126], [132.5806, 34.1194], [132.5837, 34.1238], [132.5763, 34.128], [132.5729, 34.1236], [132.5675, 34.1238], [132.5605, 34.117], [132.5487, 34.1175], [132.5473, 34.1121], [132.541, 34.1071], [132.539, 34.1078], [132.5416, 34.1152], [132.5375, 34.1212], [132.5451, 34.1247], [132.547, 34.1381], [132.5578, 34.1504], [132.5523, 34.1486], [132.549, 34.1413], [132.5484, 34.1516], [132.5324, 34.1468], [132.5307, 34.15], [132.5272, 34.1505], [132.5299, 34.1535], [132.5212, 34.1551], [132.5279, 34.1644], [132.5323, 34.1654], [132.5338, 34.1616], [132.5399, 34.1642]]], [[[132.5145, 34.1976], [132.5143, 34.1995], [132.5117, 34.1919], [132.5153, 34.1953], [132.5145, 34.1976]]], [[[132.5209, 34.0426], [132.5212, 34.0443], [132.5193, 34.0416], [132.5218, 34.0387], [132.5209, 34.0426]]], [[[132.4641, 34.0594], [132.4623, 34.0616], [132.4627, 34.0588], [132.4676, 34.0569], [132.4661, 34.0611], [132.4641, 34.0594]]], [[[132.4948, 34.0455], [132.482, 34.0373], [132.4831, 34.0341], [132.4923, 34.0403], [132.4965, 34.0447], [132.4948, 34.0455]]], [[[132.7306, 34.1976], [132.7248, 34.2002], [132.722, 34.1965], [132.711, 34.2043], [132.6987, 34.2041], [132.6863, 34.1962], [132.6886, 34.1881], [132.685, 34.1844], [132.6856, 34.1824], [132.6948, 34.1823], [132.7018, 34.1793], [132.7136, 34.1809], [132.7165, 34.1726], [132.7221, 34.1693], [132.7254, 34.1725], [132.7383, 34.1734], [132.7434, 34.1674], [132.7356, 34.1614], [132.7388, 34.1578], [132.7417, 34.1637], [132.7486, 34.1622], [132.7595, 34.1678], [132.7652, 34.1788], [132.7645, 34.1819], [132.7578, 34.1832], [132.7585, 34.1822], [132.756, 34.1804], [132.7569, 34.1818], [132.754, 34.1819], [132.7597, 34.1904], [132.7584, 34.193], [132.7542, 34.1945], [132.7445, 34.1931], [132.7402, 34.1971], [132.738, 34.1976], [132.7413, 34.1951], [132.7306, 34.1976]]], [[[132.7832, 34.2613], [132.7808, 34.2577], [132.7873, 34.2556], [132.7879, 34.2606], [132.7832, 34.2613]]], [[[132.7755, 34.2609], [132.7744, 34.2592], [132.7794, 34.2578], [132.7755, 34.2609]]], [[[132.7747, 34.2684], [132.7712, 34.2639], [132.7751, 34.265], [132.7747, 34.2684]]], [[[132.79, 34.1865], [132.7867, 34.189], [132.7785, 34.1847], [132.7715, 34.1768], [132.7711, 34.1722], [132.7585, 34.1524], [132.788, 34.1214], [132.7878, 34.1138], [132.7978, 34.117], [132.8252, 34.1538], [132.8347, 34.1562], [132.8392, 34.1603], [132.8471, 34.1604], [132.8652, 34.1737], [132.8682, 34.1737], [132.8694, 34.177], [132.8683, 34.1802], [132.8638, 34.1796], [132.8587, 34.1829], [132.8579, 34.1865], [132.8492, 34.1907], [132.8471, 34.1932], [132.8496, 34.1963], [132.8422, 34.1915], [132.8324, 34.19], [132.8309, 34.1854], [132.8229, 34.1871], [132.8114, 34.1801], [132.79, 34.1865]]], [[[132.8097, 34.1868], [132.8201, 34.1905], [132.8207, 34.1963], [132.8085, 34.1938], [132.81, 34.1898], [132.8052, 34.1878], [132.8097, 34.1868]]], [[[132.856, 34.195], [132.8555, 34.1925], [132.8591, 34.1913], [132.856, 34.195]]], [[[132.8531, 34.195], [132.8492, 34.1925], [132.8528, 34.192], [132.8531, 34.195]]], [[[132.9375, 34.3244], [132.9487, 34.3093], [132.9488, 34.316], [132.9428, 34.3239], [132.9375, 34.3244]]], [[[132.9895, 34.3154], [132.9905, 34.3055], [132.9938, 34.3022], [132.999, 34.3078], [132.995, 34.3133], [132.9895, 34.3154]]], [[[132.9805, 34.3097], [132.978, 34.3108], [132.9803, 34.3047], [132.9805, 34.3097]]], [[[133.1075, 34.3683], [133.0993, 34.3643], [133.0992, 34.3597], [133.108, 34.3627], [133.1075, 34.3683]]], [[[133.0988, 34.338], [133.0995, 34.3295], [133.1032, 34.3259], [133.0992, 34.3258], [133.0992, 34.3286], [133.0951, 34.3312], [133.095, 34.3247], [133.1048, 34.3229], [133.1052, 34.3188], [133.1128, 34.3175], [133.1217, 34.3258], [133.127, 34.3376], [133.1241, 34.3394], [133.1225, 34.3533], [133.119, 34.357], [133.1172, 34.3557], [133.1171, 34.3601], [133.1035, 34.3564], [133.1045, 34.3472], [133.0973, 34.3404], [133.0988, 34.338]]], [[[133.2608, 34.3844], [133.257, 34.3794], [133.2599, 34.3726], [133.2589, 34.3658], [133.27, 34.3608], [133.2775, 34.3708], [133.2795, 34.3803], [133.2771, 34.3812], [133.2733, 34.3784], [133.2728, 34.3803], [133.2718, 34.3787], [133.2697, 34.3779], [133.2716, 34.3791], [133.2686, 34.3806], [133.2684, 34.3821], [133.2619, 34.3825], [133.2608, 34.3844]]], [[[133.2447, 34.3712], [133.2465, 34.3752], [133.2409, 34.3797], [133.2383, 34.374], [133.2447, 34.3712]]], [[[133.1912, 34.2761], [133.1969, 34.2759], [133.1995, 34.2793], [133.1963, 34.2862], [133.201, 34.2868], [133.2008, 34.2901], [133.2103, 34.2967], [133.2068, 34.2979], [133.2028, 34.296], [133.1962, 34.2997], [133.197, 34.297], [133.1934, 34.2999], [133.1985, 34.3076], [133.2115, 34.314], [133.2109, 34.3189], [133.2035, 34.3192], [133.1999, 34.3311], [133.1974, 34.3307], [133.1973, 34.3381], [133.1857, 34.3365], [133.1816, 34.3325], [133.1777, 34.3335], [133.1836, 34.3357], [133.1845, 34.3382], [133.1766, 34.3438], [133.1748, 34.3506], [133.1775, 34.3533], [133.1736, 34.3579], [133.1618, 34.3592], [133.1559, 34.3564], [133.1514, 34.3587], [133.1476, 34.3579], [133.1492, 34.3493], [133.1467, 34.345], [133.145, 34.3483], [133.1377, 34.3462], [133.1367, 34.3425], [133.1389, 34.3436], [133.1418, 34.3404], [133.1396, 34.3411], [133.1345, 34.3356], [133.1345, 34.3289], [133.1378, 34.3266], [133.1402, 34.3276], [133.151, 34.3129], [133.1493, 34.312], [133.1558, 34.2988], [133.1683, 34.2944], [133.1688, 34.2961], [133.1741, 34.2923], [133.172, 34.2927], [133.1801, 34.2811], [133.1912, 34.2761]]], [[[133.1455, 34.3709], [133.1375, 34.3676], [133.1333, 34.3607], [133.1358, 34.3593], [133.1398, 34.3632], [133.145, 34.3632], [133.1455, 34.3709]]], [[[133.1392, 34.3574], [133.1378, 34.3564], [133.1415, 34.3513], [133.1403, 34.354], [133.1427, 34.356], [133.1392, 34.3574]]], [[[133.1394, 34.2839], [133.1468, 34.2874], [133.1501, 34.2979], [133.1399, 34.3153], [133.1334, 34.3169], [133.1318, 34.3151], [133.1219, 34.3151], [133.1235, 34.3141], [133.1179, 34.3104], [133.1122, 34.3107], [133.1133, 34.3077], [133.1095, 34.3109], [133.1021, 34.3061], [133.0956, 34.307], [133.0962, 34.3088], [133.0944, 34.3108], [133.0949, 34.3135], [133.0973, 34.3133], [133.0933, 34.314], [133.093, 34.3133], [133.0922, 34.314], [133.0921, 34.3134], [133.09, 34.3136], [133.0841, 34.3083], [133.0818, 34.2985], [133.0733, 34.2862], [133.0735, 34.2817], [133.0696, 34.2792], [133.0721, 34.2788], [133.0699, 34.2789], [133.0673, 34.2664], [133.0759, 34.2583], [133.0825, 34.256], [133.0903, 34.2584], [133.0937, 34.2566], [133.0958, 34.2601], [133.1029, 34.2611], [133.1065, 34.2656], [133.1121, 34.2654], [133.1149, 34.2742], [133.1215, 34.2753], [133.1285, 34.2804], [133.1338, 34.2796], [133.1348, 34.2826], [133.1394, 34.2839]]], [[[133.0788, 34.3331], [133.0763, 34.334], [133.0752, 34.3283], [133.073, 34.3315], [133.0662, 34.3259], [133.062, 34.3147], [133.0646, 34.3051], [133.0765, 34.3014], [133.0819, 34.3036], [133.0828, 34.3098], [133.0872, 34.3133], [133.0788, 34.3331]]], [[[133.3992, 34.3886], [133.3917, 34.3885], [133.3904, 34.3844], [133.3876, 34.3837], [133.3989, 34.3777], [133.404, 34.3829], [133.4033, 34.3851], [133.3992, 34.3849], [133.3992, 34.3886]]], [[[133.4683, 34.3158], [133.4575, 34.315], [133.4611, 34.3095], [133.4657, 34.3127], [133.4696, 34.3102], [133.4707, 34.3151], [133.4683, 34.3158]]], [[[133.4672, 34.3572], [133.4648, 34.3562], [133.4667, 34.3541], [133.4672, 34.3572]]], [[[133.4357, 34.3514], [133.4333, 34.3478], [133.4329, 34.3495], [133.4307, 34.3486], [133.4324, 34.3498], [133.4273, 34.3501], [133.4276, 34.3479], [133.4307, 34.3479], [133.4277, 34.3445], [133.4304, 34.3391], [133.4383, 34.3389], [133.4459, 34.3356], [133.4492, 34.3399], [133.4546, 34.3377], [133.453, 34.342], [133.4481, 34.3415], [133.4411, 34.3498], [133.4357, 34.3514]]], [[[133.276, 34.3543], [133.2624, 34.3459], [133.2669, 34.3381], [133.2624, 34.3324], [133.2727, 34.3357], [133.2785, 34.3349], [133.286, 34.3387], [133.2861, 34.3478], [133.2896, 34.3504], [133.2874, 34.351], [133.2879, 34.3578], [133.2844, 34.3561], [133.283, 34.3581], [133.276, 34.3543]]], [[[133.2947, 34.347], [133.3024, 34.3423], [133.3206, 34.3534], [133.3379, 34.3563], [133.3423, 34.3708], [133.3359, 34.3683], [133.332, 34.3705], [133.3317, 34.3658], [133.3272, 34.3644], [133.3251, 34.3599], [133.3251, 34.3661], [133.32, 34.3673], [133.3186, 34.3728], [133.3044, 34.3694], [133.2888, 34.3563], [133.2947, 34.347]]], [[[132.2661, 34.2334], [132.2659, 34.236], [132.264, 34.2346], [132.2661, 34.2334]]], [[[132.3203, 34.1994], [132.3156, 34.1991], [132.3154, 34.194], [132.3093, 34.1988], [132.3045, 34.1969], [132.3028, 34.1935], [132.296, 34.1995], [132.2926, 34.1886], [132.2951, 34.1869], [132.3005, 34.1892], [132.3006, 34.1847], [132.3054, 34.1841], [132.3073, 34.1868], [132.3167, 34.1865], [132.3193, 34.1899], [132.3157, 34.1946], [132.32, 34.1963], [132.3203, 34.1994]]], [[[132.3186, 34.1234], [132.3136, 34.1224], [132.3194, 34.119], [132.3186, 34.1234]]], [[[132.8061, 34.2814], [132.7925, 34.2766], [132.7903, 34.2726], [132.8032, 34.2685], [132.8112, 34.2759], [132.8092, 34.2816], [132.805, 34.2795], [132.8061, 34.2814]]], [[[132.8053, 34.2956], [132.8021, 34.2945], [132.8057, 34.2924], [132.8053, 34.2956]]], [[[132.8181, 34.2893], [132.8172, 34.2912], [132.8143, 34.2871], [132.8181, 34.2893]]], [[[132.3098, 34.296], [132.3018, 34.2939], [132.2991, 34.2892], [132.2951, 34.2897], [132.2889, 34.2865], [132.2836, 34.278], [132.2837, 34.2711], [132.2775, 34.2631], [132.2734, 34.2622], [132.2712, 34.2565], [132.2638, 34.2562], [132.2623, 34.2518], [132.2697, 34.2477], [132.2689, 34.2426], [132.2743, 34.2316], [132.3028, 34.244], [132.3138, 34.2578], [132.3308, 34.2674], [132.3356, 34.2727], [132.3403, 34.2728], [132.341, 34.2779], [132.3477, 34.2818], [132.3485, 34.2929], [132.3401, 34.2976], [132.3412, 34.3027], [132.3386, 34.3055], [132.3355, 34.3034], [132.3369, 34.3051], [132.334, 34.3058], [132.3337, 34.3114], [132.3249, 34.303], [132.3224, 34.3044], [132.3194, 34.2955], [132.3098, 34.296]]], [[[132.4223, 34.2566], [132.4143, 34.2603], [132.4054, 34.2584], [132.4072, 34.2606], [132.3931, 34.2609], [132.3818, 34.259], [132.3838, 34.2571], [132.3803, 34.2564], [132.3818, 34.2588], [132.3773, 34.2608], [132.3773, 34.2646], [132.3719, 34.2583], [132.3749, 34.2537], [132.3811, 34.2527], [132.3777, 34.2529], [132.3845, 34.249], [132.3884, 34.2413], [132.3896, 34.2315], [132.3852, 34.2301], [132.3845, 34.2265], [132.4083, 34.2021], [132.4073, 34.2044], [132.4152, 34.2007], [132.4167, 34.1975], [132.4204, 34.1979], [132.4231, 34.1923], [132.4223, 34.181], [132.4269, 34.1803], [132.429, 34.1733], [132.434, 34.1788], [132.4357, 34.1946], [132.439, 34.1958], [132.4428, 34.1959], [132.4423, 34.1898], [132.4572, 34.1779], [132.4561, 34.1755], [132.455, 34.1784], [132.451, 34.1782], [132.4512, 34.1809], [132.4449, 34.1792], [132.4436, 34.1696], [132.4496, 34.1674], [132.4463, 34.1679], [132.4485, 34.1671], [132.4461, 34.1643], [132.4455, 34.1666], [132.4442, 34.1546], [132.4437, 34.1548], [132.4414, 34.1528], [132.4424, 34.1554], [132.4389, 34.1566], [132.441, 34.1598], [132.4392, 34.1607], [132.4348, 34.156], [132.4291, 34.1545], [132.4312, 34.1523], [132.4274, 34.1507], [132.4298, 34.1463], [132.4416, 34.1518], [132.443, 34.1539], [132.4446, 34.1521], [132.4454, 34.1523], [132.4385, 34.1449], [132.4381, 34.1398], [132.4302, 34.1286], [132.4429, 34.135], [132.4459, 34.1401], [132.4461, 34.1323], [132.4492, 34.1365], [132.4603, 34.1339], [132.4637, 34.1376], [132.469, 34.1395], [132.4703, 34.138], [132.4815, 34.1449], [132.4854, 34.1416], [132.4898, 34.1423], [132.4862, 34.1447], [132.4895, 34.1462], [132.487, 34.1473], [132.4906, 34.1494], [132.4892, 34.1518], [132.4917, 34.1551], [132.4841, 34.1642], [132.4842, 34.168], [132.4807, 34.1689], [132.4832, 34.1698], [132.4799, 34.1702], [132.4777, 34.1785], [132.4713, 34.1789], [132.4746, 34.1791], [132.472, 34.1796], [132.4717, 34.1825], [132.4749, 34.19], [132.4734, 34.1946], [132.4769, 34.1953], [132.4796, 34.1918], [132.4823, 34.1994], [132.4861, 34.1998], [132.4902, 34.2039], [132.4893, 34.2196], [132.4916, 34.2284], [132.494, 34.2285], [132.4917, 34.2285], [132.4927, 34.2308], [132.494, 34.229], [132.4959, 34.2322], [132.4937, 34.2375], [132.4976, 34.2424], [132.4942, 34.2417], [132.4908, 34.2478], [132.4949, 34.2501], [132.4922, 34.25], [132.4932, 34.2519], [132.4939, 34.2502], [132.4954, 34.2526], [132.4976, 34.2515], [132.4952, 34.2528], [132.4975, 34.2538], [132.4955, 34.2603], [132.4986, 34.2685], [132.4895, 34.2833], [132.4821, 34.288], [132.4795, 34.2963], [132.4777, 34.294], [132.4811, 34.2868], [132.4778, 34.2835], [132.4771, 34.285], [132.4738, 34.2836], [132.4732, 34.287], [132.4643, 34.2877], [132.452, 34.2871], [132.4512, 34.2842], [132.4478, 34.2847], [132.442, 34.2892], [132.4393, 34.2861], [132.4342, 34.286], [132.436, 34.2752], [132.4458, 34.2667], [132.443, 34.2612], [132.4327, 34.2539], [132.4332, 34.2501], [132.4401, 34.2455], [132.4504, 34.247], [132.4518, 34.2551], [132.4561, 34.2568], [132.4602, 34.2501], [132.4621, 34.251], [132.4709, 34.2445], [132.4798, 34.2317], [132.4739, 34.2084], [132.4703, 34.2091], [132.4699, 34.2138], [132.4647, 34.2164], [132.4577, 34.2308], [132.4548, 34.2268], [132.4499, 34.2276], [132.449, 34.224], [132.4451, 34.2229], [132.4449, 34.2248], [132.4428, 34.2234], [132.439, 34.225], [132.4386, 34.2346], [132.4356, 34.2349], [132.4364, 34.237], [132.4348, 34.2355], [132.4223, 34.2566]]], [[[132.4216, 34.1337], [132.4189, 34.1341], [132.416, 34.1305], [132.4187, 34.1293], [132.4216, 34.1337]]], [[[132.3719, 34.2794], [132.3611, 34.2762], [132.3647, 34.2735], [132.3699, 34.2758], [132.3773, 34.2738], [132.3784, 34.2789], [132.3719, 34.2794]]], [[[132.3624, 34.2914], [132.3607, 34.2898], [132.3633, 34.2884], [132.3624, 34.2914]]], [[[132.3544, 34.2417], [132.3532, 34.2397], [132.3575, 34.2357], [132.3581, 34.2391], [132.3544, 34.2417]]], [[[132.3851, 34.1774], [132.3819, 34.1714], [132.3834, 34.1565], [132.3864, 34.1552], [132.3875, 34.1496], [132.3976, 34.1466], [132.4127, 34.15], [132.4172, 34.1574], [132.4106, 34.1668], [132.4131, 34.1697], [132.4068, 34.1677], [132.4031, 34.1693], [132.4023, 34.1731], [132.4001, 34.1705], [132.3947, 34.1705], [132.3961, 34.1737], [132.3851, 34.1774]]], [[[132.8969, 34.2502], [132.8943, 34.2518], [132.8915, 34.2498], [132.8918, 34.2545], [132.8897, 34.2543], [132.8943, 34.2572], [132.8912, 34.2619], [132.8874, 34.2625], [132.8773, 34.2519], [132.8792, 34.2492], [132.8825, 34.2501], [132.8839, 34.2441], [132.8818, 34.2485], [132.8773, 34.2493], [132.865, 34.2484], [132.8616, 34.2446], [132.8559, 34.2493], [132.8603, 34.2436], [132.8578, 34.2399], [132.8492, 34.2453], [132.8435, 34.2413], [132.8382, 34.2422], [132.8415, 34.2379], [132.8448, 34.2377], [132.847, 34.2326], [132.8466, 34.2302], [132.8399, 34.2284], [132.8419, 34.2239], [132.8558, 34.2082], [132.8612, 34.2093], [132.864, 34.2063], [132.8671, 34.2081], [132.8747, 34.2054], [132.8849, 34.207], [132.887, 34.2104], [132.8932, 34.2124], [132.905, 34.2145], [132.9144, 34.2114], [132.9207, 34.2141], [132.9149, 34.2217], [132.9168, 34.2213], [132.9169, 34.2336], [132.9133, 34.2349], [132.9199, 34.2368], [132.9299, 34.2481], [132.9421, 34.2775], [132.9334, 34.2845], [132.9306, 34.2847], [132.9292, 34.2808], [132.9271, 34.2831], [132.9074, 34.2638], [132.9087, 34.2601], [132.9063, 34.2602], [132.9049, 34.2545], [132.9009, 34.2526], [132.9033, 34.2488], [132.9003, 34.2469], [132.8969, 34.2502]]], [[[132.8872, 34.2719], [132.8875, 34.2688], [132.8899, 34.2688], [132.891, 34.2708], [132.8872, 34.2719]]], [[[132.8706, 34.2706], [132.8688, 34.2709], [132.8691, 34.2675], [132.8657, 34.2689], [132.8635, 34.2638], [132.8687, 34.2635], [132.8678, 34.2591], [132.8721, 34.2571], [132.8699, 34.2559], [132.8721, 34.2571], [132.8715, 34.2552], [132.8727, 34.2567], [132.875, 34.2546], [132.878, 34.2589], [132.8736, 34.2611], [132.8739, 34.2665], [132.8769, 34.2675], [132.8709, 34.2685], [132.8706, 34.2706]]], [[[132.8025, 34.2304], [132.801, 34.2256], [132.8046, 34.2285], [132.8025, 34.2304]]], [[[132.8406, 34.2553], [132.8353, 34.2542], [132.8392, 34.2532], [132.8406, 34.2553]]], [[[132.9157, 34.2998], [132.9076, 34.2949], [132.9049, 34.2848], [132.9072, 34.2878], [132.9096, 34.2831], [132.9129, 34.2851], [132.912, 34.282], [132.9152, 34.2834], [132.9142, 34.2799], [132.9162, 34.2797], [132.9249, 34.2854], [132.9263, 34.2946], [132.924, 34.2977], [132.9166, 34.2905], [132.9147, 34.2972], [132.9186, 34.2992], [132.9157, 34.2998]]], [[[132.9038, 34.2987], [132.9011, 34.2975], [132.9022, 34.2941], [132.9038, 34.2987]]], [[[132.8839, 34.29], [132.8816, 34.2874], [132.8846, 34.2824], [132.8832, 34.2794], [132.8812, 34.2799], [132.8841, 34.2756], [132.888, 34.2795], [132.8839, 34.29]]], [[[132.9427, 34.2876], [132.9371, 34.2868], [132.9358, 34.2843], [132.9444, 34.2837], [132.9427, 34.2876]]], [[[132.9104, 34.278], [132.9066, 34.2776], [132.9063, 34.2711], [132.9107, 34.2733], [132.9104, 34.278]]]]}, "properties": {"name": "広島県"}}]}