{"type": "FeatureCollection", "features": [{"type": "Feature", "geometry": {"type": "MultiPolygon", "coordinates": [[[[134.0231, 34.3509], [134.0197, 34.3481], [134.0216, 34.3545], [134.0191, 34.3564], [134.0192, 34.3529], [134.0155, 34.3538], [134.0145, 34.3517], [134.0153, 34.3544], [134.0092, 34.3546], [134.0096, 34.3562], [134.0154, 34.3546], [134.018, 34.357], [134.0095, 34.3574], [134.0075, 34.3495], [134.006, 34.3501], [134.0074, 34.3586], [134.0032, 34.3592], [134.0003, 34.3508], [133.9988, 34.3546], [134.0004, 34.3555], [133.9952, 34.3552], [134.0003, 34.3598], [133.9935, 34.3632], [133.9927, 34.3585], [133.9958, 34.3564], [133.9951, 34.3553], [133.9929, 34.3565], [133.9897, 34.3596], [133.9909, 34.3608], [133.9881, 34.3607], [133.9894, 34.3619], [133.9805, 34.3668], [133.9765, 34.3733], [133.9657, 34.3652], [133.9644, 34.3611], [133.9651, 34.3658], [133.9636, 34.365], [133.9596, 34.3684], [133.9643, 34.3709], [133.9616, 34.3718], [133.9594, 34.3774], [133.9484, 34.3811], [133.9444, 34.3794], [133.9444, 34.3743], [133.9388, 34.3752], [133.9383, 34.3815], [133.9287, 34.3897], [133.9264, 34.3886], [133.9228, 34.3806], [133.9206, 34.3802], [133.921, 34.3778], [133.9175, 34.3768], [133.9097, 34.3818], [133.9079, 34.3792], [133.9058, 34.3794], [133.9081, 34.3781], [133.9079, 34.3758], [133.9062, 34.3785], [133.9001, 34.3776], [133.9037, 34.3744], [133.9008, 34.3748], [133.8993, 34.3777], [133.9013, 34.3784], [133.8989, 34.3812], [133.8939, 34.3825], [133.8881, 34.3752], [133.8918, 34.3662], [133.8549, 34.3706], [133.8538, 34.3605], [133.8496, 34.36], [133.8498, 34.3728], [133.8274, 34.3583], [133.8192, 34.3828], [133.8243, 34.3823], [133.8243, 34.3836], [133.8224, 34.3829], [133.8231, 34.3853], [133.8245, 34.3839], [133.8246, 34.3902], [133.8209, 34.3954], [133.8186, 34.3937], [133.816, 34.3945], [133.8162, 34.3923], [133.8154, 34.3941], [133.8133, 34.3931], [133.8121, 34.3944], [133.8087, 34.4044], [133.8113, 34.4043], [133.8129, 34.4085], [133.8092, 34.4084], [133.8081, 34.4065], [133.8065, 34.4129], [133.8078, 34.4133], [133.8053, 34.4169], [133.8078, 34.4169], [133.8064, 34.419], [133.8083, 34.4191], [133.8086, 34.4169], [133.8092, 34.4208], [133.8065, 34.4269], [133.8045, 34.4273], [133.803, 34.4252], [133.8003, 34.4268], [133.7956, 34.4252], [133.8001, 34.4221], [133.7999, 34.418], [133.8059, 34.4136], [133.8107, 34.3945], [133.8131, 34.3929], [133.8128, 34.3887], [133.8153, 34.3842], [133.8189, 34.383], [133.8271, 34.3582], [133.8187, 34.3515], [133.8222, 34.3472], [133.8205, 34.3353], [133.8219, 34.3247], [133.8259, 34.3261], [133.8242, 34.3232], [133.8192, 34.321], [133.8206, 34.3172], [133.8198, 34.3184], [133.8165, 34.3168], [133.8138, 34.3195], [133.8154, 34.3173], [133.7993, 34.3072], [133.8033, 34.3012], [133.8011, 34.3009], [133.7925, 34.31], [133.789, 34.3081], [133.7899, 34.3068], [133.7913, 34.3087], [133.7926, 34.3071], [133.7907, 34.3067], [133.7939, 34.3018], [133.7954, 34.3019], [133.7913, 34.3059], [133.7927, 34.3067], [133.7984, 34.2991], [133.7959, 34.3012], [133.7917, 34.2998], [133.7935, 34.2964], [133.7884, 34.2941], [133.7875, 34.297], [133.79, 34.2988], [133.7878, 34.3017], [133.7838, 34.3007], [133.7876, 34.3024], [133.7827, 34.3108], [133.7721, 34.306], [133.7764, 34.3039], [133.7787, 34.3003], [133.7816, 34.3026], [133.7839, 34.3003], [133.7753, 34.2965], [133.7789, 34.2907], [133.7771, 34.2892], [133.7684, 34.3049], [133.7619, 34.2999], [133.7685, 34.2901], [133.7724, 34.2889], [133.7718, 34.2859], [133.767, 34.2887], [133.7669, 34.2859], [133.7633, 34.2837], [133.7608, 34.2871], [133.757, 34.2851], [133.7582, 34.2821], [133.7517, 34.2787], [133.753, 34.2805], [133.7504, 34.2804], [133.7468, 34.2853], [133.7404, 34.2819], [133.7438, 34.2774], [133.7479, 34.2762], [133.7464, 34.2738], [133.7417, 34.2759], [133.7439, 34.2742], [133.7426, 34.2728], [133.7454, 34.273], [133.7435, 34.2717], [133.7411, 34.2716], [133.7393, 34.2742], [133.7401, 34.2763], [133.7364, 34.2826], [133.73, 34.2759], [133.7322, 34.2725], [133.7309, 34.2716], [133.7301, 34.2735], [133.7304, 34.2721], [133.7379, 34.2638], [133.736, 34.2616], [133.7327, 34.2618], [133.7338, 34.2605], [133.7323, 34.2601], [133.731, 34.2612], [133.7325, 34.2624], [133.7309, 34.2613], [133.7313, 34.26], [133.7249, 34.2547], [133.7183, 34.2521], [133.7089, 34.2433], [133.7081, 34.2402], [133.7046, 34.2394], [133.7027, 34.2418], [133.7046, 34.2394], [133.6987, 34.234], [133.6947, 34.237], [133.6881, 34.2371], [133.6877, 34.2249], [133.6862, 34.225], [133.6859, 34.2332], [133.6816, 34.234], [133.6789, 34.231], [133.6778, 34.2245], [133.674, 34.222], [133.671, 34.2232], [133.6748, 34.2244], [133.6784, 34.2364], [133.6752, 34.237], [133.6724, 34.2269], [133.6695, 34.2251], [133.6714, 34.2268], [133.667, 34.2344], [133.6683, 34.2336], [133.6703, 34.2405], [133.6721, 34.2401], [133.6746, 34.243], [133.6729, 34.247], [133.671, 34.2473], [133.6711, 34.2449], [133.6671, 34.2408], [133.6593, 34.2399], [133.6557, 34.2354], [133.6533, 34.235], [133.6547, 34.2337], [133.6526, 34.2352], [133.6517, 34.2331], [133.6465, 34.2333], [133.6342, 34.2396], [133.6263, 34.2383], [133.6224, 34.2357], [133.6167, 34.2398], [133.6165, 34.2434], [133.6184, 34.2446], [133.6144, 34.2464], [133.6121, 34.2497], [133.6134, 34.2501], [133.6092, 34.2523], [133.5913, 34.2554], [133.5886, 34.2591], [133.5911, 34.2586], [133.5916, 34.2606], [133.5812, 34.2606], [133.5725, 34.2655], [133.5652, 34.2635], [133.5599, 34.2644], [133.557, 34.2615], [133.5742, 34.2581], [133.5759, 34.2548], [133.5746, 34.2557], [133.5735, 34.252], [133.576, 34.2504], [133.5766, 34.2523], [133.5791, 34.2512], [133.5792, 34.2478], [133.5729, 34.2453], [133.573, 34.243], [133.5756, 34.2442], [133.5783, 34.2428], [133.5799, 34.2443], [133.5832, 34.2435], [133.5841, 34.2415], [133.5869, 34.2414], [133.5946, 34.2361], [133.6048, 34.2324], [133.6026, 34.234], [133.6045, 34.2344], [133.6086, 34.2306], [133.6098, 34.2227], [133.6203, 34.219], [133.6226, 34.2153], [133.6205, 34.2133], [133.6232, 34.2118], [133.6259, 34.2139], [133.6346, 34.2103], [133.635, 34.2061], [133.6375, 34.2054], [133.6339, 34.2038], [133.6346, 34.2024], [133.6406, 34.2053], [133.637, 34.2034], [133.6359, 34.1991], [133.6379, 34.2001], [133.6437, 34.1915], [133.6487, 34.1928], [133.6493, 34.1858], [133.6451, 34.1819], [133.6481, 34.1724], [133.6458, 34.1592], [133.642, 34.156], [133.6454, 34.1556], [133.6431, 34.1556], [133.64, 34.1517], [133.6427, 34.1487], [133.6402, 34.1316], [133.6381, 34.1286], [133.6335, 34.1274], [133.6446, 34.13], [133.6447, 34.1289], [133.6321, 34.1256], [133.6353, 34.1246], [133.6417, 34.126], [133.6372, 34.1232], [133.6316, 34.1238], [133.6336, 34.1138], [133.6457, 34.1153], [133.6418, 34.114], [133.6448, 34.1101], [133.6413, 34.1139], [133.6368, 34.1123], [133.636, 34.0941], [133.6394, 34.0931], [133.639, 34.092], [133.6382, 34.0927], [133.636, 34.0926], [133.6335, 34.0946], [133.636, 34.0926], [133.6381, 34.0923], [133.6387, 34.0907], [133.6376, 34.0868], [133.6347, 34.087], [133.6359, 34.084], [133.6334, 34.084], [133.6375, 34.0836], [133.6323, 34.0837], [133.6328, 34.0804], [133.6368, 34.078], [133.6348, 34.0776], [133.6306, 34.0814], [133.6315, 34.0765], [133.6344, 34.0769], [133.6316, 34.0758], [133.6316, 34.0723], [133.6345, 34.0718], [133.6278, 34.0531], [133.6223, 34.0491], [133.6138, 34.0477], [133.6133, 34.0454], [133.6132, 34.0479], [133.6116, 34.0446], [133.5983, 34.0435], [133.604, 34.0361], [133.6071, 34.0369], [133.6083, 34.0345], [133.614, 34.0322], [133.6267, 34.0379], [133.6331, 34.0301], [133.6364, 34.0295], [133.6396, 34.0259], [133.6444, 34.0277], [133.6528, 34.0276], [133.6567, 34.0298], [133.6588, 34.0276], [133.6646, 34.0273], [133.6697, 34.0243], [133.6717, 34.0205], [133.6782, 34.0182], [133.6773, 34.0158], [133.6796, 34.0126], [133.6913, 34.0133], [133.7007, 34.0181], [133.7092, 34.0156], [133.7221, 34.0235], [133.7229, 34.0369], [133.7265, 34.0392], [133.7287, 34.0441], [133.7494, 34.0541], [133.7588, 34.0612], [133.7639, 34.0705], [133.7685, 34.0734], [133.7725, 34.0729], [133.7753, 34.0745], [133.7786, 34.0795], [133.7821, 34.0803], [133.7868, 34.0782], [133.7921, 34.0783], [133.7902, 34.0757], [133.7978, 34.0699], [133.8142, 34.0736], [133.8175, 34.0723], [133.8201, 34.0739], [133.8188, 34.0796], [133.8235, 34.086], [133.8218, 34.0921], [133.8339, 34.098], [133.8421, 34.095], [133.8584, 34.1056], [133.8653, 34.1047], [133.8675, 34.1002], [133.8851, 34.1045], [133.8929, 34.1082], [133.903, 34.1001], [133.9115, 34.1044], [133.9218, 34.1143], [133.9322, 34.116], [133.9396, 34.115], [133.9377, 34.1078], [133.9445, 34.1018], [133.9446, 34.0932], [133.9556, 34.0888], [133.9592, 34.0862], [133.96, 34.082], [133.9687, 34.0814], [133.9724, 34.0729], [133.9806, 34.0752], [133.9942, 34.0727], [134.0016, 34.0752], [134.0024, 34.0812], [134.0099, 34.0866], [134.0163, 34.0866], [134.0206, 34.0844], [134.0264, 34.0851], [134.0277, 34.0871], [134.0254, 34.092], [134.0311, 34.0975], [134.0399, 34.1007], [134.042, 34.1102], [134.0504, 34.1179], [134.0533, 34.1183], [134.058, 34.1158], [134.0614, 34.1112], [134.0707, 34.1128], [134.072, 34.116], [134.0793, 34.1211], [134.0931, 34.1147], [134.1028, 34.115], [134.1192, 34.1202], [134.1227, 34.1189], [134.13, 34.1238], [134.1325, 34.1293], [134.1393, 34.1338], [134.1373, 34.1482], [134.135, 34.1513], [134.1366, 34.1542], [134.1408, 34.1549], [134.1436, 34.1582], [134.1464, 34.1652], [134.1581, 34.1675], [134.1594, 34.1698], [134.1637, 34.17], [134.1738, 34.1774], [134.1736, 34.1754], [134.1768, 34.1767], [134.1783, 34.1747], [134.1795, 34.1762], [134.1864, 34.1721], [134.1887, 34.1732], [134.1953, 34.1719], [134.1985, 34.1755], [134.2044, 34.1728], [134.2207, 34.18], [134.2269, 34.178], [134.2285, 34.1809], [134.2398, 34.1798], [134.2438, 34.181], [134.2474, 34.1788], [134.2511, 34.1807], [134.2548, 34.18], [134.26, 34.1835], [134.2658, 34.1832], [134.2772, 34.1763], [134.2865, 34.1799], [134.2922, 34.179], [134.2981, 34.1686], [134.3008, 34.1704], [134.3082, 34.1707], [134.3147, 34.1773], [134.3283, 34.1732], [134.3341, 34.1755], [134.3442, 34.1724], [134.3484, 34.1843], [134.3513, 34.1855], [134.3632, 34.1816], [134.3757, 34.1717], [134.383, 34.172], [134.3855, 34.1651], [134.3939, 34.1636], [134.4026, 34.168], [134.4074, 34.1625], [134.4118, 34.161], [134.4129, 34.1569], [134.4195, 34.1578], [134.4253, 34.1657], [134.4333, 34.1683], [134.4339, 34.1781], [134.4306, 34.179], [134.4292, 34.1831], [134.4391, 34.191], [134.4379, 34.194], [134.4407, 34.1996], [134.4402, 34.2079], [134.4372, 34.207], [134.432, 34.2089], [134.4149, 34.2193], [134.4158, 34.2209], [134.413, 34.2238], [134.4119, 34.2224], [134.4079, 34.2242], [134.406, 34.2275], [134.4114, 34.2245], [134.4056, 34.2283], [134.408, 34.2293], [134.4045, 34.2305], [134.4058, 34.2319], [134.4079, 34.2297], [134.4087, 34.2316], [134.4123, 34.2326], [134.4098, 34.2378], [134.4017, 34.2385], [134.3988, 34.2378], [134.399, 34.2353], [134.3964, 34.2389], [134.3988, 34.2423], [134.3921, 34.2534], [134.382, 34.258], [134.3785, 34.2617], [134.3754, 34.2594], [134.3764, 34.2565], [134.3784, 34.2565], [134.3767, 34.2564], [134.3778, 34.2549], [134.3766, 34.2559], [134.3772, 34.254], [134.3737, 34.2521], [134.3746, 34.2493], [134.3732, 34.252], [134.3736, 34.2527], [134.3706, 34.2502], [134.3641, 34.2493], [134.3599, 34.2515], [134.3577, 34.2508], [134.3599, 34.2517], [134.3587, 34.2526], [134.3542, 34.2482], [134.3568, 34.2537], [134.3484, 34.2521], [134.3426, 34.2559], [134.3443, 34.2536], [134.343, 34.2524], [134.3435, 34.2537], [134.3405, 34.255], [134.3418, 34.2565], [134.3386, 34.2567], [134.3397, 34.2579], [134.3358, 34.2603], [134.3338, 34.2585], [134.3198, 34.2689], [134.3193, 34.2713], [134.3086, 34.2756], [134.3067, 34.2782], [134.2955, 34.2739], [134.2938, 34.2755], [134.2943, 34.2739], [134.2895, 34.2748], [134.2775, 34.2813], [134.2748, 34.2848], [134.2749, 34.2861], [134.2775, 34.2842], [134.2757, 34.2878], [134.2709, 34.2902], [134.2672, 34.2875], [134.2697, 34.286], [134.2682, 34.283], [134.2669, 34.2846], [134.2652, 34.2824], [134.2595, 34.2838], [134.255, 34.2874], [134.2502, 34.2979], [134.2474, 34.297], [134.249, 34.2996], [134.2523, 34.2967], [134.2501, 34.2992], [134.2485, 34.2999], [134.2462, 34.297], [134.2475, 34.2997], [134.2488, 34.3001], [134.2462, 34.3064], [134.2535, 34.3131], [134.2592, 34.3143], [134.2579, 34.3156], [134.2606, 34.3186], [134.2656, 34.3191], [134.2612, 34.3297], [134.2666, 34.3327], [134.2663, 34.3362], [134.2583, 34.3367], [134.2564, 34.3393], [134.2571, 34.3464], [134.2502, 34.3516], [134.2406, 34.3421], [134.2402, 34.3388], [134.2363, 34.3395], [134.2351, 34.3386], [134.2384, 34.338], [134.2336, 34.3372], [134.225, 34.3427], [134.2262, 34.3454], [134.2239, 34.3479], [134.2209, 34.3472], [134.2186, 34.3494], [134.2167, 34.3621], [134.2148, 34.3656], [134.2117, 34.3657], [134.2109, 34.3694], [134.2066, 34.3698], [134.2042, 34.3665], [134.2062, 34.3604], [134.2099, 34.3578], [134.2112, 34.3504], [134.2134, 34.3508], [134.2128, 34.3489], [134.2046, 34.3432], [134.2001, 34.3441], [134.1989, 34.3467], [134.1923, 34.3439], [134.1898, 34.35], [134.1824, 34.3527], [134.183, 34.3471], [134.1874, 34.345], [134.187, 34.3427], [134.1852, 34.3427], [134.187, 34.3398], [134.1846, 34.3376], [134.1849, 34.3335], [134.1879, 34.3345], [134.1905, 34.3313], [134.1792, 34.3331], [134.1786, 34.3266], [134.1812, 34.326], [134.1768, 34.3244], [134.174, 34.3243], [134.174, 34.3255], [134.1772, 34.3258], [134.1707, 34.326], [134.17, 34.3247], [134.1694, 34.3264], [134.1698, 34.3251], [134.1626, 34.3278], [134.1588, 34.332], [134.1594, 34.334], [134.1607, 34.3327], [134.1594, 34.3352], [134.1546, 34.3389], [134.1557, 34.3385], [134.156, 34.341], [134.1568, 34.3396], [134.156, 34.3411], [134.1541, 34.3409], [134.1558, 34.3427], [134.1533, 34.3435], [134.1561, 34.3455], [134.1568, 34.3428], [134.1577, 34.3504], [134.1594, 34.3513], [134.1601, 34.3548], [134.1567, 34.3644], [134.1609, 34.3693], [134.1608, 34.3737], [134.1642, 34.3754], [134.1639, 34.3823], [134.1597, 34.389], [134.1364, 34.4004], [134.1325, 34.3998], [134.1276, 34.3961], [134.1215, 34.3984], [134.1193, 34.397], [134.1223, 34.3906], [134.1245, 34.3907], [134.1223, 34.3904], [134.1225, 34.3882], [134.1262, 34.3917], [134.1291, 34.3871], [134.1274, 34.3858], [134.125, 34.3875], [134.1246, 34.3842], [134.1268, 34.3837], [134.124, 34.384], [134.1241, 34.3797], [134.1204, 34.3767], [134.1173, 34.3777], [134.1164, 34.3762], [134.1163, 34.3725], [134.1196, 34.3724], [134.1216, 34.3707], [134.1196, 34.3722], [134.1168, 34.3712], [134.1192, 34.3629], [134.1223, 34.3607], [134.1153, 34.3589], [134.1171, 34.3612], [134.114, 34.3611], [134.1081, 34.3722], [134.0956, 34.3818], [134.0942, 34.3847], [134.0916, 34.3848], [134.0388, 34.3791], [134.0235, 34.3551], [134.0231, 34.3509]]], [[[133.9255, 34.4189], [133.92, 34.4186], [133.9232, 34.4164], [133.9255, 34.4189]]], [[[133.9229, 34.3962], [133.9213, 34.3933], [133.9244, 34.3919], [133.9253, 34.3941], [133.9229, 34.3962]]], [[[134.054, 34.4093], [134.0509, 34.4084], [134.0449, 34.396], [134.0432, 34.3963], [134.0428, 34.3929], [134.037, 34.3866], [134.0355, 34.3832], [134.0379, 34.3794], [134.0426, 34.3811], [134.0482, 34.389], [134.0505, 34.3884], [134.0487, 34.3896], [134.0531, 34.3882], [134.056, 34.3926], [134.0567, 34.4074], [134.054, 34.4093]]], [[[134.0628, 34.4333], [134.0576, 34.4318], [134.053, 34.4231], [134.0551, 34.4162], [134.0573, 34.4191], [134.0588, 34.4191], [134.0572, 34.4178], [134.0649, 34.4221], [134.0659, 34.4292], [134.0628, 34.4333]]], [[[134.1372, 34.4121], [134.1342, 34.4098], [134.138, 34.4099], [134.1372, 34.4121]]], [[[134.1764, 34.3905], [134.1754, 34.3967], [134.1733, 34.3984], [134.1724, 34.3928], [134.1736, 34.3906], [134.1764, 34.3905]]], [[[134.1263, 34.4214], [134.1228, 34.4192], [134.1227, 34.4163], [134.1268, 34.4161], [134.1281, 34.4199], [134.1263, 34.4214]]], [[[134.107, 34.4135], [134.1053, 34.4148], [134.1037, 34.4133], [134.1059, 34.4087], [134.1053, 34.4049], [134.1017, 34.4047], [134.0985, 34.4009], [134.1078, 34.4012], [134.1119, 34.4047], [134.1074, 34.4101], [134.107, 34.4135]]], [[[134.1214, 34.4125], [134.1198, 34.4099], [134.1229, 34.4104], [134.1214, 34.4125]]], [[[133.7676, 34.3946], [133.7674, 34.392], [133.7612, 34.3901], [133.7578, 34.3916], [133.7568, 34.3971], [133.7528, 34.3986], [133.7518, 34.3948], [133.7547, 34.3918], [133.753, 34.3884], [133.7605, 34.3788], [133.7551, 34.3702], [133.7635, 34.3687], [133.7694, 34.3718], [133.7737, 34.3765], [133.7714, 34.3757], [133.7726, 34.3777], [133.7781, 34.381], [133.7817, 34.3802], [133.7849, 34.382], [133.7834, 34.3815], [133.7835, 34.3838], [133.7857, 34.3827], [133.7876, 34.384], [133.7871, 34.3866], [133.7887, 34.3838], [133.7897, 34.3881], [133.7931, 34.3867], [133.7952, 34.3882], [133.7899, 34.3916], [133.7902, 34.3952], [133.7855, 34.3955], [133.7777, 34.4008], [133.7718, 34.3948], [133.769, 34.3962], [133.7676, 34.3946]]], [[[133.7806, 34.4151], [133.7751, 34.414], [133.778, 34.4123], [133.7803, 34.4138], [133.7838, 34.4123], [133.7806, 34.4151]]], [[[133.7846, 34.4068], [133.7807, 34.4054], [133.7794, 34.4015], [133.7896, 34.4039], [133.7846, 34.4068]]], [[[133.7744, 34.3574], [133.7809, 34.3564], [133.7862, 34.358], [133.7852, 34.3639], [133.7817, 34.3635], [133.7798, 34.3663], [133.7767, 34.3647], [133.7744, 34.3574]]], [[[133.7249, 34.3843], [133.7179, 34.3925], [133.719, 34.3959], [133.7168, 34.3986], [133.7126, 34.4006], [133.7104, 34.3991], [133.7091, 34.4007], [133.7091, 34.3874], [133.7055, 34.3854], [133.7056, 34.3869], [133.6994, 34.3868], [133.6974, 34.3787], [133.693, 34.3778], [133.6912, 34.3795], [133.6908, 34.3756], [133.6882, 34.3736], [133.6901, 34.3695], [133.6885, 34.3694], [133.6887, 34.3659], [133.687, 34.3642], [133.6872, 34.3661], [133.6857, 34.3654], [133.6845, 34.3613], [133.6911, 34.3566], [133.6949, 34.3569], [133.6994, 34.3517], [133.7089, 34.3533], [133.7085, 34.3589], [133.7104, 34.359], [133.7116, 34.3632], [133.7172, 34.3644], [133.7168, 34.3621], [133.7178, 34.3644], [133.7187, 34.3615], [133.7225, 34.3625], [133.7298, 34.3687], [133.7305, 34.3739], [133.7249, 34.3843]]], [[[133.6434, 34.3769], [133.6468, 34.3773], [133.6477, 34.3744], [133.6505, 34.373], [133.654, 34.3747], [133.6493, 34.3836], [133.6423, 34.3783], [133.6434, 34.3769]]], [[[133.672, 34.4107], [133.6591, 34.4065], [133.6527, 34.4094], [133.6508, 34.4086], [133.6521, 34.4055], [133.6563, 34.404], [133.6617, 34.3984], [133.6612, 34.3911], [133.6641, 34.3898], [133.6663, 34.3825], [133.668, 34.3866], [133.678, 34.3948], [133.6772, 34.4003], [133.6711, 34.3988], [133.6734, 34.3997], [133.6717, 34.4009], [133.676, 34.4093], [133.672, 34.4107]]], [[[133.8524, 34.3738], [133.85, 34.3729], [133.8548, 34.3707], [133.8524, 34.3738]]], [[[133.8296, 34.3949], [133.828, 34.3946], [133.828, 34.3897], [133.8316, 34.3869], [133.8326, 34.391], [133.8296, 34.3949]]], [[[133.4479, 34.1104], [133.4466, 34.1075], [133.4493, 34.1066], [133.4479, 34.1104]]], [[[133.453, 34.1554], [133.4528, 34.153], [133.4568, 34.153], [133.453, 34.1554]]], [[[133.5279, 34.1363], [133.5257, 34.1338], [133.5287, 34.1319], [133.5308, 34.1276], [133.531, 34.1247], [133.5319, 34.1239], [133.5338, 34.1245], [133.5319, 34.124], [133.5315, 34.1245], [133.5322, 34.1244], [133.5326, 34.1252], [133.5319, 34.1251], [133.533, 34.126], [133.5384, 34.1258], [133.5417, 34.1285], [133.5407, 34.1327], [133.5344, 34.1317], [133.5356, 34.1328], [133.5334, 34.1324], [133.5316, 34.1359], [133.5279, 34.1363]]], [[[134.2736, 34.3235], [134.2724, 34.3216], [134.275, 34.3214], [134.2736, 34.3235]]], [[[133.6099, 34.2208], [133.6075, 34.2198], [133.609, 34.2162], [133.6099, 34.2208]]], [[[133.6265, 34.2871], [133.6236, 34.2866], [133.6207, 34.2814], [133.6273, 34.278], [133.6278, 34.276], [133.6262, 34.2706], [133.6177, 34.2659], [133.6193, 34.2634], [133.6172, 34.2589], [133.6197, 34.2587], [133.6204, 34.2559], [133.6228, 34.2558], [133.6246, 34.2607], [133.6286, 34.2612], [133.6317, 34.2679], [133.634, 34.2673], [133.6317, 34.2679], [133.6333, 34.2695], [133.6343, 34.2679], [133.6412, 34.2718], [133.6516, 34.2668], [133.655, 34.2706], [133.6524, 34.2753], [133.6538, 34.2778], [133.6546, 34.276], [133.6566, 34.2816], [133.6508, 34.2794], [133.6458, 34.2805], [133.6448, 34.2753], [133.6406, 34.2725], [133.6365, 34.2726], [133.6289, 34.2779], [133.6323, 34.2828], [133.6309, 34.2857], [133.6265, 34.2871]]], [[[133.6747, 34.2745], [133.6701, 34.2721], [133.6712, 34.2687], [133.6763, 34.2695], [133.6809, 34.2673], [133.6814, 34.27], [133.6832, 34.2688], [133.6845, 34.2703], [133.6822, 34.2729], [133.6747, 34.2745]]], [[[133.6331, 34.1948], [133.6306, 34.1935], [133.6328, 34.1917], [133.6361, 34.1935], [133.6331, 34.1948]]], [[[133.625, 34.2036], [133.622, 34.2016], [133.6226, 34.1999], [133.6251, 34.1997], [133.6243, 34.1977], [133.6261, 34.1991], [133.6294, 34.1981], [133.6302, 34.1959], [133.6306, 34.2002], [133.6281, 34.2008], [133.6277, 34.2035], [133.625, 34.2036]]], [[[134.1891, 34.4824], [134.1903, 34.48], [134.1929, 34.4819], [134.1904, 34.4851], [134.1926, 34.4828], [134.1918, 34.484], [134.1964, 34.4846], [134.1981, 34.4827], [134.2014, 34.4832], [134.2024, 34.4808], [134.2007, 34.4808], [134.2032, 34.48], [134.2089, 34.4831], [134.2147, 34.4794], [134.2162, 34.473], [134.2296, 34.4689], [134.2378, 34.4702], [134.2386, 34.466], [134.2363, 34.4632], [134.241, 34.4632], [134.243, 34.4588], [134.2377, 34.4555], [134.2401, 34.4502], [134.2381, 34.4506], [134.2348, 34.4442], [134.2277, 34.4426], [134.2234, 34.4385], [134.227, 34.4365], [134.2361, 34.4384], [134.2378, 34.4361], [134.2377, 34.4304], [134.2343, 34.4295], [134.2345, 34.4317], [134.2325, 34.4323], [134.2328, 34.4283], [134.2246, 34.4257], [134.2321, 34.415], [134.241, 34.4163], [134.2513, 34.4242], [134.2469, 34.4267], [134.2467, 34.4301], [134.2516, 34.4359], [134.2512, 34.4397], [134.2567, 34.4424], [134.2583, 34.4463], [134.2626, 34.4492], [134.2596, 34.4546], [134.2671, 34.4638], [134.2667, 34.468], [134.2827, 34.4707], [134.2964, 34.4797], [134.301, 34.4766], [134.3005, 34.4785], [134.3025, 34.4788], [134.3059, 34.4761], [134.3071, 34.4787], [134.3067, 34.4772], [134.3132, 34.4774], [134.312, 34.4756], [134.3141, 34.476], [134.3146, 34.4745], [134.313, 34.473], [134.3178, 34.4713], [134.316, 34.4705], [134.3182, 34.4663], [134.3155, 34.4638], [134.318, 34.4632], [134.3148, 34.4627], [134.3168, 34.4601], [134.3151, 34.4589], [134.308, 34.4631], [134.3013, 34.4596], [134.2964, 34.4633], [134.2947, 34.4608], [134.2899, 34.4624], [134.2843, 34.4609], [134.2833, 34.4561], [134.2871, 34.4491], [134.2843, 34.4456], [134.2808, 34.4484], [134.2783, 34.4482], [134.2807, 34.4439], [134.2842, 34.4419], [134.287, 34.4461], [134.2923, 34.4468], [134.2982, 34.4502], [134.3001, 34.4563], [134.3031, 34.4578], [134.307, 34.4553], [134.314, 34.4545], [134.3196, 34.458], [134.3252, 34.449], [134.33, 34.4458], [134.3292, 34.4425], [134.3328, 34.4356], [134.3378, 34.4328], [134.3404, 34.4378], [134.3355, 34.4481], [134.3373, 34.451], [134.3435, 34.4533], [134.3488, 34.4599], [134.3527, 34.4701], [134.3511, 34.4725], [134.3538, 34.4763], [134.3523, 34.4786], [134.3479, 34.4792], [134.3469, 34.4825], [134.3439, 34.4826], [134.343, 34.4898], [134.3455, 34.4912], [134.3459, 34.4891], [134.352, 34.4917], [134.3506, 34.4982], [134.3472, 34.5013], [134.3564, 34.5111], [134.3544, 34.5233], [134.3599, 34.5286], [134.3601, 34.5336], [134.3577, 34.5338], [134.3554, 34.5393], [134.3623, 34.5415], [134.3567, 34.5419], [134.355, 34.5388], [134.3516, 34.5383], [134.3474, 34.5395], [134.3458, 34.5423], [134.345, 34.5404], [134.3435, 34.545], [134.3452, 34.5458], [134.3455, 34.5441], [134.3475, 34.5469], [134.3484, 34.5442], [134.3479, 34.551], [134.3547, 34.5575], [134.3628, 34.5576], [134.3669, 34.5614], [134.3563, 34.561], [134.354, 34.5574], [134.3474, 34.5558], [134.3466, 34.5579], [134.3432, 34.5571], [134.3474, 34.5587], [134.346, 34.5605], [134.3497, 34.5603], [134.3514, 34.564], [134.3468, 34.5649], [134.3369, 34.5624], [134.3289, 34.5641], [134.3131, 34.5584], [134.3057, 34.5522], [134.3058, 34.5497], [134.3013, 34.5482], [134.3024, 34.5473], [134.2923, 34.5462], [134.2834, 34.5482], [134.2841, 34.5459], [134.2821, 34.5478], [134.2814, 34.546], [134.2779, 34.5489], [134.272, 34.5476], [134.2681, 34.5497], [134.2701, 34.5504], [134.2697, 34.553], [134.2644, 34.5533], [134.2619, 34.5484], [134.2586, 34.55], [134.2557, 34.5473], [134.2561, 34.5457], [134.2576, 34.5474], [134.2568, 34.5433], [134.2476, 34.5397], [134.2412, 34.535], [134.2426, 34.5342], [134.2404, 34.5335], [134.2385, 34.5294], [134.2307, 34.5268], [134.2296, 34.5281], [134.2291, 34.5267], [134.2291, 34.5282], [134.2222, 34.5293], [134.214, 34.5231], [134.202, 34.5194], [134.1949, 34.52], [134.1932, 34.5217], [134.1921, 34.519], [134.1887, 34.5191], [134.1861, 34.5155], [134.1781, 34.518], [134.1712, 34.5255], [134.173, 34.5283], [134.1716, 34.529], [134.1704, 34.5262], [134.1668, 34.5253], [134.1678, 34.523], [134.1649, 34.5181], [134.1672, 34.514], [134.1635, 34.5158], [134.1665, 34.513], [134.156, 34.5049], [134.1642, 34.5077], [134.1668, 34.5047], [134.1653, 34.5002], [134.181, 34.4875], [134.1776, 34.4866], [134.1742, 34.4904], [134.1736, 34.4891], [134.1695, 34.4894], [134.1701, 34.4921], [134.1667, 34.4938], [134.1628, 34.4923], [134.1569, 34.4929], [134.1465, 34.4816], [134.1413, 34.4701], [134.1486, 34.4676], [134.1514, 34.4599], [134.1599, 34.4627], [134.1577, 34.4627], [134.1588, 34.4638], [134.1628, 34.4624], [134.1683, 34.465], [134.1725, 34.4751], [134.1769, 34.4768], [134.1821, 34.475], [134.1848, 34.4794], [134.1886, 34.4774], [134.1916, 34.4793], [134.1893, 34.4785], [134.1891, 34.4824]]], [[[134.1888, 34.4765], [134.1882, 34.472], [134.1846, 34.4705], [134.1851, 34.4671], [134.1904, 34.471], [134.1888, 34.4765]]], [[[134.1505, 34.5211], [134.1448, 34.5204], [134.1448, 34.5172], [134.1494, 34.5159], [134.153, 34.5192], [134.1505, 34.5211]]], [[[134.1081, 34.4751], [134.1166, 34.4721], [134.1254, 34.4762], [134.1281, 34.4816], [134.1253, 34.4822], [134.1217, 34.4797], [134.1192, 34.4813], [134.1144, 34.4787], [134.1104, 34.4796], [134.1081, 34.4751]]], [[[134.1621, 34.5314], [134.1584, 34.53], [134.1593, 34.5278], [134.1621, 34.5314]]], [[[134.1557, 34.5184], [134.1571, 34.5174], [134.1603, 34.519], [134.1631, 34.5163], [134.1623, 34.5189], [134.1647, 34.522], [134.1619, 34.5208], [134.1607, 34.522], [134.1557, 34.5184]]], [[[134.0661, 34.4704], [134.0782, 34.4605], [134.0811, 34.4592], [134.085, 34.46], [134.0885, 34.4635], [134.0917, 34.4718], [134.1001, 34.4763], [134.1031, 34.4799], [134.1039, 34.4919], [134.0989, 34.4895], [134.0949, 34.4899], [134.087, 34.495], [134.0878, 34.4976], [134.0851, 34.4999], [134.0826, 34.5], [134.0769, 34.4968], [134.069, 34.4981], [134.0689, 34.4959], [134.0631, 34.4931], [134.0624, 34.4895], [134.0603, 34.4898], [134.0574, 34.4866], [134.0586, 34.4889], [134.0541, 34.4872], [134.0432, 34.4894], [134.0415, 34.4832], [134.0364, 34.4828], [134.0376, 34.4777], [134.0421, 34.4794], [134.045, 34.4772], [134.0439, 34.4751], [134.0481, 34.475], [134.0551, 34.4713], [134.0661, 34.4704]]], [[[134.3471, 34.4405], [134.3451, 34.4397], [134.3493, 34.4368], [134.3498, 34.4389], [134.3471, 34.4405]]], [[[134.3254, 34.4473], [134.3218, 34.4477], [134.3197, 34.4458], [134.3237, 34.4456], [134.3254, 34.4473]]], [[[133.9791, 34.5021], [133.9778, 34.5042], [133.9755, 34.5015], [133.9735, 34.5021], [133.9742, 34.4987], [133.9791, 34.5021]]], [[[133.973, 34.499], [133.972, 34.5021], [133.9702, 34.5016], [133.9712, 34.4958], [133.973, 34.499]]], [[[133.9811, 34.4921], [133.9789, 34.4952], [133.9768, 34.4917], [133.9816, 34.4878], [133.9854, 34.4934], [133.984, 34.4942], [133.9811, 34.4921]]], [[[133.9761, 34.4973], [133.9731, 34.4958], [133.9764, 34.4957], [133.9761, 34.4973]]], [[[133.9941, 34.4868], [133.9898, 34.4845], [133.9892, 34.4795], [133.9945, 34.4834], [133.9941, 34.4868]]], [[[133.9689, 34.4786], [133.9649, 34.4755], [133.9654, 34.47], [133.9676, 34.4686], [133.9669, 34.4662], [133.9709, 34.4588], [133.9756, 34.4563], [133.9742, 34.4566], [133.9752, 34.4533], [133.9732, 34.4527], [133.9764, 34.4489], [133.9784, 34.4502], [133.9811, 34.4469], [133.9877, 34.4465], [133.9913, 34.4422], [133.9931, 34.4463], [134.0011, 34.4435], [134.0087, 34.4476], [134.0123, 34.4535], [134.0104, 34.4544], [134.0018, 34.451], [134.0021, 34.4532], [133.9993, 34.455], [134.0016, 34.4562], [133.9999, 34.4602], [133.9965, 34.4613], [133.9946, 34.4648], [133.9949, 34.4637], [133.988, 34.4669], [133.9879, 34.4693], [133.9833, 34.472], [133.9826, 34.4769], [133.9793, 34.4769], [133.9724, 34.473], [133.9689, 34.4786]]], [[[133.9659, 34.4609], [133.965, 34.4619], [133.9607, 34.4586], [133.957, 34.4613], [133.9556, 34.4584], [133.9579, 34.4547], [133.9672, 34.4544], [133.9659, 34.4609]]], [[[133.9736, 34.5124], [133.9691, 34.5102], [133.9707, 34.5069], [133.9692, 34.5039], [133.9763, 34.5065], [133.9736, 34.5124]]], [[[134.0229, 34.5035], [134.0238, 34.5068], [134.0193, 34.5031], [134.0192, 34.4986], [134.0165, 34.496], [134.0117, 34.4962], [134.0073, 34.499], [134.0105, 34.4946], [134.011, 34.4873], [134.0137, 34.4867], [134.0154, 34.4813], [134.0203, 34.4783], [134.0221, 34.4794], [134.0198, 34.4839], [134.0229, 34.5035]]], [[[133.9742, 34.478], [133.9723, 34.4806], [133.9726, 34.4737], [133.9774, 34.4784], [133.9742, 34.478]]], [[[133.997, 34.4758], [133.9954, 34.4786], [133.9918, 34.4775], [133.9925, 34.4746], [133.9975, 34.4706], [134.0002, 34.4755], [133.997, 34.4758]]], [[[133.9591, 34.4686], [133.9562, 34.4757], [133.9533, 34.4778], [133.9507, 34.4735], [133.9548, 34.4711], [133.9548, 34.4681], [133.9591, 34.4686]]], [[[134.0043, 34.4733], [133.9982, 34.4695], [134.0015, 34.4605], [134.0047, 34.4622], [134.01, 34.4702], [134.0095, 34.4715], [134.0041, 34.4693], [134.0043, 34.4733]]], [[[134.0168, 34.4507], [134.0142, 34.4509], [134.0145, 34.4496], [134.0168, 34.4507]]], [[[134.0146, 34.4411], [134.0077, 34.4421], [134.0036, 34.44], [134.0059, 34.4362], [134.0098, 34.4358], [134.0146, 34.4411]]], [[[133.7016, 34.2594], [133.6995, 34.2583], [133.7022, 34.256], [133.7016, 34.2594]]], [[[133.6814, 34.3147], [133.6682, 34.3245], [133.6641, 34.3257], [133.6619, 34.3246], [133.6635, 34.3183], [133.673, 34.3064], [133.6801, 34.3059], [133.6834, 34.3113], [133.6814, 34.3147]]], [[[133.6466, 34.3341], [133.646, 34.3363], [133.6429, 34.3375], [133.6382, 34.336], [133.6408, 34.3335], [133.6466, 34.3341]]], [[[133.6214, 34.3545], [133.6186, 34.3546], [133.6172, 34.3509], [133.6206, 34.3416], [133.6198, 34.3339], [133.6224, 34.331], [133.6263, 34.3307], [133.6322, 34.339], [133.6214, 34.3545]]]]}, "properties": {"name": "香川県"}}]}