{"type": "FeatureCollection", "features": [{"type": "Feature", "geometry": {"type": "MultiPolygon", "coordinates": [[[[131.5179, 33.2654], [131.5103, 33.3482], [131.4975, 33.3477], [131.4986, 33.3549], [131.4996, 33.3576], [131.5006, 33.3578], [131.4996, 33.3577], [131.4992, 33.3568], [131.4986, 33.357], [131.4982, 33.3588], [131.499, 33.359], [131.5013, 33.3574], [131.4988, 33.3603], [131.5023, 33.3619], [131.5078, 33.361], [131.5093, 33.3632], [131.524, 33.3677], [131.5351, 33.365], [131.5394, 33.3687], [131.5387, 33.3641], [131.5426, 33.3596], [131.541, 33.3601], [131.5427, 33.3549], [131.5497, 33.3501], [131.557, 33.3498], [131.5544, 33.3527], [131.5561, 33.3532], [131.5582, 33.351], [131.5638, 33.3519], [131.5869, 33.3454], [131.5828, 33.3529], [131.5807, 33.3527], [131.5833, 33.3539], [131.5846, 33.3515], [131.5868, 33.3522], [131.5864, 33.3493], [131.591, 33.3479], [131.5898, 33.3462], [131.593, 33.3472], [131.5969, 33.3497], [131.5989, 33.3595], [131.5957, 33.3636], [131.5972, 33.3716], [131.6061, 33.371], [131.6053, 33.3694], [131.6171, 33.3714], [131.623, 33.3746], [131.6344, 33.3736], [131.64, 33.3767], [131.6383, 33.3746], [131.6433, 33.3749], [131.646, 33.3825], [131.6497, 33.3842], [131.6463, 33.388], [131.6459, 33.3934], [131.6357, 33.3996], [131.6416, 33.4001], [131.6399, 33.4028], [131.6416, 33.4028], [131.6433, 33.4061], [131.6415, 33.4029], [131.6373, 33.4029], [131.6372, 33.406], [131.6401, 33.4063], [131.6344, 33.4064], [131.6315, 33.4094], [131.6342, 33.4109], [131.6277, 33.4134], [131.6345, 33.4149], [131.635, 33.4211], [131.6428, 33.4216], [131.6467, 33.4187], [131.6468, 33.4204], [131.6535, 33.4198], [131.6545, 33.4222], [131.6605, 33.4227], [131.6625, 33.4193], [131.664, 33.4209], [131.672, 33.4175], [131.6715, 33.4127], [131.6689, 33.4105], [131.6613, 33.4092], [131.6775, 33.411], [131.6864, 33.4062], [131.7016, 33.4061], [131.7104, 33.437], [131.7169, 33.4464], [131.7212, 33.4484], [131.7245, 33.4609], [131.7281, 33.465], [131.7314, 33.4651], [131.7279, 33.4662], [131.7312, 33.4657], [131.7343, 33.4705], [131.7329, 33.4735], [131.7345, 33.4735], [131.7344, 33.465], [131.7396, 33.4663], [131.7389, 33.4941], [131.7363, 33.4954], [131.7346, 33.4941], [131.7346, 33.4886], [131.7324, 33.4881], [131.7288, 33.4943], [131.7299, 33.4991], [131.7274, 33.4989], [131.7321, 33.4998], [131.729, 33.501], [131.7323, 33.5014], [131.7299, 33.5022], [131.7318, 33.516], [131.7303, 33.5156], [131.7354, 33.5226], [131.7407, 33.5358], [131.7391, 33.5367], [131.741, 33.5359], [131.7386, 33.5375], [131.7424, 33.537], [131.7451, 33.5426], [131.7411, 33.5434], [131.7402, 33.5535], [131.7419, 33.5552], [131.7395, 33.5597], [131.7417, 33.5615], [131.7382, 33.5648], [131.7394, 33.5668], [131.7368, 33.5644], [131.7389, 33.5672], [131.7347, 33.5649], [131.7327, 33.5646], [131.7351, 33.5654], [131.7396, 33.5696], [131.7393, 33.5713], [131.7396, 33.5696], [131.7375, 33.5679], [131.737, 33.5707], [131.7343, 33.5669], [131.7357, 33.571], [131.7337, 33.5725], [131.7357, 33.5725], [131.733, 33.5729], [131.7338, 33.5807], [131.7334, 33.5827], [131.7312, 33.5824], [131.73, 33.588], [131.7254, 33.5888], [131.7179, 33.6009], [131.7152, 33.6], [131.7179, 33.6031], [131.7162, 33.6021], [131.7143, 33.6047], [131.7184, 33.6047], [131.7151, 33.6053], [131.7096, 33.6038], [131.7044, 33.6079], [131.6993, 33.6222], [131.6971, 33.6228], [131.6993, 33.6224], [131.6936, 33.6391], [131.6903, 33.6422], [131.6808, 33.6387], [131.6841, 33.6409], [131.6774, 33.6461], [131.6769, 33.6497], [131.6749, 33.6484], [131.6717, 33.6575], [131.6661, 33.6568], [131.6704, 33.658], [131.6676, 33.658], [131.667, 33.6642], [131.664, 33.6652], [131.6657, 33.6685], [131.662, 33.668], [131.6615, 33.6705], [131.6544, 33.6665], [131.6513, 33.6583], [131.6518, 33.6603], [131.6471, 33.6625], [131.6461, 33.667], [131.6493, 33.6726], [131.652, 33.6711], [131.6486, 33.6746], [131.646, 33.6723], [131.6429, 33.6727], [131.6438, 33.6769], [131.6392, 33.6766], [131.6363, 33.682], [131.6302, 33.6822], [131.6307, 33.6707], [131.6261, 33.6685], [131.6289, 33.6714], [131.6254, 33.6716], [131.6296, 33.6732], [131.6246, 33.6743], [131.6299, 33.6745], [131.6246, 33.6744], [131.6247, 33.6773], [131.6204, 33.6805], [131.6157, 33.6792], [131.6172, 33.6745], [131.6136, 33.6771], [131.6114, 33.6753], [131.6122, 33.6773], [131.6053, 33.6805], [131.6072, 33.6849], [131.6091, 33.6839], [131.6076, 33.6869], [131.6029, 33.6874], [131.6038, 33.6862], [131.6012, 33.6858], [131.6016, 33.6885], [131.597, 33.6857], [131.5983, 33.6879], [131.5939, 33.6868], [131.5937, 33.6894], [131.5899, 33.6903], [131.5875, 33.6889], [131.5857, 33.6925], [131.5736, 33.6867], [131.5739, 33.6783], [131.5773, 33.6755], [131.5647, 33.6751], [131.5645, 33.6721], [131.5643, 33.6755], [131.5667, 33.6769], [131.5645, 33.6762], [131.5654, 33.6789], [131.5677, 33.6791], [131.5648, 33.6798], [131.5605, 33.6868], [131.5554, 33.6856], [131.5556, 33.6813], [131.5507, 33.6823], [131.5482, 33.6799], [131.5495, 33.679], [131.5456, 33.6804], [131.544, 33.677], [131.5427, 33.6793], [131.5376, 33.68], [131.5338, 33.6764], [131.5304, 33.6808], [131.5228, 33.6843], [131.5225, 33.6818], [131.5298, 33.6741], [131.5287, 33.6724], [131.5261, 33.6723], [131.5242, 33.6759], [131.5215, 33.6757], [131.5207, 33.671], [131.5178, 33.6696], [131.5124, 33.6713], [131.5133, 33.6728], [131.5111, 33.6735], [131.5134, 33.6735], [131.5068, 33.675], [131.507, 33.6706], [131.5057, 33.6721], [131.4998, 33.6713], [131.4982, 33.6684], [131.4998, 33.6665], [131.4976, 33.6673], [131.4969, 33.6638], [131.5037, 33.6581], [131.5001, 33.6582], [131.5062, 33.657], [131.495, 33.6545], [131.4938, 33.6519], [131.4979, 33.6496], [131.4942, 33.6514], [131.4974, 33.6495], [131.4958, 33.6484], [131.4978, 33.6456], [131.4957, 33.6442], [131.4867, 33.6483], [131.4857, 33.6438], [131.4804, 33.6413], [131.4793, 33.6386], [131.4832, 33.6387], [131.4846, 33.6366], [131.4813, 33.6344], [131.4829, 33.6336], [131.48, 33.6344], [131.48, 33.6324], [131.4751, 33.6306], [131.4738, 33.6208], [131.4679, 33.6158], [131.4754, 33.6101], [131.4694, 33.6121], [131.4622, 33.6192], [131.424, 33.5931], [131.4261, 33.5785], [131.421, 33.5777], [131.4291, 33.5724], [131.4261, 33.5706], [131.4274, 33.567], [131.4212, 33.569], [131.4202, 33.5735], [131.4129, 33.5735], [131.4092, 33.5794], [131.4128, 33.5734], [131.4051, 33.5723], [131.4029, 33.5727], [131.4036, 33.5744], [131.4017, 33.5793], [131.4034, 33.5745], [131.3998, 33.5737], [131.399, 33.5758], [131.3781, 33.5765], [131.3779, 33.5794], [131.3725, 33.5812], [131.3738, 33.5778], [131.3725, 33.5797], [131.3713, 33.5682], [131.3689, 33.5675], [131.3647, 33.5782], [131.3585, 33.5773], [131.3536, 33.5738], [131.3402, 33.5716], [131.335, 33.5764], [131.3383, 33.5801], [131.3369, 33.5807], [131.3352, 33.5769], [131.3347, 33.5809], [131.3254, 33.5812], [131.3231, 33.5831], [131.3174, 33.5809], [131.311, 33.5821], [131.3026, 33.5804], [131.3005, 33.5825], [131.2894, 33.5789], [131.2748, 33.5824], [131.2731, 33.5879], [131.2686, 33.5888], [131.266, 33.5836], [131.2682, 33.5925], [131.2589, 33.5966], [131.2887, 33.6299], [131.2706, 33.6419], [131.2141, 33.6403], [131.1877, 33.6084], [131.1944, 33.618], [131.1885, 33.6195], [131.1913, 33.6175], [131.1892, 33.6174], [131.1892, 33.6148], [131.1869, 33.616], [131.1879, 33.6197], [131.1802, 33.6072], [131.1823, 33.6061], [131.1779, 33.6045], [131.1785, 33.5958], [131.1729, 33.5896], [131.1728, 33.5781], [131.1857, 33.568], [131.1907, 33.5594], [131.1861, 33.5433], [131.1767, 33.5345], [131.1662, 33.5284], [131.1698, 33.5234], [131.1683, 33.5151], [131.1749, 33.5124], [131.1771, 33.5072], [131.1693, 33.5052], [131.1631, 33.5084], [131.1419, 33.5047], [131.1337, 33.506], [131.1278, 33.5017], [131.1143, 33.5037], [131.1107, 33.5087], [131.0994, 33.5047], [131.0934, 33.5076], [131.0756, 33.5054], [131.0651, 33.5101], [131.0531, 33.508], [131.0479, 33.5112], [131.044, 33.5102], [131.0422, 33.5144], [131.0357, 33.5191], [131.0295, 33.519], [131.0258, 33.5133], [131.0198, 33.513], [131.0151, 33.5092], [131.0032, 33.5124], [130.9918, 33.5084], [130.9771, 33.5072], [130.9631, 33.498], [130.9613, 33.4934], [130.9423, 33.4855], [130.9336, 33.4792], [130.927, 33.4787], [130.9283, 33.4681], [130.9307, 33.4663], [130.9267, 33.4575], [130.9158, 33.455], [130.9105, 33.4499], [130.9006, 33.4493], [130.8949, 33.4462], [130.8976, 33.4388], [130.891, 33.4276], [130.8925, 33.4205], [130.8893, 33.4137], [130.8922, 33.4066], [130.8874, 33.4054], [130.8865, 33.4022], [130.8847, 33.3892], [130.8864, 33.3797], [130.8797, 33.3787], [130.8786, 33.3763], [130.875, 33.3783], [130.8633, 33.3775], [130.8597, 33.3734], [130.8617, 33.3627], [130.857, 33.3596], [130.8578, 33.3569], [130.843, 33.3509], [130.8411, 33.3466], [130.8353, 33.3436], [130.8439, 33.3337], [130.8457, 33.3345], [130.8445, 33.3382], [130.8494, 33.3377], [130.8571, 33.327], [130.8542, 33.3236], [130.8619, 33.3092], [130.8612, 33.3026], [130.8663, 33.2922], [130.8564, 33.2844], [130.8521, 33.2775], [130.8567, 33.2748], [130.8606, 33.2669], [130.8677, 33.2676], [130.868, 33.2639], [130.8637, 33.2613], [130.8551, 33.2627], [130.8485, 33.2611], [130.8449, 33.2576], [130.8327, 33.2589], [130.8278, 33.2574], [130.8245, 33.2534], [130.8271, 33.2452], [130.8247, 33.2408], [130.8262, 33.2368], [130.8313, 33.2338], [130.8465, 33.2333], [130.8596, 33.2295], [130.8578, 33.2257], [130.8546, 33.2266], [130.8496, 33.2232], [130.8449, 33.2229], [130.8446, 33.2193], [130.8385, 33.2169], [130.8365, 33.2106], [130.8589, 33.1981], [130.8641, 33.1929], [130.87, 33.1937], [130.8751, 33.1893], [130.8872, 33.1864], [130.8854, 33.1762], [130.8779, 33.1745], [130.878, 33.1717], [130.8734, 33.168], [130.8767, 33.1646], [130.8797, 33.1528], [130.8705, 33.1464], [130.8661, 33.1272], [130.864, 33.1235], [130.8595, 33.1215], [130.8616, 33.1175], [130.8532, 33.1091], [130.8399, 33.1051], [130.8397, 33.1003], [130.8458, 33.092], [130.8474, 33.0939], [130.8617, 33.0956], [130.8672, 33.0903], [130.8766, 33.092], [130.8863, 33.0875], [130.8899, 33.0834], [130.8911, 33.0756], [130.897, 33.0729], [130.8975, 33.0654], [130.9082, 33.0644], [130.9165, 33.0558], [130.9159, 33.0536], [130.9283, 33.0522], [130.9348, 33.0552], [130.9376, 33.0521], [130.9472, 33.0528], [130.9551, 33.0486], [130.9591, 33.0444], [130.9597, 33.0363], [130.9701, 33.0239], [130.9913, 33.0241], [131.0033, 33.033], [131.0045, 33.0393], [131.0119, 33.043], [131.0149, 33.0476], [131.0155, 33.0512], [131.013, 33.0519], [131.0127, 33.0545], [131.0179, 33.0638], [131.0109, 33.0714], [131.0149, 33.08], [131.0191, 33.0807], [131.024, 33.0879], [131.0133, 33.0996], [131.0091, 33.1088], [131.0038, 33.1103], [131.0005, 33.1165], [130.9935, 33.1203], [130.9946, 33.1293], [130.9892, 33.1305], [130.9784, 33.1402], [130.9804, 33.1438], [130.9843, 33.1435], [130.9821, 33.1477], [130.9845, 33.1536], [130.9821, 33.1571], [130.9854, 33.1616], [130.9886, 33.1765], [130.994, 33.178], [130.992, 33.183], [131.0024, 33.1811], [131.0056, 33.1776], [131.0154, 33.1773], [131.0281, 33.1864], [131.0316, 33.1853], [131.0349, 33.1875], [131.0394, 33.1945], [131.0597, 33.1952], [131.0679, 33.1913], [131.0933, 33.185], [131.0998, 33.188], [131.1068, 33.186], [131.1171, 33.1786], [131.1169, 33.1739], [131.1207, 33.1681], [131.1307, 33.1663], [131.134, 33.1602], [131.1473, 33.1553], [131.1491, 33.1521], [131.1452, 33.1507], [131.1622, 33.14], [131.1669, 33.1287], [131.1705, 33.1269], [131.1635, 33.1168], [131.1669, 33.1141], [131.1668, 33.1092], [131.1734, 33.1046], [131.1748, 33.097], [131.1724, 33.0896], [131.1749, 33.0828], [131.1858, 33.074], [131.1897, 33.0737], [131.1931, 33.078], [131.1987, 33.0737], [131.1966, 33.0709], [131.2163, 33.0542], [131.2154, 33.0493], [131.221, 33.03], [131.2266, 33.0191], [131.2236, 33.0172], [131.2281, 33.0106], [131.2347, 33.0091], [131.2403, 33.0006], [131.2491, 32.9947], [131.2461, 32.9881], [131.2472, 32.9823], [131.2565, 32.9808], [131.2642, 32.9758], [131.2565, 32.9641], [131.2482, 32.9639], [131.246, 32.9597], [131.2533, 32.9557], [131.2523, 32.9536], [131.2468, 32.9528], [131.2485, 32.948], [131.2529, 32.9465], [131.2456, 32.9402], [131.2529, 32.9245], [131.2534, 32.8973], [131.2602, 32.8823], [131.2642, 32.879], [131.2734, 32.8817], [131.2716, 32.8778], [131.2738, 32.8709], [131.2869, 32.8656], [131.2947, 32.8571], [131.3142, 32.851], [131.3263, 32.839], [131.3278, 32.833], [131.3399, 32.8334], [131.3469, 32.8286], [131.3505, 32.8174], [131.3482, 32.8108], [131.3583, 32.8042], [131.3643, 32.8031], [131.3749, 32.8086], [131.384, 32.8089], [131.3998, 32.8136], [131.4213, 32.8119], [131.4257, 32.8165], [131.4308, 32.8177], [131.4367, 32.8283], [131.4638, 32.831], [131.4764, 32.8382], [131.4783, 32.8312], [131.485, 32.8224], [131.4931, 32.8159], [131.5023, 32.8149], [131.5018, 32.8107], [131.5173, 32.8008], [131.5084, 32.784], [131.5102, 32.7777], [131.5084, 32.7743], [131.5119, 32.7695], [131.5238, 32.7638], [131.5329, 32.7628], [131.5362, 32.7588], [131.569, 32.754], [131.579, 32.7609], [131.5921, 32.7755], [131.5964, 32.7757], [131.6013, 32.7724], [131.6067, 32.7749], [131.6174, 32.7731], [131.6253, 32.7744], [131.631, 32.7714], [131.6484, 32.7716], [131.6688, 32.7666], [131.6693, 32.7684], [131.6913, 32.7717], [131.6948, 32.7743], [131.7066, 32.7712], [131.711, 32.772], [131.7154, 32.78], [131.7152, 32.7869], [131.7287, 32.7974], [131.7312, 32.8157], [131.7365, 32.8218], [131.7359, 32.8314], [131.7417, 32.8342], [131.7468, 32.833], [131.754, 32.8367], [131.7561, 32.8354], [131.7599, 32.8377], [131.7653, 32.8369], [131.7669, 32.839], [131.7718, 32.8359], [131.7874, 32.8338], [131.7878, 32.828], [131.794, 32.8221], [131.7983, 32.8248], [131.8069, 32.8224], [131.8153, 32.8284], [131.8204, 32.828], [131.8245, 32.8303], [131.826, 32.8266], [131.8347, 32.8199], [131.8478, 32.8178], [131.8553, 32.8232], [131.8586, 32.8216], [131.86, 32.8059], [131.8538, 32.7991], [131.8544, 32.7959], [131.8494, 32.7907], [131.8486, 32.7834], [131.844, 32.7763], [131.8494, 32.7643], [131.8498, 32.7559], [131.8442, 32.7474], [131.8472, 32.7359], [131.8579, 32.7376], [131.8617, 32.7402], [131.8733, 32.7402], [131.8842, 32.747], [131.8856, 32.7461], [131.8848, 32.7502], [131.8799, 32.7479], [131.8734, 32.7494], [131.8722, 32.7521], [131.8703, 32.7509], [131.8722, 32.7523], [131.8699, 32.7512], [131.8728, 32.755], [131.8758, 32.7539], [131.8777, 32.7554], [131.8765, 32.7595], [131.8798, 32.7623], [131.8781, 32.7637], [131.8794, 32.766], [131.8718, 32.7693], [131.8715, 32.7729], [131.8692, 32.7721], [131.8682, 32.7749], [131.8775, 32.7796], [131.8745, 32.7838], [131.8754, 32.7878], [131.8729, 32.7862], [131.8736, 32.7897], [131.88, 32.7913], [131.8829, 32.7829], [131.8891, 32.7765], [131.8885, 32.7726], [131.8913, 32.771], [131.8926, 32.7651], [131.895, 32.7637], [131.8969, 32.765], [131.8925, 32.7731], [131.8937, 32.7785], [131.8973, 32.7797], [131.8926, 32.7819], [131.8853, 32.7912], [131.8887, 32.8033], [131.8915, 32.8042], [131.8901, 32.8053], [131.8954, 32.8059], [131.8947, 32.8006], [131.8998, 32.802], [131.9002, 32.7985], [131.8961, 32.7961], [131.9006, 32.7939], [131.895, 32.7887], [131.9021, 32.7853], [131.9039, 32.7886], [131.9068, 32.789], [131.9074, 32.7941], [131.9124, 32.7917], [131.9149, 32.7869], [131.9205, 32.7854], [131.9206, 32.7911], [131.9172, 32.7955], [131.9206, 32.8], [131.9252, 32.8013], [131.9244, 32.7975], [131.9269, 32.7981], [131.9269, 32.7965], [131.9231, 32.7972], [131.9223, 32.7939], [131.9276, 32.7925], [131.9302, 32.7853], [131.9373, 32.7846], [131.9483, 32.7967], [131.9432, 32.812], [131.9473, 32.8061], [131.9545, 32.8081], [131.9634, 32.8054], [131.9665, 32.8002], [131.9641, 32.7984], [131.9633, 32.7996], [131.9634, 32.7942], [131.9703, 32.7916], [131.9769, 32.7953], [131.9764, 32.7996], [131.9717, 32.8026], [131.9734, 32.8066], [131.9801, 32.8096], [131.9869, 32.8167], [132.0038, 32.8236], [132.0086, 32.8277], [132.0106, 32.8346], [132.0071, 32.8372], [131.9977, 32.8383], [131.9861, 32.8463], [131.9751, 32.8452], [131.9802, 32.8446], [131.9802, 32.8423], [131.9758, 32.8409], [131.9831, 32.8369], [131.9826, 32.8345], [131.988, 32.8311], [131.9813, 32.8258], [131.9828, 32.8253], [131.9777, 32.8249], [131.9777, 32.8285], [131.9735, 32.8279], [131.968, 32.8336], [131.967, 32.8381], [131.9636, 32.8386], [131.9635, 32.8359], [131.9674, 32.8328], [131.9654, 32.8281], [131.9679, 32.8222], [131.9654, 32.8226], [131.9636, 32.8204], [131.9652, 32.8196], [131.9624, 32.8188], [131.9582, 32.8364], [131.9537, 32.8366], [131.9492, 32.8339], [131.9435, 32.8345], [131.9452, 32.8369], [131.9424, 32.8368], [131.9486, 32.8372], [131.9565, 32.841], [131.9495, 32.8504], [131.9516, 32.8542], [131.9497, 32.855], [131.9535, 32.8559], [131.9545, 32.8523], [131.9618, 32.8467], [131.9653, 32.851], [131.9707, 32.8527], [131.9719, 32.8568], [131.9754, 32.8566], [131.9763, 32.8622], [131.9727, 32.8649], [131.9742, 32.8678], [131.9749, 32.8659], [131.9787, 32.8672], [131.984, 32.8628], [131.9866, 32.8703], [131.9948, 32.8776], [132.0009, 32.8785], [131.9994, 32.8825], [132.0009, 32.8857], [132.0079, 32.8903], [132.016, 32.8907], [132.0118, 32.8936], [132.0038, 32.8916], [131.9956, 32.8997], [131.9948, 32.8936], [131.992, 32.8924], [131.9933, 32.8904], [131.9894, 32.8922], [131.9863, 32.8897], [131.9848, 32.8941], [131.9867, 32.894], [131.988, 32.8982], [131.9841, 32.9007], [131.9858, 32.9027], [131.9848, 32.9125], [131.982, 32.9145], [131.984, 32.9161], [131.9785, 32.9176], [131.976, 32.9222], [131.9776, 32.9233], [131.9779, 32.9217], [131.9851, 32.9213], [131.9871, 32.9193], [131.9878, 32.9238], [131.9899, 32.9242], [131.9902, 32.9208], [131.9947, 32.921], [131.993, 32.9182], [131.996, 32.917], [131.9935, 32.9152], [131.9953, 32.9117], [132.0039, 32.9098], [132.006, 32.9063], [132.0097, 32.9055], [132.0091, 32.9139], [132.011, 32.9155], [132.0092, 32.916], [132.0086, 32.9251], [132.0175, 32.9235], [132.0169, 32.9303], [132.0239, 32.9312], [132.0267, 32.9356], [132.0347, 32.9369], [132.0414, 32.9343], [132.0386, 32.9283], [132.0448, 32.9264], [132.0498, 32.9319], [132.0479, 32.9323], [132.0477, 32.9375], [132.052, 32.9361], [132.0542, 32.9399], [132.0633, 32.9345], [132.0648, 32.9363], [132.0704, 32.9362], [132.0699, 32.934], [132.076, 32.9333], [132.0764, 32.9313], [132.0837, 32.9314], [132.0854, 32.9331], [132.0823, 32.9367], [132.0822, 32.9431], [132.079, 32.9454], [132.0761, 32.9439], [132.0705, 32.9487], [132.0677, 32.945], [132.065, 32.9468], [132.0585, 32.9457], [132.0531, 32.9489], [132.0511, 32.9538], [132.0507, 32.9485], [132.0441, 32.9471], [132.0414, 32.9497], [132.0354, 32.9507], [132.0334, 32.954], [132.0309, 32.9497], [132.0346, 32.9472], [132.0336, 32.9393], [132.0265, 32.9383], [132.0224, 32.9403], [132.018, 32.9385], [132.0193, 32.9375], [132.0169, 32.9355], [132.0116, 32.9359], [132.0114, 32.9331], [132.0069, 32.9359], [132.0035, 32.9322], [132.0016, 32.9372], [131.9976, 32.9375], [132.0005, 32.9443], [131.9976, 32.9491], [132.0047, 32.9549], [132.0026, 32.9557], [132.004, 32.9578], [132.0022, 32.9589], [131.9979, 32.9566], [131.996, 32.953], [131.9895, 32.9538], [131.9929, 32.9519], [131.9912, 32.9497], [131.9935, 32.9495], [131.9934, 32.9471], [131.99, 32.9463], [131.9895, 32.9422], [131.9856, 32.9429], [131.9854, 32.9402], [131.9821, 32.9394], [131.9757, 32.9427], [131.978, 32.9459], [131.9745, 32.9446], [131.972, 32.9462], [131.9738, 32.9503], [131.9717, 32.9519], [131.9749, 32.9546], [131.9742, 32.9641], [131.9724, 32.9566], [131.9692, 32.9557], [131.9687, 32.9529], [131.9651, 32.9551], [131.9638, 32.9603], [131.9599, 32.9605], [131.9599, 32.9566], [131.9633, 32.9541], [131.9626, 32.9498], [131.9649, 32.9488], [131.9606, 32.9446], [131.9537, 32.9536], [131.957, 32.9524], [131.9519, 32.9549], [131.949, 32.9594], [131.946, 32.9598], [131.9452, 32.9556], [131.9377, 32.9524], [131.9358, 32.9616], [131.9293, 32.9641], [131.9453, 32.9962], [131.9404, 32.9989], [131.9366, 32.9975], [131.936, 32.9993], [131.9262, 32.9972], [131.9371, 33.0074], [131.9374, 33.0123], [131.9416, 33.0105], [131.9442, 33.0141], [131.9431, 33.0159], [131.9303, 33.0166], [131.9239, 33.0129], [131.9267, 33.0119], [131.924, 33.0103], [131.9239, 33.012], [131.9198, 33.0129], [131.9192, 33.008], [131.9219, 33.0066], [131.918, 33.0058], [131.9176, 33.0037], [131.9248, 33.0067], [131.9249, 33], [131.9196, 32.9975], [131.9194, 32.9949], [131.9168, 32.9971], [131.9146, 32.9957], [131.9164, 32.9942], [131.9129, 32.9934], [131.9104, 32.9878], [131.9024, 32.9919], [131.9083, 32.9995], [131.9011, 33.0102], [131.9037, 33.0139], [131.9106, 33.0162], [131.9127, 33.0213], [131.9228, 33.0264], [131.9196, 33.0291], [131.922, 33.0335], [131.9206, 33.0436], [131.9242, 33.0459], [131.9272, 33.0447], [131.9258, 33.0476], [131.9276, 33.0515], [131.9323, 33.0534], [131.9323, 33.0511], [131.9368, 33.0484], [131.9437, 33.0539], [131.9504, 33.0496], [131.9581, 33.0518], [131.9648, 33.048], [131.9805, 33.0465], [131.985, 33.0482], [131.9877, 33.0536], [131.9968, 33.0568], [132.0024, 33.0543], [132.0179, 33.0596], [132.0182, 33.0615], [132.0057, 33.0615], [132.0015, 33.0766], [131.9953, 33.0804], [131.9967, 33.0874], [132.0026, 33.0965], [131.9977, 33.0934], [131.9945, 33.0939], [131.9933, 33.0911], [131.9861, 33.0919], [131.9861, 33.0878], [131.9895, 33.0854], [131.9849, 33.0793], [131.9889, 33.0738], [131.988, 33.0687], [131.9896, 33.0692], [131.9807, 33.0654], [131.9759, 33.0671], [131.9742, 33.062], [131.9693, 33.0617], [131.969, 33.0643], [131.9665, 33.0645], [131.9684, 33.0672], [131.9661, 33.0684], [131.9691, 33.0719], [131.9666, 33.0714], [131.9661, 33.0731], [131.9525, 33.0706], [131.955, 33.0697], [131.9534, 33.0662], [131.9482, 33.0663], [131.9467, 33.069], [131.9428, 33.0694], [131.9438, 33.0735], [131.9393, 33.0765], [131.9423, 33.0816], [131.9366, 33.082], [131.9382, 33.0851], [131.9361, 33.0886], [131.9376, 33.0931], [131.9419, 33.0952], [131.9405, 33.0968], [131.9289, 33.0917], [131.9349, 33.0833], [131.9319, 33.078], [131.9326, 33.0745], [131.9291, 33.0742], [131.9278, 33.0767], [131.9237, 33.0742], [131.9289, 33.0711], [131.9294, 33.0675], [131.9216, 33.0667], [131.9199, 33.0712], [131.9157, 33.0683], [131.9177, 33.067], [131.9126, 33.0665], [131.91, 33.0682], [131.9121, 33.0678], [131.9101, 33.069], [131.9137, 33.0737], [131.9134, 33.0768], [131.9103, 33.0783], [131.9113, 33.0824], [131.9077, 33.0816], [131.9022, 33.0752], [131.8947, 33.0767], [131.8852, 33.0844], [131.8806, 33.1034], [131.8761, 33.1031], [131.8762, 33.1061], [131.8845, 33.1106], [131.8869, 33.1073], [131.8882, 33.1089], [131.8915, 33.107], [131.9009, 33.1102], [131.8976, 33.1164], [131.9152, 33.1238], [131.9128, 33.1273], [131.9067, 33.1261], [131.9048, 33.1284], [131.9024, 33.1288], [131.9039, 33.1284], [131.9012, 33.1274], [131.8992, 33.1296], [131.9023, 33.1316], [131.901, 33.1348], [131.8983, 33.1355], [131.8994, 33.1325], [131.8967, 33.1275], [131.8898, 33.1243], [131.8861, 33.1277], [131.8831, 33.1219], [131.8802, 33.1219], [131.8798, 33.1234], [131.8754, 33.1225], [131.8744, 33.1237], [131.8761, 33.1232], [131.8745, 33.1251], [131.8778, 33.1308], [131.8688, 33.1309], [131.8656, 33.1283], [131.8669, 33.1256], [131.8615, 33.1279], [131.8567, 33.1206], [131.8468, 33.1182], [131.8432, 33.1142], [131.8355, 33.1187], [131.8388, 33.1237], [131.8312, 33.1265], [131.8301, 33.1239], [131.8253, 33.1227], [131.8277, 33.1227], [131.826, 33.121], [131.8216, 33.1231], [131.8172, 33.1218], [131.8141, 33.1248], [131.8145, 33.1219], [131.8091, 33.1211], [131.8119, 33.1235], [131.8108, 33.1273], [131.8132, 33.1274], [131.8099, 33.1273], [131.8088, 33.1237], [131.8088, 33.1273], [131.8007, 33.1257], [131.7978, 33.1227], [131.796, 33.1236], [131.7969, 33.127], [131.8017, 33.1298], [131.8059, 33.1297], [131.8034, 33.1315], [131.8047, 33.1334], [131.8037, 33.1316], [131.8062, 33.13], [131.81, 33.1347], [131.8098, 33.1392], [131.8109, 33.136], [131.8116, 33.1402], [131.82, 33.1449], [131.8192, 33.1467], [131.8287, 33.1503], [131.8268, 33.1571], [131.8287, 33.1617], [131.8258, 33.1545], [131.8231, 33.1571], [131.8217, 33.1543], [131.8212, 33.1579], [131.8247, 33.1652], [131.8233, 33.1664], [131.8268, 33.1699], [131.8291, 33.1695], [131.8289, 33.1739], [131.8342, 33.1766], [131.8323, 33.1758], [131.8332, 33.1813], [131.8387, 33.1825], [131.8404, 33.1873], [131.8486, 33.1879], [131.8504, 33.1916], [131.857, 33.1958], [131.862, 33.1935], [131.8691, 33.2014], [131.8679, 33.2036], [131.8629, 33.2022], [131.8606, 33.2039], [131.866, 33.2132], [131.8724, 33.2163], [131.8721, 33.2208], [131.8768, 33.2247], [131.8769, 33.2297], [131.8735, 33.2287], [131.8712, 33.2329], [131.8783, 33.243], [131.8761, 33.2424], [131.8779, 33.2438], [131.8758, 33.2445], [131.8787, 33.246], [131.8784, 33.2436], [131.8859, 33.2447], [131.8835, 33.243], [131.892, 33.2457], [131.8946, 33.2542], [131.8978, 33.2548], [131.899, 33.2594], [131.9038, 33.2626], [131.9029, 33.2675], [131.8938, 33.2668], [131.892, 33.2687], [131.8818, 33.2633], [131.8755, 33.263], [131.868, 33.2596], [131.8704, 33.2523], [131.875, 33.2518], [131.8744, 33.2495], [131.8652, 33.2498], [131.8659, 33.252], [131.86, 33.2526], [131.8563, 33.2556], [131.8504, 33.252], [131.8422, 33.2518], [131.8402, 33.2481], [131.8381, 33.2497], [131.8373, 33.2474], [131.8318, 33.2483], [131.8192, 33.2456], [131.8072, 33.2692], [131.7569, 33.2615], [131.6952, 33.2892], [131.5748, 33.2611], [131.5695, 33.2515], [131.5517, 33.2586], [131.5478, 33.2563], [131.5482, 33.2578], [131.5459, 33.2576], [131.5472, 33.2563], [131.542, 33.2585], [131.5387, 33.2575], [131.5251, 33.2651], [131.5179, 33.2654]]], [[[131.8939, 33.2389], [131.8891, 33.2371], [131.8942, 33.235], [131.8958, 33.2366], [131.8939, 33.2389]]], [[[131.9566, 33.2789], [131.9357, 33.2774], [131.9401, 33.2771], [131.9459, 33.2706], [131.9496, 33.274], [131.9548, 33.2738], [131.9566, 33.2789]]], [[[131.9547, 32.9959], [131.9564, 32.9932], [131.9578, 32.9945], [131.9547, 32.9959]]], [[[131.9123, 33.0137], [131.9113, 33.0149], [131.908, 33.0124], [131.9111, 33.0067], [131.9123, 33.0137]]], [[[131.9083, 32.781], [131.9114, 32.7754], [131.9072, 32.7721], [131.9102, 32.7697], [131.924, 32.7703], [131.9249, 32.7737], [131.9226, 32.7759], [131.917, 32.7762], [131.9083, 32.781]]], [[[131.9269, 32.7269], [131.921, 32.7264], [131.9267, 32.7236], [131.9215, 32.7201], [131.926, 32.7145], [131.9299, 32.7172], [131.9293, 32.7195], [131.9328, 32.7197], [131.9283, 32.7232], [131.9298, 32.7261], [131.9269, 32.7269]]], [[[132.035, 32.8808], [132.0299, 32.8807], [132.0308, 32.8786], [132.035, 32.8808]]], [[[132.0248, 32.8876], [132.0247, 32.8895], [132.0226, 32.8883], [132.0248, 32.8876]]], [[[131.9571, 32.971], [131.9529, 32.9711], [131.9533, 32.9648], [131.9579, 32.965], [131.9571, 32.971]]], [[[132.0728, 32.9807], [132.0705, 32.9799], [132.0745, 32.9786], [132.0728, 32.9807]]], [[[132.0748, 32.9778], [132.0761, 32.9742], [132.0753, 32.9717], [132.0724, 32.9713], [132.0735, 32.9679], [132.0664, 32.9641], [132.06, 32.9638], [132.0671, 32.963], [132.0669, 32.9587], [132.0719, 32.9533], [132.0773, 32.9614], [132.0809, 32.96], [132.078, 32.9682], [132.0814, 32.9706], [132.079, 32.9722], [132.0804, 32.9743], [132.0769, 32.9747], [132.0748, 32.9778]]], [[[132.0462, 32.9203], [132.0464, 32.9155], [132.0501, 32.9138], [132.0462, 32.9203]]], [[[131.8619, 33.1436], [131.8578, 33.1429], [131.8567, 33.1403], [131.8612, 33.1398], [131.8633, 33.1427], [131.8619, 33.1436]]], [[[131.8369, 33.1787], [131.8354, 33.1772], [131.8391, 33.1744], [131.8392, 33.1786], [131.8369, 33.1787]]], [[[131.8942, 33.1056], [131.8915, 33.1034], [131.8937, 33.1005], [131.8959, 33.1018], [131.8942, 33.1056]]], [[[131.9926, 33.171], [131.9833, 33.1704], [131.9802, 33.1627], [131.9875, 33.1648], [131.9926, 33.171]]], [[[131.9801, 33.1607], [131.9701, 33.1557], [131.9794, 33.1563], [131.9801, 33.1607]]], [[[132.0107, 33.1115], [132.0076, 33.1089], [132.0079, 33.1103], [132.0039, 33.1092], [132.0046, 33.1038], [132.0045, 33.1054], [132.0069, 33.1044], [132.0051, 33.1038], [132.0062, 33.1008], [132.0023, 33.0985], [132.0058, 33.1002], [132.0035, 33.0972], [132.0163, 33.1067], [132.0116, 33.1085], [132.0107, 33.1115]]], [[[131.6702, 33.7391], [131.6673, 33.7402], [131.6617, 33.7372], [131.6548, 33.7326], [131.6557, 33.7301], [131.6487, 33.7306], [131.6488, 33.7251], [131.647, 33.7304], [131.6486, 33.731], [131.6456, 33.7302], [131.6461, 33.7321], [131.6426, 33.733], [131.6411, 33.7258], [131.6401, 33.728], [131.638, 33.7236], [131.6327, 33.7224], [131.6314, 33.718], [131.6334, 33.7161], [131.6439, 33.7206], [131.6473, 33.7183], [131.644, 33.7208], [131.6481, 33.7201], [131.6462, 33.7217], [131.6513, 33.7222], [131.6489, 33.7186], [131.6514, 33.7222], [131.6528, 33.7213], [131.6511, 33.7207], [131.6564, 33.7222], [131.6598, 33.7204], [131.6582, 33.7191], [131.6661, 33.7167], [131.6715, 33.7185], [131.6761, 33.7253], [131.6845, 33.7277], [131.6881, 33.7313], [131.7016, 33.7311], [131.6965, 33.7346], [131.6924, 33.7327], [131.685, 33.7335], [131.6834, 33.7375], [131.681, 33.7375], [131.684, 33.7381], [131.6702, 33.7391]]]]}, "properties": {"name": "大分県"}}]}