{"type": "FeatureCollection", "features": [{"type": "Feature", "geometry": {"type": "Polygon", "coordinates": [[[136.5277, 35.2576], [136.5341, 35.2571], [136.5361, 35.2478], [136.5412, 35.2458], [136.5406, 35.2374], [136.5503, 35.2331], [136.5473, 35.2199], [136.5569, 35.2206], [136.5596, 35.2067], [136.576, 35.2022], [136.5773, 35.1967], [136.5849, 35.1946], [136.5877, 35.1845], [136.5916, 35.1857], [136.5972, 35.1769], [136.6028, 35.1773], [136.6159, 35.1492], [136.6238, 35.1464], [136.634, 35.15], [136.6453, 35.1445], [136.6469, 35.1645], [136.656, 35.1613], [136.6671, 35.1424], [136.6712, 35.1426], [136.6722, 35.1905], [136.6815, 35.1973], [136.678, 35.2414], [136.6957, 35.2573], [136.7048, 35.2763], [136.7284, 35.3003], [136.7671, 35.3662], [136.7754, 35.37], [136.7944, 35.3687], [136.7932, 35.3646], [136.8023, 35.3605], [136.8328, 35.3566], [136.8656, 35.3735], [136.891, 35.3786], [136.9211, 35.3787], [136.9602, 35.3986], [136.9648, 35.4211], [136.9888, 35.4248], [136.9933, 35.4233], [136.9864, 35.4199], [136.9781, 35.4033], [136.9872, 35.4022], [137.0022, 35.3814], [137.015, 35.3816], [137.0201, 35.3755], [137.0284, 35.3763], [137.0339, 35.3681], [137.047, 35.3662], [137.0474, 35.3355], [137.0595, 35.3389], [137.0687, 35.3357], [137.0731, 35.3268], [137.0632, 35.3184], [137.0664, 35.309], [137.0817, 35.3052], [137.081, 35.2924], [137.0961, 35.2907], [137.1025, 35.3017], [137.1333, 35.2927], [137.1456, 35.2799], [137.1651, 35.2835], [137.1773, 35.2695], [137.1728, 35.2649], [137.1863, 35.2531], [137.2003, 35.2515], [137.212, 35.26], [137.221, 35.2605], [137.2248, 35.2565], [137.2606, 35.2749], [137.2627, 35.2852], [137.2748, 35.2898], [137.3077, 35.2912], [137.3314, 35.2769], [137.3451, 35.2737], [137.34, 35.2646], [137.3411, 35.2605], [137.3457, 35.2625], [137.3441, 35.2579], [137.3729, 35.2635], [137.3778, 35.2587], [137.3832, 35.2602], [137.3862, 35.2415], [137.4004, 35.2413], [137.4084, 35.2346], [137.4172, 35.2404], [137.4297, 35.2228], [137.4762, 35.2533], [137.4973, 35.2594], [137.4971, 35.2643], [137.5054, 35.2631], [137.5159, 35.2748], [137.5207, 35.2737], [137.5189, 35.2832], [137.5617, 35.2831], [137.5566, 35.3096], [137.565, 35.3106], [137.5716, 35.3182], [137.5837, 35.3189], [137.5905, 35.3307], [137.6038, 35.3335], [137.5985, 35.3787], [137.5865, 35.3895], [137.5773, 35.3905], [137.5752, 35.4], [137.5904, 35.3937], [137.6183, 35.3918], [137.6349, 35.401], [137.6319, 35.4108], [137.6217, 35.4122], [137.6156, 35.4306], [137.593, 35.4471], [137.6183, 35.4677], [137.6317, 35.4701], [137.6244, 35.5002], [137.6317, 35.5099], [137.6093, 35.5345], [137.6024, 35.5308], [137.5738, 35.5449], [137.5723, 35.5607], [137.5641, 35.5688], [137.5713, 35.5842], [137.5508, 35.5877], [137.5373, 35.5844], [137.5139, 35.608], [137.5276, 35.6356], [137.5383, 35.6384], [137.5455, 35.651], [137.5354, 35.6659], [137.4975, 35.6881], [137.4988, 35.6963], [137.4858, 35.7059], [137.4852, 35.7247], [137.4663, 35.7411], [137.4648, 35.7565], [137.4524, 35.7635], [137.4501, 35.7595], [137.4402, 35.7588], [137.4346, 35.7716], [137.3932, 35.7779], [137.3969, 35.7855], [137.3917, 35.7987], [137.3811, 35.8013], [137.3604, 35.796], [137.3513, 35.8018], [137.3362, 35.799], [137.325, 35.8167], [137.3358, 35.8443], [137.3544, 35.8423], [137.3611, 35.8461], [137.3676, 35.8606], [137.3643, 35.8789], [137.3809, 35.8924], [137.429, 35.9065], [137.4375, 35.9051], [137.4475, 35.8936], [137.4586, 35.8894], [137.4746, 35.8924], [137.481, 35.8987], [137.4843, 35.9163], [137.5034, 35.9398], [137.5248, 35.9426], [137.5327, 35.962], [137.5421, 35.9674], [137.544, 35.9837], [137.5754, 35.9957], [137.5947, 36.0129], [137.6003, 36.0286], [137.5978, 36.0423], [137.6142, 36.0604], [137.6138, 36.0763], [137.5974, 36.0755], [137.5778, 36.0852], [137.5539, 36.1066], [137.5505, 36.113], [137.5572, 36.1182], [137.5606, 36.1304], [137.5546, 36.1403], [137.5669, 36.1471], [137.5703, 36.1558], [137.5907, 36.1639], [137.5951, 36.1721], [137.5911, 36.1856], [137.5951, 36.191], [137.5786, 36.1974], [137.5734, 36.2192], [137.583, 36.2204], [137.5836, 36.2271], [137.5896, 36.2286], [137.6151, 36.2647], [137.629, 36.2789], [137.6476, 36.2892], [137.6467, 36.2964], [137.6534, 36.3046], [137.6487, 36.309], [137.6521, 36.3221], [137.6461, 36.3303], [137.6473, 36.3418], [137.636, 36.3422], [137.6172, 36.3661], [137.5875, 36.3718], [137.5877, 36.3901], [137.576, 36.3931], [137.5612, 36.3871], [137.541, 36.3916], [137.515, 36.4115], [137.5113, 36.424], [137.5041, 36.4257], [137.4743, 36.4253], [137.46, 36.4122], [137.4496, 36.4166], [137.4451, 36.4131], [137.4356, 36.4208], [137.4089, 36.4251], [137.3953, 36.4364], [137.3949, 36.4554], [137.3897, 36.4599], [137.3626, 36.4501], [137.3576, 36.436], [137.3386, 36.4339], [137.3175, 36.4243], [137.3051, 36.436], [137.3178, 36.4512], [137.317, 36.4608], [137.3085, 36.4638], [137.2985, 36.4583], [137.2788, 36.4649], [137.2561, 36.4508], [137.2476, 36.4618], [137.2321, 36.4445], [137.2136, 36.4386], [137.2141, 36.4309], [137.206, 36.4277], [137.2048, 36.4369], [137.1913, 36.4553], [137.1809, 36.4522], [137.1779, 36.4548], [137.175, 36.4499], [137.1709, 36.4554], [137.1597, 36.4568], [137.1551, 36.4493], [137.1443, 36.4457], [137.1435, 36.4383], [137.1324, 36.4344], [137.1223, 36.4174], [137.1112, 36.415], [137.1017, 36.3992], [137.0925, 36.397], [137.0947, 36.3838], [137.0787, 36.3843], [137.0589, 36.373], [137.0621, 36.3661], [137.0489, 36.3455], [137.0586, 36.3424], [137.0524, 36.3384], [137.0515, 36.3282], [137.0374, 36.3175], [137.0197, 36.3183], [137.0212, 36.3091], [137.0108, 36.2981], [137.0126, 36.2932], [137.0026, 36.287], [136.9862, 36.2862], [136.9754, 36.2744], [136.9579, 36.2777], [136.973, 36.31], [136.9611, 36.3233], [136.9548, 36.3394], [136.9398, 36.3493], [136.9325, 36.3485], [136.9075, 36.3608], [136.89, 36.3455], [136.8746, 36.3428], [136.8757, 36.35], [136.8696, 36.3498], [136.8762, 36.3558], [136.8713, 36.3675], [136.8651, 36.3496], [136.8519, 36.3473], [136.8441, 36.351], [136.8371, 36.3471], [136.8425, 36.3327], [136.8325, 36.3067], [136.8263, 36.3025], [136.8095, 36.3026], [136.805, 36.3064], [136.7939, 36.3012], [136.7953, 36.2924], [136.8057, 36.2842], [136.8062, 36.2758], [136.8154, 36.2663], [136.8326, 36.2659], [136.844, 36.2591], [136.8521, 36.2469], [136.8325, 36.2236], [136.8323, 36.2179], [136.8209, 36.2104], [136.8216, 36.2003], [136.8165, 36.2003], [136.8023, 36.1874], [136.7985, 36.1725], [136.7665, 36.1623], [136.7808, 36.1416], [136.7655, 36.1055], [136.7559, 36.0986], [136.7544, 36.0864], [136.7648, 36.0696], [136.7447, 36.0603], [136.7331, 36.049], [136.7356, 36.033], [136.7266, 35.9959], [136.7523, 35.9886], [136.7535, 35.9683], [136.7489, 35.9634], [136.7523, 35.9569], [136.7935, 35.9458], [136.7851, 35.9236], [136.7997, 35.9206], [136.8063, 35.9128], [136.8121, 35.9125], [136.8238, 35.8929], [136.8189, 35.8816], [136.83, 35.8661], [136.8312, 35.8521], [136.8209, 35.8439], [136.8021, 35.844], [136.7986, 35.8179], [136.7896, 35.7996], [136.7759, 35.7989], [136.7744, 35.8067], [136.7636, 35.8106], [136.7409, 35.8011], [136.7229, 35.8081], [136.719, 35.7985], [136.7092, 35.7917], [136.7, 35.7942], [136.6851, 35.7894], [136.6768, 35.7932], [136.6598, 35.7834], [136.6543, 35.7859], [136.6526, 35.7986], [136.6451, 35.8068], [136.638, 35.7973], [136.6266, 35.7969], [136.6277, 35.791], [136.6226, 35.7874], [136.6115, 35.7887], [136.5996, 35.7986], [136.5895, 35.7957], [136.586, 35.7844], [136.5706, 35.7774], [136.5558, 35.781], [136.5445, 35.7789], [136.5227, 35.7884], [136.5133, 35.7753], [136.514, 35.7624], [136.5059, 35.7503], [136.4847, 35.7751], [136.4688, 35.7728], [136.4588, 35.7791], [136.4458, 35.7731], [136.4316, 35.7746], [136.4185, 35.7825], [136.4086, 35.7803], [136.4003, 35.789], [136.3898, 35.7881], [136.3889, 35.792], [136.3769, 35.7952], [136.3571, 35.7867], [136.3469, 35.7761], [136.3278, 35.775], [136.3235, 35.769], [136.3184, 35.7512], [136.3253, 35.7437], [136.327, 35.7315], [136.3205, 35.7227], [136.3239, 35.7168], [136.3119, 35.7122], [136.3095, 35.7035], [136.2918, 35.6907], [136.2917, 35.684], [136.299, 35.6775], [136.2885, 35.6712], [136.2908, 35.6661], [136.2761, 35.6536], [136.2829, 35.6425], [136.279, 35.6367], [136.2887, 35.6204], [136.298, 35.6173], [136.3159, 35.6236], [136.3235, 35.6166], [136.3151, 35.6059], [136.3244, 35.5838], [136.3177, 35.5472], [136.3223, 35.5443], [136.3268, 35.5501], [136.337, 35.5502], [136.3409, 35.5373], [136.3501, 35.5374], [136.3565, 35.5394], [136.3627, 35.5588], [136.3729, 35.5597], [136.3828, 35.5348], [136.3993, 35.5312], [136.3991, 35.5213], [136.4053, 35.5135], [136.4001, 35.5136], [136.3923, 35.504], [136.3867, 35.4889], [136.3981, 35.481], [136.402, 35.4699], [136.4205, 35.4668], [136.4264, 35.4488], [136.4118, 35.4186], [136.4446, 35.3894], [136.4285, 35.3744], [136.4118, 35.3701], [136.4106, 35.3525], [136.4216, 35.3539], [136.4221, 35.348], [136.4113, 35.329], [136.4118, 35.3148], [136.391, 35.29], [136.3961, 35.2804], [136.3935, 35.2618], [136.397, 35.2578], [136.3774, 35.2431], [136.412, 35.2184], [136.4306, 35.2294], [136.4409, 35.2167], [136.4662, 35.2381], [136.4701, 35.2329], [136.4732, 35.2373], [136.4806, 35.2346], [136.4824, 35.2399], [136.4895, 35.2356], [136.497, 35.2379], [136.506, 35.2349], [136.5151, 35.253], [136.5277, 35.2576]]]}, "properties": {"name": "岐阜県"}}]}