{"type": "FeatureCollection", "features": [{"type": "Feature", "geometry": {"type": "Polygon", "coordinates": [[[137.1805, 36.7677], [137.1825, 36.8091], [137.0906, 36.8098], [137.0726, 36.7962], [137.0896, 36.824], [137.0468, 36.8236], [137.0425, 36.8146], [136.995, 36.848], [136.9849, 36.8771], [136.9933, 36.8794], [137.0325, 36.9235], [137.0271, 36.9399], [137.0516, 36.9592], [137.0451, 36.964], [137.0375, 36.9673], [137.0049, 36.9612], [136.9963, 36.9671], [136.9865, 36.9674], [136.9821, 36.9527], [136.9732, 36.9441], [136.9547, 36.9508], [136.9542, 36.9563], [136.9449, 36.9547], [136.9274, 36.9477], [136.9157, 36.9308], [136.8957, 36.9248], [136.8877, 36.9168], [136.8779, 36.9007], [136.8857, 36.8852], [136.8832, 36.8765], [136.8708, 36.862], [136.8621, 36.8605], [136.8671, 36.8512], [136.8617, 36.8475], [136.8635, 36.8424], [136.8564, 36.8398], [136.8599, 36.8287], [136.8486, 36.8132], [136.8537, 36.7945], [136.8429, 36.7819], [136.8527, 36.7702], [136.849, 36.7591], [136.8392, 36.7452], [136.8218, 36.7403], [136.82, 36.731], [136.7959, 36.7296], [136.7893, 36.718], [136.8157, 36.7004], [136.81, 36.6866], [136.82, 36.6842], [136.8241, 36.6695], [136.8074, 36.6546], [136.8073, 36.6478], [136.7998, 36.6457], [136.8004, 36.6366], [136.7848, 36.6284], [136.7831, 36.6169], [136.7908, 36.6041], [136.7882, 36.5933], [136.7955, 36.5845], [136.791, 36.5695], [136.8023, 36.5688], [136.8173, 36.5527], [136.8119, 36.5355], [136.7949, 36.511], [136.7945, 36.497], [136.8032, 36.4853], [136.7955, 36.4743], [136.7979, 36.4619], [136.7883, 36.4528], [136.7969, 36.4447], [136.7687, 36.4288], [136.7699, 36.415], [136.7789, 36.4145], [136.7953, 36.4013], [136.8005, 36.3696], [136.808, 36.3587], [136.7846, 36.3439], [136.7835, 36.3296], [136.7903, 36.3226], [136.7922, 36.2994], [136.8045, 36.3063], [136.8094, 36.3026], [136.8262, 36.3025], [136.8322, 36.3067], [136.8425, 36.3329], [136.8372, 36.3472], [136.844, 36.3511], [136.852, 36.3474], [136.8651, 36.3497], [136.8713, 36.3675], [136.8762, 36.3559], [136.8696, 36.3499], [136.8757, 36.3499], [136.8748, 36.3427], [136.89, 36.3455], [136.9078, 36.3608], [136.9552, 36.3393], [136.9732, 36.3097], [136.9571, 36.28], [136.9754, 36.2745], [136.9862, 36.2862], [137.0025, 36.2869], [137.0126, 36.2933], [137.0108, 36.2981], [137.0212, 36.3091], [137.0197, 36.3183], [137.0373, 36.3175], [137.0515, 36.3282], [137.0525, 36.3385], [137.0586, 36.3424], [137.0489, 36.3455], [137.0621, 36.366], [137.0589, 36.373], [137.0788, 36.3843], [137.0948, 36.3838], [137.0925, 36.3967], [137.1016, 36.3992], [137.1112, 36.415], [137.1224, 36.4174], [137.1323, 36.4344], [137.1435, 36.4383], [137.1444, 36.4457], [137.1551, 36.4494], [137.1603, 36.4565], [137.1716, 36.4548], [137.1751, 36.4499], [137.1914, 36.4553], [137.206, 36.4277], [137.2141, 36.4309], [137.2136, 36.4386], [137.2321, 36.4445], [137.2476, 36.4618], [137.256, 36.4508], [137.279, 36.465], [137.2985, 36.4583], [137.3086, 36.4638], [137.317, 36.4607], [137.3178, 36.4512], [137.305, 36.4358], [137.3132, 36.4249], [137.3189, 36.4244], [137.3381, 36.4336], [137.3575, 36.4359], [137.3617, 36.4499], [137.3897, 36.4599], [137.3949, 36.4554], [137.3953, 36.4364], [137.4039, 36.4269], [137.4354, 36.4208], [137.4451, 36.4131], [137.4497, 36.4166], [137.46, 36.4122], [137.4743, 36.4253], [137.5102, 36.4244], [137.5202, 36.4064], [137.5309, 36.403], [137.5409, 36.3916], [137.5612, 36.3871], [137.5769, 36.3932], [137.5922, 36.3897], [137.6052, 36.4027], [137.6031, 36.4123], [137.608, 36.4196], [137.6174, 36.4187], [137.6353, 36.4279], [137.6401, 36.4459], [137.6552, 36.4592], [137.6512, 36.4878], [137.6666, 36.4939], [137.6697, 36.5101], [137.6774, 36.5143], [137.6942, 36.5105], [137.7056, 36.5177], [137.7033, 36.5268], [137.7105, 36.5357], [137.6845, 36.5379], [137.6877, 36.5621], [137.7244, 36.5865], [137.7474, 36.5868], [137.753, 36.5935], [137.7439, 36.6131], [137.7561, 36.647], [137.7533, 36.6577], [137.7617, 36.6662], [137.7592, 36.685], [137.7528, 36.6911], [137.7565, 36.6957], [137.7498, 36.705], [137.7509, 36.7267], [137.7591, 36.7404], [137.7516, 36.751], [137.7623, 36.7682], [137.7495, 36.78], [137.7543, 36.7964], [137.7493, 36.8096], [137.7299, 36.8266], [137.7346, 36.8312], [137.7341, 36.8689], [137.7137, 36.8908], [137.7126, 36.9041], [137.7177, 36.9075], [137.7203, 36.9267], [137.711, 36.9443], [137.6875, 36.9431], [137.6806, 36.9484], [137.6664, 36.9502], [137.6517, 36.9688], [137.635, 36.9797], [137.5872, 36.9745], [137.5747, 36.9637], [137.4926, 36.955], [137.426, 36.9254], [137.4098, 36.899], [137.419, 36.8729], [137.4087, 36.8607], [137.4112, 36.8478], [137.3921, 36.8239], [137.393, 36.8074], [137.3477, 36.781], [137.3434, 36.7772], [137.3477, 36.7758], [137.3336, 36.7624], [137.3191, 36.758], [137.3014, 36.7595], [137.3024, 36.7555], [137.259, 36.762], [137.2593, 36.7682], [137.1805, 36.7677]]]}, "properties": {"name": "富山県"}}]}