{"type": "FeatureCollection", "features": [{"type": "Feature", "geometry": {"type": "Polygon", "coordinates": [[[138.6484, 36.4073], [138.6537, 36.3033], [138.6004, 36.2783], [138.6118, 36.2297], [138.6222, 36.2147], [138.6331, 36.2178], [138.637, 36.2042], [138.623, 36.1967], [138.6371, 36.1745], [138.6095, 36.1614], [138.5896, 36.1697], [138.5891, 36.1792], [138.5775, 36.1681], [138.6007, 36.1356], [138.6342, 36.1338], [138.6461, 36.1189], [138.6452, 36.0987], [138.6307, 36.0916], [138.6442, 36.0499], [138.632, 36.0271], [138.6796, 36.0117], [138.6887, 35.9919], [138.7131, 35.9848], [138.7493, 36.0166], [138.7546, 36.0343], [138.7732, 36.0388], [138.791, 36.0293], [138.828, 36.0373], [138.8645, 36.0771], [138.9022, 36.0918], [138.9451, 36.0949], [138.9583, 36.1242], [138.9851, 36.1158], [139.0047, 36.1335], [139.0417, 36.1278], [139.0429, 36.1483], [139.0622, 36.1529], [139.0636, 36.1961], [139.1296, 36.2835], [139.1717, 36.2738], [139.1642, 36.2898], [139.1887, 36.2655], [139.2238, 36.259], [139.2437, 36.2445], [139.267, 36.2427], [139.2681, 36.2507], [139.3244, 36.2369], [139.3587, 36.2537], [139.4622, 36.1895], [139.5259, 36.1914], [139.591, 36.2105], [139.6238, 36.1862], [139.6287, 36.1953], [139.6506, 36.1971], [139.6495, 36.2113], [139.6698, 36.2131], [139.6626, 36.2308], [139.6498, 36.2403], [139.6416, 36.2359], [139.6307, 36.2546], [139.6439, 36.2656], [139.6327, 36.2711], [139.5628, 36.2669], [139.5526, 36.2798], [139.5256, 36.2842], [139.4625, 36.2719], [139.4604, 36.2871], [139.4269, 36.295], [139.4164, 36.3388], [139.3676, 36.368], [139.3611, 36.3848], [139.4119, 36.4501], [139.4082, 36.4582], [139.4311, 36.4581], [139.4363, 36.466], [139.4177, 36.4949], [139.442, 36.5294], [139.439, 36.5508], [139.461, 36.5532], [139.4835, 36.582], [139.4654, 36.6068], [139.4276, 36.601], [139.4039, 36.6088], [139.3979, 36.602], [139.3293, 36.6284], [139.337, 36.6925], [139.3611, 36.7136], [139.3724, 36.7465], [139.3557, 36.7507], [139.3531, 36.7736], [139.3758, 36.7853], [139.3768, 36.8015], [139.4068, 36.8269], [139.3488, 36.8527], [139.3559, 36.8776], [139.3693, 36.8777], [139.3748, 36.8952], [139.3955, 36.9071], [139.3724, 36.9185], [139.3494, 36.913], [139.3414, 36.9279], [139.3047, 36.9259], [139.2662, 36.9415], [139.241, 36.9293], [139.229, 36.9608], [139.1834, 36.9613], [139.1709, 37.0021], [139.1319, 37.0257], [139.123, 37.0471], [139.097, 37.0586], [139.0911, 37.0199], [139.0475, 36.9874], [138.9665, 36.979], [138.9795, 36.892], [138.9404, 36.8951], [138.9231, 36.8835], [138.9161, 36.8505], [138.929, 36.8327], [138.883, 36.826], [138.8556, 36.8117], [138.8218, 36.8177], [138.8267, 36.7722], [138.7952, 36.758], [138.7893, 36.7449], [138.7269, 36.7641], [138.7125, 36.7389], [138.6224, 36.7205], [138.6109, 36.7064], [138.5955, 36.7145], [138.5842, 36.7012], [138.5597, 36.707], [138.521, 36.6941], [138.514, 36.6905], [138.5346, 36.6659], [138.5294, 36.6552], [138.4731, 36.6441], [138.4585, 36.6342], [138.4547, 36.6137], [138.4277, 36.5963], [138.4203, 36.5738], [138.4291, 36.5559], [138.4122, 36.541], [138.397, 36.4902], [138.4013, 36.4343], [138.4567, 36.4203], [138.4604, 36.4045], [138.4883, 36.401], [138.4923, 36.4133], [138.5409, 36.4031], [138.5555, 36.4179], [138.5926, 36.4244], [138.6371, 36.4172], [138.6484, 36.4073]]]}, "properties": {"name": "群馬県"}}]}