{"type": "FeatureCollection", "features": [{"type": "Feature", "geometry": {"type": "MultiPolygon", "coordinates": [[[[140.7011, 36.6561], [140.7025, 36.6559], [140.7033, 36.6562], [140.7038, 36.6558], [140.7048, 36.6556], [140.7052, 36.6553], [140.7053, 36.6547], [140.7056, 36.655], [140.7066, 36.6551], [140.7083, 36.6549], [140.7087, 36.6546], [140.7089, 36.6548], [140.7085, 36.655], [140.7089, 36.6561], [140.7095, 36.6562], [140.7103, 36.6572], [140.7112, 36.6569], [140.7121, 36.6571], [140.7123, 36.6577], [140.7116, 36.6593], [140.712, 36.6596], [140.7124, 36.6595], [140.7131, 36.6603], [140.7134, 36.6612], [140.714, 36.6616], [140.7151, 36.6618], [140.7159, 36.6616], [140.7165, 36.6619], [140.7166, 36.6623], [140.7163, 36.6622], [140.7159, 36.6626], [140.716, 36.6634], [140.7165, 36.6637], [140.7156, 36.6642], [140.7155, 36.6647], [140.7149, 36.665], [140.715, 36.6669], [140.7147, 36.6678], [140.7149, 36.6691], [140.7142, 36.6705], [140.714, 36.6739], [140.7151, 36.6834], [140.7162, 36.688], [140.7165, 36.6926], [140.7169, 36.6927], [140.7172, 36.6947], [140.718, 36.6966], [140.7179, 36.6977], [140.7192, 36.7019], [140.721, 36.7052], [140.7216, 36.7059], [140.7218, 36.7071], [140.7225, 36.7088], [140.7232, 36.7096], [140.7235, 36.7109], [140.7243, 36.7119], [140.7252, 36.7155], [140.7256, 36.7153], [140.7256, 36.7162], [140.7263, 36.7175], [140.7283, 36.7186], [140.7284, 36.7189], [140.7281, 36.7194], [140.7289, 36.72], [140.7289, 36.7204], [140.7285, 36.7206], [140.7283, 36.7204], [140.728, 36.7207], [140.7283, 36.7211], [140.7292, 36.7211], [140.7293, 36.7214], [140.7288, 36.7217], [140.7282, 36.7216], [140.728, 36.7218], [140.7291, 36.7229], [140.7286, 36.7236], [140.728, 36.7275], [140.7282, 36.73], [140.7285, 36.7304], [140.7292, 36.7357], [140.7296, 36.7369], [140.7296, 36.7388], [140.7302, 36.7398], [140.7311, 36.7437], [140.7323, 36.7461], [140.7328, 36.7481], [140.7375, 36.758], [140.7374, 36.7586], [140.737, 36.7584], [140.7367, 36.7576], [140.7359, 36.7576], [140.7366, 36.7577], [140.737, 36.7585], [140.7378, 36.759], [140.7391, 36.7627], [140.7418, 36.7682], [140.7433, 36.7729], [140.7439, 36.774], [140.7436, 36.7743], [140.7439, 36.7743], [140.7457, 36.7781], [140.746, 36.7793], [140.7471, 36.7814], [140.7478, 36.7821], [140.7478, 36.7828], [140.7483, 36.7832], [140.7483, 36.7837], [140.7498, 36.7867], [140.7538, 36.7928], [140.7548, 36.7938], [140.7558, 36.7944], [140.7558, 36.7953], [140.7565, 36.7951], [140.7567, 36.7944], [140.7571, 36.7942], [140.7573, 36.7944], [140.7573, 36.7958], [140.7582, 36.799], [140.7592, 36.8004], [140.7594, 36.8014], [140.7602, 36.8022], [140.7603, 36.8031], [140.7611, 36.804], [140.761, 36.8053], [140.7606, 36.8054], [140.7611, 36.8055], [140.7629, 36.8088], [140.7632, 36.8088], [140.7644, 36.8117], [140.7673, 36.8169], [140.7682, 36.8183], [140.7748, 36.8243], [140.7781, 36.8257], [140.7787, 36.8261], [140.7803, 36.8266], [140.7812, 36.8264], [140.7811, 36.8255], [140.7816, 36.8291], [140.7822, 36.8291], [140.7821, 36.8255], [140.7822, 36.8267], [140.7854, 36.8269], [140.7853, 36.8255], [140.7855, 36.827], [140.7852, 36.8297], [140.7857, 36.8297], [140.7861, 36.8255], [140.786, 36.8267], [140.7872, 36.8267], [140.787, 36.8273], [140.7863, 36.8273], [140.7861, 36.8295], [140.788, 36.8296], [140.7882, 36.8279], [140.789, 36.828], [140.7888, 36.8297], [140.7908, 36.8298], [140.7909, 36.8285], [140.7914, 36.8285], [140.7913, 36.8298], [140.7918, 36.8298], [140.7927, 36.8292], [140.7937, 36.8291], [140.7936, 36.8283], [140.7928, 36.8283], [140.7926, 36.8279], [140.7908, 36.8278], [140.7884, 36.8269], [140.7908, 36.8277], [140.7926, 36.8278], [140.7928, 36.8282], [140.7937, 36.8283], [140.7942, 36.8273], [140.795, 36.8268], [140.7969, 36.8265], [140.7975, 36.8269], [140.7982, 36.8277], [140.7994, 36.8273], [140.7996, 36.827], [140.7997, 36.8278], [140.8004, 36.8283], [140.8023, 36.8293], [140.8037, 36.8293], [140.8056, 36.8307], [140.8057, 36.8315], [140.8052, 36.8315], [140.8047, 36.8322], [140.804, 36.832], [140.8036, 36.8324], [140.8029, 36.8327], [140.8023, 36.8326], [140.8026, 36.8332], [140.8035, 36.8333], [140.803, 36.8345], [140.8034, 36.8346], [140.8042, 36.8357], [140.8039, 36.8361], [140.8035, 36.8358], [140.8026, 36.8359], [140.803, 36.8362], [140.8027, 36.8367], [140.8037, 36.837], [140.8034, 36.8373], [140.8024, 36.8373], [140.803, 36.838], [140.8026, 36.8381], [140.8028, 36.8383], [140.8022, 36.8384], [140.8014, 36.8391], [140.8015, 36.8399], [140.8007, 36.8402], [140.7991, 36.84], [140.7978, 36.8415], [140.7972, 36.8415], [140.7976, 36.8418], [140.7972, 36.843], [140.7969, 36.8431], [140.7972, 36.8437], [140.7965, 36.846], [140.7968, 36.8465], [140.7962, 36.8498], [140.7966, 36.8501], [140.797, 36.8519], [140.7983, 36.8523], [140.7985, 36.8528], [140.7982, 36.8528], [140.7982, 36.8532], [140.7984, 36.8534], [140.7979, 36.8538], [140.7967, 36.8539], [140.7956, 36.8562], [140.7982, 36.8573], [140.7984, 36.8582], [140.7982, 36.8578], [140.7969, 36.8573], [140.7966, 36.8577], [140.7967, 36.8574], [140.7962, 36.8572], [140.796, 36.8575], [140.7949, 36.8573], [140.7949, 36.8563], [140.7943, 36.8561], [140.7926, 36.8574], [140.7935, 36.8581], [140.7938, 36.8579], [140.7936, 36.8581], [140.7957, 36.859], [140.7961, 36.8585], [140.7956, 36.8593], [140.794, 36.8594], [140.7934, 36.8593], [140.7934, 36.8589], [140.7929, 36.8587], [140.7909, 36.8587], [140.7906, 36.8567], [140.7877, 36.8565], [140.7869, 36.8562], [140.7859, 36.8563], [140.7852, 36.8583], [140.7859, 36.8588], [140.786, 36.8602], [140.7857, 36.861], [140.7864, 36.8618], [140.7864, 36.862], [140.7858, 36.8623], [140.7848, 36.8621], [140.7833, 36.8637], [140.7824, 36.8634], [140.7814, 36.8642], [140.7793, 36.8646], [140.7791, 36.8653], [140.7795, 36.8656], [140.7785, 36.8671], [140.7772, 36.8677], [140.7761, 36.8673], [140.7752, 36.8674], [140.775, 36.867], [140.7736, 36.8665], [140.7733, 36.8658], [140.7713, 36.8664], [140.7708, 36.867], [140.7708, 36.868], [140.7707, 36.8668], [140.7721, 36.8657], [140.7715, 36.865], [140.7711, 36.8649], [140.7696, 36.8655], [140.7691, 36.8655], [140.7685, 36.8662], [140.7676, 36.8666], [140.7672, 36.8678], [140.7674, 36.8668], [140.7677, 36.8664], [140.7689, 36.8654], [140.7696, 36.8654], [140.7703, 36.8648], [140.7712, 36.8647], [140.7712, 36.8642], [140.7719, 36.8641], [140.7721, 36.8637], [140.771, 36.8625], [140.7691, 36.8623], [140.7688, 36.8619], [140.7673, 36.8614], [140.7662, 36.8617], [140.7653, 36.8621], [140.7647, 36.8628], [140.7657, 36.8628], [140.7664, 36.8642], [140.7663, 36.8648], [140.7667, 36.8652], [140.7673, 36.865], [140.7671, 36.8653], [140.7664, 36.8653], [140.7663, 36.8659], [140.7658, 36.8663], [140.7654, 36.8679], [140.7657, 36.8684], [140.7653, 36.8679], [140.7656, 36.8664], [140.7662, 36.8651], [140.766, 36.8649], [140.7661, 36.8643], [140.7655, 36.8629], [140.7649, 36.8631], [140.7639, 36.8628], [140.7632, 36.8635], [140.7632, 36.8639], [140.7638, 36.8645], [140.764, 36.8653], [140.7647, 36.8659], [140.7643, 36.8667], [140.7636, 36.8668], [140.7643, 36.8665], [140.7644, 36.8661], [140.7639, 36.8656], [140.7637, 36.8646], [140.7632, 36.8642], [140.7627, 36.8645], [140.7627, 36.8652], [140.7616, 36.8658], [140.7612, 36.8667], [140.7594, 36.8669], [140.7604, 36.8694], [140.7602, 36.8702], [140.7609, 36.8705], [140.7619, 36.8703], [140.7612, 36.8707], [140.7606, 36.8707], [140.7601, 36.8721], [140.7596, 36.8722], [140.76, 36.8691], [140.7591, 36.8678], [140.7582, 36.8672], [140.7558, 36.8687], [140.7556, 36.8693], [140.755, 36.8698], [140.7529, 36.8698], [140.7519, 36.8702], [140.7495, 36.8701], [140.7487, 36.8703], [140.7479, 36.8712], [140.7471, 36.8715], [140.7457, 36.8713], [140.7448, 36.8721], [140.7447, 36.8729], [140.7433, 36.8731], [140.743, 36.8743], [140.7407, 36.8756], [140.7379, 36.8736], [140.7369, 36.8734], [140.7367, 36.8729], [140.7356, 36.8728], [140.735, 36.8724], [140.7339, 36.8713], [140.7336, 36.8717], [140.7312, 36.8724], [140.7308, 36.8728], [140.731, 36.8731], [140.7308, 36.8738], [140.7297, 36.8743], [140.7278, 36.8743], [140.7267, 36.8746], [140.7252, 36.8744], [140.7236, 36.8735], [140.7231, 36.8724], [140.7234, 36.8711], [140.7212, 36.8708], [140.7202, 36.8714], [140.7197, 36.8726], [140.7167, 36.8724], [140.7132, 36.8735], [140.7103, 36.8761], [140.7096, 36.8772], [140.7082, 36.8776], [140.7078, 36.8781], [140.7057, 36.8785], [140.7051, 36.8803], [140.706, 36.8811], [140.706, 36.8815], [140.7036, 36.882], [140.7034, 36.8829], [140.7025, 36.8835], [140.701, 36.8837], [140.6989, 36.8836], [140.6964, 36.8861], [140.6968, 36.8875], [140.6955, 36.8882], [140.6951, 36.8888], [140.6934, 36.8885], [140.6923, 36.8875], [140.6908, 36.8885], [140.6888, 36.8882], [140.6881, 36.8885], [140.6885, 36.8892], [140.6882, 36.8895], [140.6868, 36.8902], [140.6835, 36.8907], [140.6801, 36.8934], [140.6792, 36.8931], [140.6757, 36.8938], [140.6735, 36.8932], [140.6726, 36.8937], [140.6719, 36.8935], [140.6708, 36.8938], [140.6702, 36.8944], [140.668, 36.8951], [140.6665, 36.8951], [140.6643, 36.8966], [140.6629, 36.8964], [140.6616, 36.8968], [140.66, 36.8967], [140.6576, 36.8974], [140.6561, 36.8972], [140.655, 36.8988], [140.6549, 36.9011], [140.6509, 36.8998], [140.647, 36.9011], [140.6467, 36.9008], [140.6466, 36.8997], [140.6463, 36.8994], [140.6444, 36.899], [140.6419, 36.8991], [140.6369, 36.8976], [140.636, 36.8977], [140.6353, 36.899], [140.6337, 36.8991], [140.6307, 36.9], [140.6304, 36.9008], [140.6283, 36.9015], [140.6277, 36.9028], [140.6258, 36.902], [140.6252, 36.9026], [140.6238, 36.9027], [140.6223, 36.9033], [140.6218, 36.9033], [140.621, 36.9025], [140.6177, 36.9034], [140.6153, 36.9034], [140.6146, 36.9043], [140.6155, 36.9068], [140.6146, 36.9074], [140.6141, 36.9087], [140.6131, 36.9094], [140.6128, 36.9106], [140.6115, 36.9103], [140.6109, 36.9104], [140.6097, 36.9115], [140.609, 36.9117], [140.6072, 36.9129], [140.6067, 36.9146], [140.6047, 36.9166], [140.6039, 36.9182], [140.603, 36.9188], [140.6028, 36.92], [140.6007, 36.9209], [140.6006, 36.9218], [140.6012, 36.9228], [140.5992, 36.9235], [140.598, 36.9251], [140.595, 36.9258], [140.5927, 36.9267], [140.5928, 36.9273], [140.594, 36.9283], [140.5935, 36.9288], [140.5944, 36.9301], [140.5939, 36.9314], [140.5946, 36.9323], [140.5941, 36.933], [140.5938, 36.9343], [140.5925, 36.936], [140.5943, 36.9377], [140.5944, 36.9382], [140.5936, 36.939], [140.5928, 36.9393], [140.5917, 36.9381], [140.5896, 36.9393], [140.5888, 36.9403], [140.5879, 36.9437], [140.5872, 36.9445], [140.5861, 36.9448], [140.5843, 36.9441], [140.5836, 36.9426], [140.583, 36.9424], [140.5792, 36.9415], [140.5776, 36.942], [140.576, 36.9418], [140.5755, 36.9412], [140.5757, 36.9392], [140.5755, 36.939], [140.5733, 36.9396], [140.5726, 36.9395], [140.5702, 36.9381], [140.5687, 36.9377], [140.5676, 36.9368], [140.5673, 36.935], [140.5683, 36.9332], [140.5703, 36.932], [140.5706, 36.9313], [140.5678, 36.9249], [140.568, 36.9227], [140.5673, 36.9209], [140.5679, 36.9203], [140.568, 36.919], [140.5663, 36.9173], [140.5662, 36.9168], [140.5654, 36.9162], [140.5648, 36.9145], [140.5649, 36.913], [140.5652, 36.9126], [140.5665, 36.9131], [140.5673, 36.9138], [140.5682, 36.914], [140.5686, 36.9138], [140.5701, 36.9117], [140.5707, 36.9118], [140.5715, 36.9125], [140.5719, 36.9125], [140.574, 36.9107], [140.5739, 36.9087], [140.5757, 36.908], [140.5764, 36.9067], [140.5771, 36.9065], [140.5787, 36.9052], [140.5808, 36.9042], [140.581, 36.9026], [140.5802, 36.9011], [140.5807, 36.9003], [140.5797, 36.8991], [140.58, 36.898], [140.5795, 36.8961], [140.5798, 36.8954], [140.58, 36.8936], [140.5808, 36.893], [140.5817, 36.8935], [140.5825, 36.8933], [140.5828, 36.8926], [140.5838, 36.8914], [140.5836, 36.8909], [140.5838, 36.8902], [140.5863, 36.8878], [140.5858, 36.8866], [140.5863, 36.8863], [140.5871, 36.8864], [140.588, 36.8852], [140.5893, 36.885], [140.59, 36.8846], [140.5917, 36.8817], [140.5924, 36.8813], [140.5933, 36.8801], [140.593, 36.8785], [140.5932, 36.8769], [140.5919, 36.8729], [140.5934, 36.8729], [140.5938, 36.8724], [140.5914, 36.8725], [140.5897, 36.8734], [140.5893, 36.8745], [140.5865, 36.8727], [140.5846, 36.8695], [140.5826, 36.8678], [140.5812, 36.8674], [140.5804, 36.8668], [140.5786, 36.8682], [140.5773, 36.8687], [140.5757, 36.8687], [140.5747, 36.8673], [140.5727, 36.8659], [140.5729, 36.8648], [140.5724, 36.8641], [140.5709, 36.8639], [140.5688, 36.8641], [140.5676, 36.8631], [140.5659, 36.8639], [140.5653, 36.8639], [140.565, 36.8633], [140.5648, 36.862], [140.5609, 36.8636], [140.5596, 36.8629], [140.5596, 36.8621], [140.5586, 36.8614], [140.5573, 36.8624], [140.5556, 36.8618], [140.5545, 36.8624], [140.5542, 36.8618], [140.5522, 36.8612], [140.5513, 36.8596], [140.5503, 36.8595], [140.5497, 36.8591], [140.5486, 36.8593], [140.5469, 36.8582], [140.5454, 36.8581], [140.5441, 36.8586], [140.5429, 36.8586], [140.5411, 36.8597], [140.5394, 36.8592], [140.5376, 36.8591], [140.5377, 36.8577], [140.5374, 36.8573], [140.538, 36.8556], [140.5374, 36.8554], [140.5371, 36.8546], [140.5363, 36.8544], [140.5356, 36.8538], [140.535, 36.8523], [140.5331, 36.8512], [140.5327, 36.8507], [140.5326, 36.8501], [140.5317, 36.8502], [140.5302, 36.8492], [140.5292, 36.8491], [140.5279, 36.8484], [140.5279, 36.8473], [140.5284, 36.8471], [140.5286, 36.8464], [140.5288, 36.8446], [140.5283, 36.8438], [140.529, 36.8423], [140.5286, 36.8413], [140.5291, 36.8402], [140.5277, 36.8397], [140.5267, 36.839], [140.5231, 36.8385], [140.5222, 36.838], [140.5221, 36.8374], [140.5217, 36.837], [140.5206, 36.837], [140.5195, 36.8365], [140.5197, 36.8349], [140.5193, 36.8333], [140.5173, 36.8328], [140.5178, 36.8313], [140.5175, 36.8298], [140.5168, 36.8292], [140.5172, 36.8281], [140.5168, 36.827], [140.5158, 36.8257], [140.5145, 36.8247], [140.514, 36.8235], [140.5117, 36.8232], [140.5117, 36.8222], [140.5105, 36.8219], [140.5082, 36.8221], [140.5066, 36.8229], [140.5044, 36.8233], [140.5036, 36.8227], [140.503, 36.8213], [140.5035, 36.8202], [140.5034, 36.8195], [140.5015, 36.8181], [140.4993, 36.8192], [140.4968, 36.819], [140.4959, 36.818], [140.4949, 36.8182], [140.4943, 36.8186], [140.4937, 36.8182], [140.4931, 36.8186], [140.4932, 36.8192], [140.4927, 36.8193], [140.4921, 36.8191], [140.4913, 36.8195], [140.4909, 36.8193], [140.4908, 36.8186], [140.4881, 36.8184], [140.4873, 36.8176], [140.4883, 36.8172], [140.4879, 36.815], [140.4884, 36.8147], [140.4896, 36.8135], [140.4893, 36.8129], [140.4896, 36.8123], [140.4892, 36.811], [140.4894, 36.8096], [140.4855, 36.8082], [140.4852, 36.8072], [140.484, 36.8064], [140.4832, 36.8051], [140.4806, 36.8037], [140.4802, 36.8025], [140.4799, 36.7996], [140.4783, 36.7987], [140.478, 36.7982], [140.4785, 36.7971], [140.4757, 36.7967], [140.4747, 36.7958], [140.4733, 36.7958], [140.4722, 36.7949], [140.4674, 36.7922], [140.4642, 36.7915], [140.463, 36.7922], [140.4618, 36.7938], [140.4619, 36.7946], [140.4613, 36.7951], [140.4613, 36.796], [140.4619, 36.7973], [140.4614, 36.7977], [140.4599, 36.7978], [140.459, 36.7986], [140.4583, 36.7984], [140.4571, 36.7985], [140.4578, 36.7997], [140.4566, 36.8006], [140.4569, 36.801], [140.4567, 36.8018], [140.4545, 36.8024], [140.4542, 36.803], [140.4533, 36.803], [140.4529, 36.8052], [140.4521, 36.8054], [140.4519, 36.8061], [140.4511, 36.8062], [140.4503, 36.8089], [140.4497, 36.8089], [140.4493, 36.8095], [140.4474, 36.8091], [140.447, 36.8098], [140.4466, 36.81], [140.4453, 36.8115], [140.4452, 36.8123], [140.4442, 36.8127], [140.4448, 36.8138], [140.444, 36.8141], [140.444, 36.8149], [140.4434, 36.8154], [140.4435, 36.816], [140.4428, 36.8166], [140.4418, 36.8168], [140.4417, 36.8172], [140.4402, 36.8181], [140.4403, 36.8191], [140.4395, 36.8201], [140.4396, 36.8206], [140.4387, 36.8211], [140.4383, 36.8219], [140.4369, 36.8212], [140.4359, 36.8215], [140.4359, 36.8209], [140.4352, 36.82], [140.4336, 36.8192], [140.4333, 36.8184], [140.4312, 36.8173], [140.43, 36.8186], [140.4299, 36.819], [140.4285, 36.8196], [140.4267, 36.8211], [140.424, 36.8203], [140.4231, 36.8206], [140.4231, 36.821], [140.4225, 36.8213], [140.4222, 36.822], [140.4212, 36.8222], [140.4214, 36.8227], [140.4221, 36.823], [140.4223, 36.8241], [140.421, 36.8249], [140.4206, 36.8257], [140.4199, 36.8261], [140.4198, 36.8265], [140.4192, 36.8267], [140.4184, 36.8266], [140.4175, 36.8273], [140.4172, 36.828], [140.4161, 36.8284], [140.4157, 36.8294], [140.4146, 36.8308], [140.4152, 36.8323], [140.4148, 36.833], [140.4142, 36.833], [140.4124, 36.8313], [140.4101, 36.8302], [140.4082, 36.8318], [140.407, 36.8322], [140.4028, 36.8313], [140.4011, 36.8321], [140.4005, 36.8319], [140.3996, 36.832], [140.3979, 36.8327], [140.3974, 36.8332], [140.3953, 36.8324], [140.3928, 36.8325], [140.3911, 36.8334], [140.389, 36.834], [140.387, 36.8341], [140.3855, 36.836], [140.3826, 36.8357], [140.377, 36.8381], [140.3759, 36.8413], [140.376, 36.842], [140.3772, 36.8426], [140.3777, 36.8435], [140.3762, 36.8446], [140.3763, 36.846], [140.3767, 36.8469], [140.3753, 36.8487], [140.3751, 36.8507], [140.3724, 36.8533], [140.3716, 36.8552], [140.3705, 36.855], [140.3718, 36.8566], [140.3718, 36.8585], [140.3724, 36.8594], [140.3719, 36.8603], [140.3709, 36.8605], [140.3702, 36.861], [140.3688, 36.8649], [140.3681, 36.8655], [140.3688, 36.8674], [140.3695, 36.8677], [140.3696, 36.8683], [140.372, 36.8702], [140.3725, 36.871], [140.3716, 36.8714], [140.3703, 36.8739], [140.3692, 36.8746], [140.369, 36.875], [140.3694, 36.8761], [140.3685, 36.8771], [140.3684, 36.8786], [140.3677, 36.8807], [140.3666, 36.8816], [140.3658, 36.8828], [140.3659, 36.8833], [140.3651, 36.8845], [140.3637, 36.8843], [140.3629, 36.8851], [140.3625, 36.885], [140.3608, 36.8857], [140.3599, 36.8852], [140.3583, 36.8852], [140.3554, 36.8844], [140.3547, 36.8849], [140.353, 36.8852], [140.3526, 36.8861], [140.3513, 36.8865], [140.3494, 36.8863], [140.3478, 36.8852], [140.3463, 36.8849], [140.3439, 36.8856], [140.3436, 36.8861], [140.341, 36.8862], [140.34, 36.8865], [140.3385, 36.8874], [140.3376, 36.8873], [140.3366, 36.8886], [140.335, 36.8885], [140.3336, 36.8889], [140.33, 36.891], [140.3265, 36.8914], [140.3254, 36.8928], [140.3241, 36.8933], [140.3238, 36.8936], [140.3241, 36.896], [140.323, 36.8993], [140.3232, 36.9022], [140.3221, 36.9048], [140.322, 36.9071], [140.3217, 36.9079], [140.3181, 36.9107], [140.3173, 36.9132], [140.3155, 36.9136], [140.313, 36.9157], [140.3112, 36.916], [140.3099, 36.9181], [140.3077, 36.9193], [140.3073, 36.9216], [140.3061, 36.9235], [140.3031, 36.9253], [140.3028, 36.9257], [140.3029, 36.9269], [140.3004, 36.928], [140.2984, 36.9294], [140.2969, 36.929], [140.2955, 36.9303], [140.2947, 36.9307], [140.2943, 36.9315], [140.2926, 36.9331], [140.2906, 36.9329], [140.2889, 36.9332], [140.2859, 36.9354], [140.2848, 36.9355], [140.2823, 36.935], [140.2798, 36.9339], [140.2792, 36.9325], [140.2774, 36.9312], [140.2741, 36.9306], [140.2731, 36.9301], [140.2692, 36.9316], [140.2656, 36.9333], [140.2627, 36.9331], [140.2607, 36.9336], [140.2575, 36.9328], [140.2559, 36.9314], [140.2552, 36.9304], [140.254, 36.9301], [140.2525, 36.929], [140.2525, 36.9281], [140.2518, 36.9266], [140.2519, 36.9259], [140.2512, 36.9254], [140.2509, 36.9245], [140.2502, 36.9238], [140.2489, 36.9233], [140.249, 36.9224], [140.2483, 36.9212], [140.2486, 36.9196], [140.2501, 36.9175], [140.2497, 36.9166], [140.25, 36.9153], [140.2494, 36.9143], [140.2496, 36.9131], [140.2487, 36.9118], [140.2492, 36.9106], [140.2487, 36.9089], [140.2489, 36.9077], [140.2501, 36.9068], [140.2505, 36.906], [140.2505, 36.905], [140.25, 36.9045], [140.2506, 36.904], [140.2506, 36.9007], [140.2518, 36.8981], [140.2513, 36.8971], [140.2529, 36.8963], [140.2534, 36.8951], [140.2529, 36.8941], [140.2541, 36.8911], [140.2536, 36.8903], [140.2538, 36.8894], [140.2533, 36.8879], [140.2536, 36.8871], [140.2529, 36.8859], [140.2547, 36.8845], [140.2552, 36.8834], [140.2544, 36.8831], [140.2542, 36.8822], [140.2537, 36.8819], [140.2544, 36.8804], [140.2538, 36.8778], [140.2541, 36.8772], [140.2552, 36.8764], [140.2556, 36.8747], [140.2563, 36.8741], [140.2566, 36.8733], [140.254, 36.8695], [140.2544, 36.8679], [140.2549, 36.8674], [140.2545, 36.8662], [140.254, 36.8656], [140.254, 36.864], [140.2536, 36.8634], [140.2539, 36.8626], [140.2537, 36.8611], [140.2542, 36.8607], [140.2543, 36.86], [140.2533, 36.8589], [140.2528, 36.8555], [140.2517, 36.8547], [140.2519, 36.854], [140.2514, 36.8524], [140.2522, 36.8517], [140.252, 36.8509], [140.2528, 36.8502], [140.2526, 36.8496], [140.2552, 36.8485], [140.2563, 36.8485], [140.2569, 36.8482], [140.2571, 36.8469], [140.2563, 36.8463], [140.2564, 36.8449], [140.2558, 36.8443], [140.2549, 36.8423], [140.2554, 36.8415], [140.2554, 36.8406], [140.2564, 36.84], [140.2564, 36.8395], [140.2572, 36.8384], [140.2582, 36.8386], [140.2596, 36.838], [140.2614, 36.8381], [140.2627, 36.8364], [140.2628, 36.8355], [140.2623, 36.8349], [140.2626, 36.8338], [140.2621, 36.8329], [140.2625, 36.8318], [140.263, 36.832], [140.2635, 36.8318], [140.2635, 36.8309], [140.2639, 36.8305], [140.2645, 36.8305], [140.2655, 36.8289], [140.2647, 36.828], [140.2657, 36.8264], [140.2654, 36.826], [140.2668, 36.8247], [140.267, 36.8236], [140.2661, 36.8223], [140.2666, 36.8212], [140.2662, 36.819], [140.2669, 36.8186], [140.2673, 36.8178], [140.2665, 36.817], [140.2668, 36.8158], [140.2665, 36.8149], [140.2668, 36.8145], [140.2664, 36.814], [140.2665, 36.8132], [140.2657, 36.8128], [140.2647, 36.8126], [140.2643, 36.8118], [140.2636, 36.8113], [140.2631, 36.8102], [140.2647, 36.8086], [140.2647, 36.8055], [140.2644, 36.8042], [140.2658, 36.8035], [140.2661, 36.801], [140.2669, 36.7994], [140.2663, 36.7959], [140.2645, 36.795], [140.2644, 36.7947], [140.2657, 36.7942], [140.2655, 36.7935], [140.2659, 36.793], [140.2658, 36.7926], [140.2663, 36.7905], [140.2654, 36.7897], [140.2651, 36.7884], [140.2642, 36.7877], [140.2643, 36.787], [140.2636, 36.7859], [140.2623, 36.7856], [140.2613, 36.7866], [140.2591, 36.7859], [140.2585, 36.7853], [140.2567, 36.7852], [140.2563, 36.7842], [140.2549, 36.7838], [140.2536, 36.7837], [140.2534, 36.7833], [140.2535, 36.7828], [140.2546, 36.7812], [140.2555, 36.7804], [140.255, 36.7797], [140.2553, 36.7785], [140.2571, 36.7776], [140.2573, 36.7769], [140.2565, 36.7765], [140.2563, 36.7754], [140.2542, 36.7752], [140.2536, 36.7746], [140.2558, 36.7722], [140.2579, 36.7716], [140.2581, 36.7712], [140.2586, 36.7711], [140.2588, 36.7705], [140.2593, 36.7703], [140.2594, 36.7692], [140.2606, 36.7684], [140.261, 36.7677], [140.2603, 36.7666], [140.2589, 36.7661], [140.2572, 36.7663], [140.2564, 36.766], [140.2552, 36.7644], [140.2558, 36.7634], [140.2552, 36.7621], [140.2553, 36.7614], [140.2557, 36.7611], [140.2548, 36.7599], [140.2565, 36.7576], [140.2566, 36.757], [140.2579, 36.7568], [140.2582, 36.7559], [140.259, 36.7555], [140.2595, 36.7548], [140.2589, 36.7535], [140.2599, 36.7523], [140.2605, 36.7523], [140.2622, 36.7483], [140.2644, 36.7478], [140.2666, 36.746], [140.2673, 36.7452], [140.2681, 36.7434], [140.2691, 36.7423], [140.2707, 36.7426], [140.2715, 36.7413], [140.2728, 36.7407], [140.2734, 36.7399], [140.2774, 36.7389], [140.2778, 36.7377], [140.2797, 36.7359], [140.2808, 36.736], [140.2815, 36.7359], [140.2821, 36.7347], [140.283, 36.7343], [140.2836, 36.7331], [140.2847, 36.7324], [140.2851, 36.7311], [140.2848, 36.7307], [140.2848, 36.7302], [140.2856, 36.7296], [140.2858, 36.7289], [140.2867, 36.7281], [140.2865, 36.7277], [140.287, 36.7269], [140.2874, 36.7267], [140.2876, 36.7254], [140.2865, 36.7236], [140.2868, 36.723], [140.2877, 36.7232], [140.288, 36.722], [140.2874, 36.7214], [140.2882, 36.7202], [140.2872, 36.7184], [140.2896, 36.717], [140.2898, 36.7155], [140.2903, 36.7151], [140.2903, 36.7145], [140.2907, 36.7139], [140.2925, 36.7126], [140.2917, 36.7123], [140.2898, 36.7121], [140.2876, 36.7121], [140.2857, 36.7125], [140.2835, 36.7112], [140.2835, 36.7097], [140.2821, 36.7078], [140.2803, 36.7073], [140.2787, 36.7073], [140.2772, 36.707], [140.2758, 36.7073], [140.2752, 36.7081], [140.272, 36.707], [140.271, 36.7062], [140.2707, 36.7046], [140.268, 36.7022], [140.2667, 36.7027], [140.2623, 36.7022], [140.2611, 36.7013], [140.2602, 36.7012], [140.2587, 36.7014], [140.2563, 36.703], [140.2528, 36.702], [140.2519, 36.7019], [140.2508, 36.7023], [140.2481, 36.702], [140.2466, 36.7023], [140.2456, 36.7014], [140.2439, 36.6974], [140.2429, 36.6979], [140.2418, 36.6977], [140.2411, 36.6978], [140.2409, 36.699], [140.2401, 36.6993], [140.2386, 36.6991], [140.237, 36.6996], [140.2359, 36.6992], [140.2342, 36.7001], [140.2342, 36.7005], [140.234, 36.7006], [140.2315, 36.6999], [140.2298, 36.6989], [140.2291, 36.6982], [140.229, 36.6974], [140.228, 36.6966], [140.2272, 36.6949], [140.2271, 36.6933], [140.2267, 36.6924], [140.2243, 36.6904], [140.2236, 36.6885], [140.2222, 36.6882], [140.2203, 36.687], [140.2206, 36.685], [140.2202, 36.6843], [140.2209, 36.6836], [140.2225, 36.684], [140.2233, 36.6835], [140.2235, 36.681], [140.224, 36.6808], [140.2244, 36.6801], [140.2241, 36.6793], [140.225, 36.6775], [140.2243, 36.6769], [140.2235, 36.6768], [140.2222, 36.6775], [140.2216, 36.6775], [140.2214, 36.6772], [140.2222, 36.6758], [140.2219, 36.6752], [140.2215, 36.6749], [140.2215, 36.6742], [140.2228, 36.6729], [140.2237, 36.673], [140.2252, 36.6726], [140.2257, 36.6727], [140.2261, 36.6723], [140.2273, 36.6722], [140.2277, 36.6716], [140.2293, 36.6713], [140.2313, 36.6702], [140.2317, 36.667], [140.2326, 36.6662], [140.233, 36.6654], [140.2325, 36.6649], [140.2319, 36.6634], [140.2312, 36.6631], [140.23, 36.6631], [140.2294, 36.6626], [140.2295, 36.6621], [140.2303, 36.6614], [140.2312, 36.6613], [140.231, 36.6609], [140.2315, 36.6599], [140.2334, 36.659], [140.234, 36.658], [140.2358, 36.6573], [140.2357, 36.6564], [140.2365, 36.6559], [140.2369, 36.6552], [140.237, 36.6541], [140.2374, 36.6538], [140.2378, 36.654], [140.2382, 36.6539], [140.239, 36.6527], [140.24, 36.6522], [140.2409, 36.651], [140.241, 36.649], [140.2398, 36.6479], [140.2391, 36.6457], [140.2398, 36.6443], [140.2414, 36.6432], [140.2415, 36.6416], [140.242, 36.6409], [140.2414, 36.6391], [140.2419, 36.6387], [140.2419, 36.6378], [140.2427, 36.6371], [140.2428, 36.6366], [140.2413, 36.6358], [140.2375, 36.6352], [140.2366, 36.6343], [140.2357, 36.6342], [140.2344, 36.6345], [140.2337, 36.634], [140.2342, 36.6334], [140.2343, 36.6317], [140.2351, 36.6283], [140.2356, 36.6277], [140.2347, 36.627], [140.235, 36.6265], [140.2347, 36.6259], [140.2349, 36.6253], [140.2348, 36.6237], [140.2355, 36.6231], [140.2363, 36.623], [140.2388, 36.6248], [140.2397, 36.625], [140.2399, 36.6243], [140.2405, 36.624], [140.2412, 36.623], [140.2429, 36.6216], [140.2435, 36.6194], [140.2445, 36.6187], [140.2453, 36.6174], [140.2459, 36.6152], [140.2456, 36.6141], [140.2476, 36.6123], [140.2484, 36.611], [140.2487, 36.6096], [140.2483, 36.607], [140.2485, 36.6046], [140.2492, 36.6035], [140.2489, 36.6025], [140.2494, 36.6019], [140.2489, 36.6006], [140.2492, 36.5997], [140.2478, 36.5972], [140.247, 36.5968], [140.2472, 36.5962], [140.2468, 36.5949], [140.2461, 36.5943], [140.2455, 36.5912], [140.2437, 36.5886], [140.2436, 36.5872], [140.2437, 36.5868], [140.244, 36.5867], [140.244, 36.5859], [140.2432, 36.5849], [140.2432, 36.5846], [140.2443, 36.5837], [140.2439, 36.583], [140.244, 36.5825], [140.2453, 36.5825], [140.2457, 36.582], [140.245, 36.5796], [140.2447, 36.5757], [140.2442, 36.5751], [140.2426, 36.5743], [140.2451, 36.5723], [140.2458, 36.5704], [140.2455, 36.5699], [140.2457, 36.5688], [140.2468, 36.5675], [140.2461, 36.5669], [140.2464, 36.5665], [140.2455, 36.5663], [140.2456, 36.5659], [140.2467, 36.5647], [140.2453, 36.5646], [140.2439, 36.5628], [140.2467, 36.5596], [140.2486, 36.5582], [140.2497, 36.556], [140.251, 36.5555], [140.2516, 36.5546], [140.2511, 36.552], [140.25, 36.551], [140.2488, 36.5496], [140.2475, 36.549], [140.247, 36.5481], [140.2481, 36.5444], [140.2481, 36.5387], [140.2472, 36.5374], [140.2478, 36.5362], [140.2477, 36.5345], [140.2491, 36.532], [140.2504, 36.53], [140.252, 36.5293], [140.2529, 36.5277], [140.2532, 36.5265], [140.2524, 36.5252], [140.2525, 36.5246], [140.2537, 36.5238], [140.255, 36.5219], [140.2593, 36.5196], [140.2595, 36.5183], [140.2602, 36.5173], [140.258, 36.5164], [140.2564, 36.5166], [140.2558, 36.5163], [140.2542, 36.5164], [140.2514, 36.515], [140.2473, 36.5151], [140.2471, 36.5144], [140.2476, 36.5137], [140.2474, 36.5123], [140.2485, 36.5113], [140.2491, 36.508], [140.2473, 36.5074], [140.2444, 36.507], [140.2436, 36.5074], [140.2423, 36.5075], [140.2425, 36.5063], [140.2409, 36.5051], [140.2415, 36.5039], [140.2413, 36.5032], [140.2408, 36.5028], [140.24, 36.5028], [140.2395, 36.5035], [140.2386, 36.5035], [140.2382, 36.504], [140.2358, 36.5047], [140.2352, 36.5031], [140.2337, 36.5026], [140.2325, 36.5034], [140.2315, 36.5029], [140.2304, 36.5032], [140.2301, 36.5026], [140.2294, 36.5025], [140.2294, 36.5018], [140.2299, 36.5012], [140.2299, 36.5005], [140.2307, 36.5], [140.2311, 36.4992], [140.2308, 36.4985], [140.2312, 36.4977], [140.2307, 36.4971], [140.2306, 36.4961], [140.2299, 36.4955], [140.2298, 36.4939], [140.2303, 36.4932], [140.23, 36.4917], [140.2294, 36.4909], [140.2285, 36.4904], [140.2267, 36.4887], [140.2268, 36.4881], [140.2276, 36.4872], [140.2273, 36.4862], [140.2261, 36.4851], [140.2257, 36.4844], [140.2243, 36.4843], [140.2234, 36.4819], [140.2217, 36.4807], [140.2212, 36.4805], [140.2193, 36.4806], [140.2166, 36.479], [140.2147, 36.4763], [140.2145, 36.4748], [140.2121, 36.4712], [140.2123, 36.4702], [140.213, 36.4694], [140.213, 36.4673], [140.2109, 36.4661], [140.2104, 36.4653], [140.2093, 36.4653], [140.2084, 36.4646], [140.2072, 36.4623], [140.2076, 36.4591], [140.2071, 36.4581], [140.2072, 36.457], [140.2058, 36.4564], [140.2044, 36.4552], [140.2026, 36.4543], [140.203, 36.4524], [140.2029, 36.4506], [140.204, 36.4495], [140.2042, 36.4484], [140.2061, 36.4465], [140.2047, 36.4443], [140.2046, 36.4434], [140.2035, 36.4426], [140.2025, 36.44], [140.2013, 36.4383], [140.2015, 36.4372], [140.2012, 36.4364], [140.2021, 36.4329], [140.2013, 36.4323], [140.2012, 36.4316], [140.2018, 36.4295], [140.2034, 36.4287], [140.2032, 36.4275], [140.2035, 36.4267], [140.2022, 36.4239], [140.2031, 36.4225], [140.2032, 36.4206], [140.2024, 36.4202], [140.2009, 36.4185], [140.2002, 36.4172], [140.1984, 36.4157], [140.198, 36.4139], [140.1983, 36.4133], [140.1977, 36.4119], [140.1968, 36.4116], [140.1956, 36.4092], [140.1939, 36.4082], [140.1936, 36.4074], [140.1928, 36.4066], [140.1924, 36.4056], [140.1927, 36.4047], [140.1919, 36.4043], [140.1896, 36.4041], [140.1891, 36.4039], [140.1893, 36.4023], [140.1863, 36.4013], [140.1857, 36.4003], [140.1858, 36.3995], [140.1852, 36.3984], [140.1842, 36.3984], [140.1809, 36.3975], [140.1784, 36.3975], [140.1754, 36.399], [140.1736, 36.3987], [140.1728, 36.3992], [140.1711, 36.3993], [140.1694, 36.399], [140.1688, 36.3992], [140.168, 36.4001], [140.1655, 36.4004], [140.165, 36.4003], [140.1643, 36.3996], [140.1627, 36.3995], [140.1625, 36.3992], [140.1593, 36.3982], [140.1563, 36.3983], [140.1535, 36.4014], [140.1521, 36.4025], [140.1501, 36.4055], [140.1488, 36.4066], [140.1484, 36.4084], [140.147, 36.4103], [140.1453, 36.4116], [140.1454, 36.4127], [140.1444, 36.4142], [140.1419, 36.4131], [140.1414, 36.4122], [140.1407, 36.4121], [140.1355, 36.413], [140.1325, 36.4149], [140.1315, 36.4145], [140.1276, 36.4139], [140.1245, 36.4142], [140.1236, 36.414], [140.1181, 36.4113], [140.115, 36.411], [140.1136, 36.4095], [140.1131, 36.4095], [140.1119, 36.4084], [140.1099, 36.4076], [140.1095, 36.4071], [140.1093, 36.4058], [140.1098, 36.4047], [140.1105, 36.4042], [140.1099, 36.4017], [140.1112, 36.3981], [140.1091, 36.3981], [140.1082, 36.397], [140.1062, 36.396], [140.1052, 36.3949], [140.1031, 36.3942], [140.1017, 36.3942], [140.1006, 36.3938], [140.1001, 36.3941], [140.0995, 36.3948], [140.1014, 36.3968], [140.0993, 36.398], [140.0979, 36.3978], [140.0961, 36.3984], [140.0923, 36.4015], [140.0918, 36.4014], [140.0914, 36.4008], [140.0904, 36.4006], [140.0894, 36.3983], [140.0883, 36.3981], [140.0865, 36.3993], [140.0852, 36.3995], [140.0849, 36.4014], [140.0811, 36.4034], [140.0798, 36.4031], [140.0771, 36.4041], [140.0748, 36.4036], [140.0682, 36.4031], [140.0664, 36.404], [140.0658, 36.4031], [140.0658, 36.402], [140.0649, 36.4008], [140.0654, 36.3994], [140.065, 36.397], [140.0658, 36.3946], [140.0679, 36.3925], [140.0687, 36.3921], [140.0684, 36.3907], [140.069, 36.3891], [140.0688, 36.3886], [140.0684, 36.388], [140.067, 36.3873], [140.0665, 36.3855], [140.0645, 36.3838], [140.0639, 36.3829], [140.0638, 36.382], [140.0632, 36.3818], [140.0624, 36.3811], [140.0611, 36.3809], [140.0605, 36.3801], [140.0591, 36.3805], [140.0585, 36.38], [140.0571, 36.38], [140.0559, 36.3793], [140.0552, 36.3782], [140.0543, 36.3782], [140.0535, 36.3778], [140.0518, 36.3779], [140.0495, 36.3761], [140.0481, 36.3757], [140.0463, 36.3756], [140.0444, 36.375], [140.0424, 36.3754], [140.04, 36.3751], [140.0385, 36.3768], [140.0375, 36.377], [140.0371, 36.3776], [140.0361, 36.3776], [140.0351, 36.3781], [140.0345, 36.3779], [140.0307, 36.378], [140.03, 36.3767], [140.0285, 36.3771], [140.0271, 36.3769], [140.0269, 36.3757], [140.0265, 36.3754], [140.025, 36.3757], [140.0233, 36.3756], [140.0219, 36.3757], [140.0215, 36.3768], [140.0195, 36.3758], [140.0165, 36.3761], [140.0159, 36.3758], [140.0156, 36.3745], [140.0144, 36.3748], [140.0152, 36.3765], [140.0157, 36.3764], [140.0162, 36.3766], [140.0154, 36.3773], [140.0147, 36.3774], [140.0127, 36.3761], [140.0122, 36.3754], [140.0119, 36.3734], [140.0113, 36.3732], [140.0103, 36.3734], [140.0086, 36.3743], [140.0088, 36.3749], [140.003, 36.3759], [140.0004, 36.3766], [140.0004, 36.3747], [140.0015, 36.3742], [140.0011, 36.3736], [140.0012, 36.373], [140.0034, 36.3706], [140.0034, 36.3703], [140.0025, 36.3706], [140.0022, 36.3704], [140.0021, 36.3688], [140.0018, 36.3688], [140.0012, 36.3682], [140.0007, 36.3683], [139.9983, 36.3689], [139.9965, 36.3687], [139.9964, 36.3692], [139.994, 36.369], [139.992, 36.3694], [139.9908, 36.368], [139.9904, 36.3663], [139.99, 36.3664], [139.9901, 36.3668], [139.9887, 36.3676], [139.9882, 36.3673], [139.9871, 36.3677], [139.9851, 36.3678], [139.9841, 36.3687], [139.9842, 36.3692], [139.9823, 36.3702], [139.9812, 36.3703], [139.9794, 36.3698], [139.9784, 36.3722], [139.9761, 36.3728], [139.9746, 36.3743], [139.9744, 36.3777], [139.974, 36.3787], [139.9733, 36.3786], [139.9726, 36.3779], [139.9725, 36.3768], [139.9719, 36.3766], [139.9718, 36.3745], [139.9703, 36.3726], [139.9696, 36.3709], [139.9677, 36.3701], [139.9679, 36.3694], [139.967, 36.3688], [139.9666, 36.3689], [139.9654, 36.3674], [139.966, 36.3659], [139.9663, 36.366], [139.9655, 36.3636], [139.9657, 36.363], [139.9662, 36.3628], [139.9651, 36.3615], [139.9651, 36.3608], [139.9657, 36.3608], [139.966, 36.3603], [139.9657, 36.3595], [139.9651, 36.3588], [139.9653, 36.3582], [139.9645, 36.3583], [139.964, 36.3561], [139.9649, 36.356], [139.9652, 36.3522], [139.9647, 36.3508], [139.9609, 36.3509], [139.9601, 36.3506], [139.9586, 36.3506], [139.9588, 36.3501], [139.9527, 36.35], [139.9524, 36.3498], [139.95, 36.3497], [139.95, 36.3495], [139.9476, 36.3495], [139.9476, 36.3492], [139.9463, 36.3492], [139.9463, 36.3486], [139.9449, 36.3486], [139.9449, 36.3479], [139.9435, 36.3479], [139.9436, 36.347], [139.9413, 36.3468], [139.9347, 36.3455], [139.9351, 36.3433], [139.9292, 36.3435], [139.9275, 36.3431], [139.9252, 36.3419], [139.9223, 36.3416], [139.921, 36.3406], [139.9184, 36.3394], [139.9186, 36.339], [139.9179, 36.3387], [139.918, 36.3385], [139.916, 36.3388], [139.9151, 36.3365], [139.9149, 36.3363], [139.9136, 36.3363], [139.913, 36.3358], [139.9118, 36.3336], [139.9127, 36.327], [139.9108, 36.3122], [139.9113, 36.3105], [139.912, 36.3102], [139.9119, 36.3097], [139.9157, 36.3096], [139.916, 36.3089], [139.9156, 36.3077], [139.9119, 36.3031], [139.91, 36.3035], [139.9093, 36.3015], [139.9071, 36.3002], [139.9057, 36.2999], [139.9061, 36.298], [139.9056, 36.2973], [139.9055, 36.2977], [139.9045, 36.2975], [139.9039, 36.2989], [139.903, 36.2986], [139.9031, 36.2988], [139.9019, 36.2989], [139.9019, 36.2991], [139.9007, 36.2991], [139.9007, 36.3008], [139.9, 36.3005], [139.9001, 36.3015], [139.8992, 36.301], [139.8992, 36.3004], [139.8976, 36.3001], [139.8961, 36.3006], [139.8948, 36.3006], [139.8948, 36.3018], [139.8937, 36.3018], [139.8938, 36.3043], [139.8945, 36.3048], [139.8952, 36.3042], [139.8955, 36.3043], [139.8991, 36.3067], [139.8969, 36.3099], [139.8952, 36.3091], [139.8946, 36.31], [139.8931, 36.3093], [139.8916, 36.3092], [139.8901, 36.3105], [139.8874, 36.3116], [139.886, 36.3116], [139.8852, 36.312], [139.8842, 36.3117], [139.8824, 36.3104], [139.882, 36.3097], [139.8813, 36.3094], [139.8803, 36.3093], [139.8789, 36.31], [139.8782, 36.3115], [139.8782, 36.314], [139.8803, 36.3178], [139.8819, 36.3194], [139.882, 36.3209], [139.8811, 36.3228], [139.8747, 36.3231], [139.8754, 36.3205], [139.8744, 36.3209], [139.8717, 36.3182], [139.8733, 36.3178], [139.8733, 36.3175], [139.8719, 36.3178], [139.8723, 36.3163], [139.8722, 36.3148], [139.8718, 36.3151], [139.871, 36.315], [139.8709, 36.3142], [139.8697, 36.3143], [139.8696, 36.3139], [139.868, 36.3145], [139.8674, 36.3136], [139.865, 36.3156], [139.8642, 36.3151], [139.8626, 36.3129], [139.8595, 36.3116], [139.8579, 36.3105], [139.854, 36.3108], [139.8534, 36.3114], [139.85, 36.3118], [139.8487, 36.3113], [139.8469, 36.3098], [139.8452, 36.308], [139.8446, 36.306], [139.8434, 36.3057], [139.8419, 36.3022], [139.8405, 36.3009], [139.8392, 36.3003], [139.8377, 36.2971], [139.8366, 36.296], [139.8352, 36.294], [139.8349, 36.2921], [139.8362, 36.2874], [139.8407, 36.2794], [139.8414, 36.2774], [139.8413, 36.276], [139.8408, 36.2752], [139.8366, 36.2724], [139.8349, 36.2707], [139.8334, 36.2673], [139.8315, 36.2651], [139.8298, 36.2595], [139.8284, 36.2523], [139.8268, 36.2481], [139.8221, 36.242], [139.8217, 36.2408], [139.8219, 36.2395], [139.8066, 36.2347], [139.7855, 36.2276], [139.7856, 36.2269], [139.7853, 36.2265], [139.7827, 36.2268], [139.7809, 36.2263], [139.7771, 36.2245], [139.7754, 36.224], [139.7746, 36.2235], [139.7737, 36.2235], [139.772, 36.2231], [139.7601, 36.219], [139.7586, 36.2186], [139.7556, 36.2158], [139.755, 36.215], [139.7537, 36.2145], [139.749, 36.2114], [139.7456, 36.2099], [139.742, 36.2088], [139.7397, 36.2072], [139.737, 36.2057], [139.737, 36.2063], [139.7364, 36.2057], [139.7275, 36.2014], [139.727, 36.2018], [139.7267, 36.2032], [139.7269, 36.2049], [139.7267, 36.2061], [139.7242, 36.2065], [139.7238, 36.2067], [139.724, 36.207], [139.7233, 36.2073], [139.7229, 36.2073], [139.7228, 36.207], [139.72, 36.2078], [139.7202, 36.2081], [139.7198, 36.2081], [139.7195, 36.2087], [139.7202, 36.2106], [139.7198, 36.2106], [139.719, 36.2113], [139.7163, 36.2113], [139.7159, 36.2101], [139.7153, 36.2102], [139.7152, 36.2098], [139.7137, 36.2097], [139.711, 36.2102], [139.7109, 36.2099], [139.7103, 36.2099], [139.7098, 36.2091], [139.71, 36.2099], [139.7078, 36.2108], [139.707, 36.2104], [139.7058, 36.2092], [139.708, 36.2088], [139.7083, 36.2083], [139.708, 36.2075], [139.7088, 36.2073], [139.7083, 36.2061], [139.7075, 36.2062], [139.7077, 36.2056], [139.7067, 36.2023], [139.7063, 36.2018], [139.7042, 36.2033], [139.7022, 36.2039], [139.7016, 36.2032], [139.6982, 36.2033], [139.6988, 36.2056], [139.6987, 36.2066], [139.6961, 36.2061], [139.6925, 36.2069], [139.6917, 36.2066], [139.6902, 36.2048], [139.6891, 36.2027], [139.688, 36.2001], [139.6875, 36.1978], [139.6879, 36.1961], [139.689, 36.1948], [139.6933, 36.1918], [139.6941, 36.1904], [139.6926, 36.1867], [139.6918, 36.1829], [139.6911, 36.1788], [139.6909, 36.1743], [139.692, 36.1699], [139.6943, 36.1657], [139.6948, 36.1605], [139.6954, 36.158], [139.6962, 36.1563], [139.6981, 36.154], [139.6987, 36.1515], [139.7019, 36.1463], [139.7037, 36.1438], [139.707, 36.1401], [139.7092, 36.1371], [139.7121, 36.129], [139.7136, 36.1261], [139.7215, 36.119], [139.726, 36.113], [139.7269, 36.1076], [139.7277, 36.0971], [139.7278, 36.0907], [139.7295, 36.0879], [139.731, 36.0869], [139.7334, 36.0864], [139.7415, 36.0871], [139.7463, 36.0871], [139.7508, 36.0855], [139.7578, 36.0821], [139.7617, 36.0809], [139.7653, 36.0804], [139.7698, 36.0809], [139.7715, 36.0819], [139.7725, 36.083], [139.7721, 36.0864], [139.7729, 36.0886], [139.7745, 36.0897], [139.7764, 36.0901], [139.776, 36.0935], [139.7764, 36.0957], [139.7771, 36.0973], [139.7792, 36.0996], [139.7839, 36.1018], [139.7868, 36.1041], [139.7906, 36.1012], [139.7978, 36.0963], [139.8012, 36.0921], [139.8031, 36.0886], [139.8041, 36.0861], [139.8055, 36.0797], [139.8082, 36.0708], [139.81, 36.0669], [139.8133, 36.0628], [139.8189, 36.0577], [139.8253, 36.0524], [139.8382, 36.0397], [139.8458, 36.0342], [139.8509, 36.0321], [139.8558, 36.0304], [139.8605, 36.0258], [139.8671, 36.0198], [139.8696, 36.0167], [139.8714, 36.0149], [139.8744, 36.0126], [139.8777, 36.0091], [139.8786, 36.0073], [139.8827, 35.9923], [139.8873, 35.9865], [139.8918, 35.9831], [139.8973, 35.9782], [139.9148, 35.9705], [139.9236, 35.9698], [139.9236, 35.9706], [139.9257, 35.9705], [139.9326, 35.9695], [139.935, 35.9681], [139.9372, 35.9654], [139.938, 35.9634], [139.9382, 35.962], [139.9353, 35.9573], [139.9347, 35.957], [139.9339, 35.956], [139.9297, 35.9543], [139.9353, 35.9444], [139.9366, 35.9428], [139.9379, 35.9416], [139.9399, 35.9405], [139.9436, 35.9395], [139.951, 35.9368], [139.9565, 35.9334], [139.9615, 35.9297], [139.9698, 35.9253], [139.9736, 35.9235], [139.9798, 35.9198], [139.9829, 35.9176], [139.9852, 35.9153], [139.9916, 35.9112], [139.9945, 35.9098], [139.9974, 35.9091], [140.002, 35.9094], [140.0079, 35.9107], [140.012, 35.9109], [140.0164, 35.9105], [140.0195, 35.9094], [140.0227, 35.9073], [140.0312, 35.9009], [140.0389, 35.8967], [140.0442, 35.8933], [140.0488, 35.8917], [140.0532, 35.8913], [140.0557, 35.8907], [140.0595, 35.8889], [140.0607, 35.8878], [140.0615, 35.8864], [140.0645, 35.8831], [140.0681, 35.8803], [140.0743, 35.8768], [140.0749, 35.8767], [140.0782, 35.878], [140.0828, 35.8813], [140.0881, 35.8839], [140.0922, 35.8838], [140.096, 35.8831], [140.0994, 35.8821], [140.1077, 35.8782], [140.1116, 35.876], [140.1152, 35.875], [140.1208, 35.8739], [140.1256, 35.8722], [140.1275, 35.8702], [140.133, 35.8604], [140.1418, 35.8515], [140.1452, 35.8465], [140.1473, 35.845], [140.1508, 35.8435], [140.1541, 35.8428], [140.1582, 35.8429], [140.1622, 35.8436], [140.1666, 35.8449], [140.1715, 35.8469], [140.1865, 35.8516], [140.1891, 35.8528], [140.1985, 35.8589], [140.2026, 35.8606], [140.2075, 35.8618], [140.2135, 35.862], [140.2166, 35.8613], [140.2201, 35.8597], [140.2264, 35.8563], [140.2292, 35.8554], [140.2342, 35.8544], [140.2399, 35.8547], [140.2472, 35.8581], [140.2656, 35.8692], [140.2684, 35.8706], [140.2742, 35.8729], [140.2783, 35.874], [140.2818, 35.874], [140.2853, 35.8731], [140.2956, 35.8684], [140.305, 35.8655], [140.3169, 35.8643], [140.3198, 35.865], [140.3243, 35.8669], [140.3321, 35.8711], [140.3464, 35.8819], [140.3494, 35.8849], [140.3525, 35.8909], [140.3547, 35.894], [140.3567, 35.8958], [140.3604, 35.8981], [140.3628, 35.8992], [140.3784, 35.9034], [140.3924, 35.9084], [140.395, 35.9088], [140.4033, 35.9099], [140.4074, 35.9092], [140.4164, 35.9066], [140.42, 35.9064], [140.4246, 35.907], [140.431, 35.9105], [140.4453, 35.9149], [140.4487, 35.9154], [140.4574, 35.9265], [140.4592, 35.9263], [140.4599, 35.9259], [140.4605, 35.9251], [140.466, 35.9228], [140.4692, 35.9209], [140.4713, 35.9195], [140.4729, 35.9163], [140.4771, 35.9142], [140.484, 35.9103], [140.4889, 35.9085], [140.5016, 35.9063], [140.5018, 35.9069], [140.4968, 35.9105], [140.495, 35.9127], [140.4922, 35.9137], [140.4907, 35.9151], [140.4903, 35.9177], [140.4895, 35.9202], [140.4875, 35.9237], [140.4869, 35.9253], [140.4871, 35.929], [140.4881, 35.931], [140.4889, 35.9318], [140.4898, 35.9321], [140.4908, 35.932], [140.4939, 35.9303], [140.4944, 35.9303], [140.4949, 35.9307], [140.4975, 35.9342], [140.4981, 35.9387], [140.4996, 35.9443], [140.5048, 35.952], [140.5111, 35.9587], [140.5154, 35.9555], [140.525, 35.9496], [140.5279, 35.9468], [140.531, 35.9429], [140.5331, 35.9411], [140.533, 35.941], [140.5341, 35.9403], [140.5446, 35.9353], [140.5587, 35.9303], [140.5622, 35.9286], [140.5702, 35.9239], [140.5726, 35.9229], [140.5718, 35.9217], [140.576, 35.9202], [140.5796, 35.9182], [140.5812, 35.9167], [140.5832, 35.9129], [140.5834, 35.9129], [140.5845, 35.9113], [140.5839, 35.911], [140.585, 35.9093], [140.5878, 35.9106], [140.5896, 35.9082], [140.5886, 35.9077], [140.5857, 35.9071], [140.5961, 35.9038], [140.5994, 35.9034], [140.6022, 35.8993], [140.6085, 35.8954], [140.6121, 35.8909], [140.6169, 35.8812], [140.6219, 35.8735], [140.6253, 35.8689], [140.6278, 35.8657], [140.6285, 35.8657], [140.6317, 35.8585], [140.6497, 35.8544], [140.6538, 35.8544], [140.6623, 35.8535], [140.6657, 35.8528], [140.6725, 35.8516], [140.6821, 35.8491], [140.6853, 35.8477], [140.7041, 35.8377], [140.7137, 35.8301], [140.717, 35.8262], [140.7205, 35.8207], [140.7236, 35.8117], [140.7234, 35.8069], [140.7247, 35.8021], [140.7297, 35.7941], [140.7333, 35.7903], [140.7363, 35.7879], [140.7557, 35.7773], [140.7607, 35.7747], [140.7675, 35.7717], [140.7707, 35.7697], [140.7773, 35.7665], [140.7886, 35.7585], [140.7978, 35.7515], [140.8027, 35.7481], [140.805, 35.7469], [140.8086, 35.7461], [140.8144, 35.7434], [140.8168, 35.7419], [140.82, 35.7409], [140.8235, 35.7403], [140.8352, 35.7391], [140.8438, 35.7392], [140.8458, 35.7395], [140.8488, 35.7408], [140.849, 35.7442], [140.8476, 35.7428], [140.8456, 35.7445], [140.849, 35.7479], [140.8495, 35.7505], [140.8466, 35.7527], [140.8457, 35.7558], [140.8465, 35.7527], [140.8494, 35.7505], [140.8489, 35.7478], [140.8448, 35.7439], [140.8443, 35.7441], [140.8427, 35.7427], [140.8421, 35.7432], [140.8459, 35.7466], [140.8464, 35.7472], [140.8459, 35.7482], [140.8463, 35.7486], [140.8437, 35.7506], [140.8434, 35.7497], [140.845, 35.7485], [140.8428, 35.7465], [140.8398, 35.7488], [140.8413, 35.7501], [140.841, 35.7504], [140.8415, 35.7508], [140.842, 35.7505], [140.8416, 35.7509], [140.8429, 35.752], [140.8437, 35.7527], [140.8447, 35.7529], [140.8436, 35.7527], [140.8413, 35.7546], [140.8436, 35.7527], [140.839, 35.7487], [140.8347, 35.7517], [140.8405, 35.7558], [140.8349, 35.7519], [140.8343, 35.752], [140.8313, 35.754], [140.8296, 35.7556], [140.8292, 35.7554], [140.8294, 35.7557], [140.8276, 35.7573], [140.8196, 35.7663], [140.8194, 35.7666], [140.8203, 35.7672], [140.8193, 35.7667], [140.819, 35.767], [140.8171, 35.7692], [140.8165, 35.7708], [140.8014, 35.7887], [140.7901, 35.8033], [140.7889, 35.8054], [140.7859, 35.8088], [140.7859, 35.8093], [140.7855, 35.8092], [140.7843, 35.8103], [140.7824, 35.8132], [140.7821, 35.8133], [140.7814, 35.813], [140.7821, 35.8134], [140.7809, 35.8151], [140.777, 35.8201], [140.7751, 35.823], [140.7677, 35.8319], [140.7674, 35.832], [140.7675, 35.8311], [140.7673, 35.8319], [140.7673, 35.832], [140.7676, 35.832], [140.7673, 35.8325], [140.7659, 35.8341], [140.764, 35.8368], [140.7636, 35.8366], [140.7636, 35.8358], [140.7629, 35.8359], [140.7635, 35.8359], [140.7635, 35.8366], [140.7639, 35.8371], [140.7591, 35.8434], [140.7586, 35.843], [140.7579, 35.8433], [140.7586, 35.8431], [140.7589, 35.8435], [140.7575, 35.8433], [140.7588, 35.8437], [140.7582, 35.8446], [140.7527, 35.8518], [140.752, 35.8516], [140.751, 35.8519], [140.752, 35.8517], [140.7526, 35.8519], [140.751, 35.854], [140.7507, 35.854], [140.7509, 35.8542], [140.7506, 35.8546], [140.7476, 35.8583], [140.7468, 35.8583], [140.7475, 35.8584], [140.7462, 35.8604], [140.7444, 35.8645], [140.7432, 35.8653], [140.7434, 35.8656], [140.7416, 35.8678], [140.7396, 35.872], [140.739, 35.8724], [140.7391, 35.8733], [140.7416, 35.8745], [140.7313, 35.8884], [140.7322, 35.8888], [140.7313, 35.8885], [140.7311, 35.8886], [140.732, 35.8892], [140.7311, 35.8887], [140.7303, 35.8899], [140.7309, 35.8902], [140.7302, 35.8899], [140.7296, 35.8908], [140.7302, 35.8912], [140.7296, 35.8908], [140.7289, 35.8917], [140.7296, 35.8921], [140.7289, 35.8918], [140.7282, 35.8927], [140.7289, 35.893], [140.7282, 35.8927], [140.7275, 35.8936], [140.7282, 35.8939], [140.7275, 35.8936], [140.7269, 35.8945], [140.7275, 35.8948], [140.7268, 35.8946], [140.7262, 35.8954], [140.7268, 35.8958], [140.7261, 35.8955], [140.7255, 35.8964], [140.7262, 35.8967], [140.7255, 35.8964], [140.7248, 35.8973], [140.7255, 35.8976], [140.7248, 35.8973], [140.7241, 35.8982], [140.7248, 35.8985], [140.7241, 35.8983], [140.7234, 35.8991], [140.7241, 35.8995], [140.7234, 35.8992], [140.7228, 35.9001], [140.7234, 35.9004], [140.7227, 35.9001], [140.7221, 35.901], [140.7227, 35.9014], [140.722, 35.9011], [140.7214, 35.9019], [140.7221, 35.9023], [140.7214, 35.902], [140.7205, 35.9032], [140.7214, 35.9036], [140.7203, 35.9032], [140.7203, 35.9035], [140.7211, 35.9039], [140.7203, 35.9035], [140.7113, 35.9164], [140.7118, 35.9167], [140.7111, 35.9165], [140.711, 35.9167], [140.7115, 35.917], [140.711, 35.9168], [140.7055, 35.9247], [140.7098, 35.9268], [140.7102, 35.9324], [140.7051, 35.9376], [140.7106, 35.9399], [140.712, 35.9575], [140.7127, 35.9574], [140.7115, 35.9402], [140.7214, 35.9449], [140.6956, 35.9886], [140.6679, 35.9768], [140.6666, 35.9782], [140.665, 35.9809], [140.6655, 35.9812], [140.6649, 35.9812], [140.6638, 35.9834], [140.6647, 35.9838], [140.6638, 35.9835], [140.6636, 35.9838], [140.6628, 35.9849], [140.6632, 35.9851], [140.6628, 35.9851], [140.6625, 35.9853], [140.6598, 35.9901], [140.6597, 35.9906], [140.6604, 35.9908], [140.6605, 35.9905], [140.6605, 35.9909], [140.6602, 35.9912], [140.6603, 35.991], [140.6594, 35.9907], [140.6583, 35.9925], [140.6581, 35.9925], [140.6555, 35.9981], [140.6564, 35.9983], [140.6566, 35.9981], [140.6567, 35.9986], [140.6562, 35.9989], [140.6563, 35.9986], [140.6554, 35.9982], [140.6512, 36.0059], [140.6515, 36.0069], [140.6522, 36.0071], [140.6522, 36.0068], [140.6525, 36.007], [140.6523, 36.0076], [140.6516, 36.0078], [140.652, 36.0075], [140.6513, 36.0072], [140.6505, 36.0075], [140.6486, 36.0109], [140.6469, 36.0153], [140.6473, 36.016], [140.648, 36.0161], [140.648, 36.0166], [140.6473, 36.0169], [140.6475, 36.0165], [140.6465, 36.0162], [140.6459, 36.0164], [140.6456, 36.0162], [140.6458, 36.0165], [140.6455, 36.0168], [140.6452, 36.017], [140.6449, 36.0169], [140.6452, 36.0171], [140.6424, 36.0226], [140.6427, 36.0234], [140.6436, 36.0235], [140.6436, 36.024], [140.6431, 36.0244], [140.6425, 36.0238], [140.6414, 36.0241], [140.6415, 36.0244], [140.6398, 36.0269], [140.64, 36.027], [140.6388, 36.0295], [140.6391, 36.0302], [140.6399, 36.0301], [140.6398, 36.0307], [140.6391, 36.031], [140.6393, 36.0306], [140.6385, 36.0305], [140.6374, 36.031], [140.6361, 36.0338], [140.6371, 36.0343], [140.6367, 36.0346], [140.6362, 36.0341], [140.636, 36.0343], [140.6339, 36.0381], [140.6339, 36.039], [140.6348, 36.0392], [140.6347, 36.0398], [140.6341, 36.04], [140.6341, 36.0397], [140.6337, 36.0396], [140.633, 36.0399], [140.6312, 36.0427], [140.6287, 36.0484], [140.6288, 36.0493], [140.6296, 36.0494], [140.6296, 36.05], [140.629, 36.0503], [140.6294, 36.0499], [140.6285, 36.0497], [140.6277, 36.0501], [140.6256, 36.0539], [140.6242, 36.0577], [140.625, 36.058], [140.6251, 36.0577], [140.6252, 36.0582], [140.6246, 36.0586], [140.6248, 36.0582], [140.6238, 36.0579], [140.6229, 36.059], [140.6218, 36.0623], [140.6199, 36.066], [140.6205, 36.0665], [140.6195, 36.0662], [140.6186, 36.0671], [140.615, 36.0749], [140.6144, 36.0769], [140.6151, 36.0771], [140.615, 36.0773], [140.6138, 36.077], [140.6122, 36.0799], [140.6116, 36.08], [140.6121, 36.0802], [140.612, 36.0804], [140.6114, 36.0818], [140.6109, 36.0818], [140.6113, 36.0818], [140.6113, 36.0822], [140.6099, 36.0855], [140.6111, 36.0859], [140.611, 36.0861], [140.6098, 36.0856], [140.609, 36.0871], [140.6048, 36.096], [140.6057, 36.0962], [140.6057, 36.0964], [140.6047, 36.0961], [140.6041, 36.0972], [140.6008, 36.1044], [140.6011, 36.1045], [140.6005, 36.1052], [140.5972, 36.1127], [140.5975, 36.1131], [140.598, 36.1132], [140.5981, 36.113], [140.5982, 36.1133], [140.5977, 36.1135], [140.598, 36.1133], [140.5974, 36.1131], [140.5969, 36.1134], [140.5931, 36.1217], [140.5935, 36.1219], [140.5931, 36.1219], [140.5927, 36.1227], [140.59, 36.13], [140.5905, 36.1302], [140.5899, 36.1302], [140.582, 36.1516], [140.5816, 36.1527], [140.5813, 36.1527], [140.5814, 36.1533], [140.58, 36.1575], [140.5795, 36.1588], [140.5792, 36.1589], [140.5793, 36.1598], [140.5755, 36.1717], [140.5737, 36.1791], [140.5722, 36.1834], [140.5723, 36.1841], [140.5708, 36.1896], [140.5709, 36.1903], [140.569, 36.1973], [140.569, 36.1985], [140.5677, 36.2029], [140.5672, 36.2057], [140.5671, 36.2065], [140.5684, 36.2067], [140.5671, 36.2065], [140.5668, 36.2072], [140.5669, 36.2076], [140.5651, 36.2144], [140.5652, 36.2154], [140.5643, 36.2184], [140.5643, 36.2198], [140.5631, 36.225], [140.563, 36.2268], [140.5635, 36.2271], [140.5641, 36.2271], [140.5641, 36.2269], [140.5643, 36.2272], [140.564, 36.2275], [140.5641, 36.2272], [140.5634, 36.2272], [140.5629, 36.2275], [140.5622, 36.2334], [140.5618, 36.234], [140.5623, 36.2345], [140.5631, 36.2345], [140.5631, 36.2343], [140.5633, 36.2347], [140.5629, 36.2348], [140.563, 36.2346], [140.5624, 36.2346], [140.5617, 36.235], [140.5608, 36.2429], [140.5616, 36.2435], [140.5622, 36.2435], [140.5622, 36.2433], [140.5624, 36.2436], [140.5621, 36.2438], [140.5622, 36.2436], [140.5615, 36.2436], [140.5608, 36.2441], [140.5605, 36.2463], [140.5602, 36.2509], [140.5597, 36.2535], [140.5587, 36.2649], [140.5583, 36.2721], [140.5585, 36.2727], [140.5582, 36.2729], [140.5586, 36.2864], [140.5589, 36.2886], [140.5602, 36.2922], [140.5624, 36.2963], [140.564, 36.296], [140.5625, 36.2963], [140.5627, 36.2972], [140.5684, 36.2942], [140.5735, 36.2925], [140.5773, 36.2915], [140.5836, 36.2907], [140.5937, 36.2908], [140.594, 36.3216], [140.5936, 36.3229], [140.5938, 36.3238], [140.5935, 36.3252], [140.5944, 36.3312], [140.5953, 36.3343], [140.5954, 36.3365], [140.5957, 36.3365], [140.5941, 36.3373], [140.5946, 36.3376], [140.5948, 36.338], [140.594, 36.3378], [140.594, 36.3381], [140.5966, 36.3417], [140.5983, 36.3409], [140.5974, 36.3391], [140.5986, 36.3386], [140.5998, 36.3402], [140.6009, 36.3397], [140.6006, 36.3382], [140.601, 36.3396], [140.6014, 36.3403], [140.6021, 36.34], [140.6016, 36.3404], [140.6022, 36.3412], [140.6028, 36.3409], [140.6023, 36.3413], [140.6031, 36.3425], [140.6037, 36.3422], [140.6032, 36.3426], [140.6038, 36.3434], [140.6042, 36.3433], [140.6043, 36.3434], [140.6053, 36.343], [140.6029, 36.3397], [140.6023, 36.3399], [140.6026, 36.3397], [140.6023, 36.3393], [140.6028, 36.3397], [140.6035, 36.3379], [140.603, 36.3396], [140.6074, 36.3456], [140.6071, 36.3458], [140.6078, 36.3467], [140.607, 36.3472], [140.6076, 36.3481], [140.6082, 36.3512], [140.6097, 36.3536], [140.6109, 36.353], [140.6125, 36.3532], [140.6109, 36.3531], [140.6108, 36.3537], [140.6117, 36.3547], [140.6121, 36.3547], [140.6122, 36.3542], [140.6127, 36.3541], [140.6124, 36.3549], [140.6133, 36.3556], [140.6138, 36.3554], [140.614, 36.3548], [140.6134, 36.3543], [140.6132, 36.3531], [140.6135, 36.3543], [140.6143, 36.355], [140.6138, 36.3556], [140.6145, 36.3566], [140.6156, 36.357], [140.6158, 36.3567], [140.6155, 36.3574], [140.616, 36.3577], [140.6166, 36.3575], [140.6165, 36.3578], [140.617, 36.3575], [140.6169, 36.3579], [140.6173, 36.3577], [140.6177, 36.3579], [140.6173, 36.3584], [140.6182, 36.3587], [140.6183, 36.3589], [140.6194, 36.3588], [140.6196, 36.3595], [140.6204, 36.3593], [140.6206, 36.3595], [140.6214, 36.3615], [140.6222, 36.3621], [140.6216, 36.3626], [140.6221, 36.3628], [140.6225, 36.3638], [140.6222, 36.3649], [140.6226, 36.3655], [140.6225, 36.3663], [140.6229, 36.3672], [140.624, 36.3676], [140.6237, 36.3678], [140.6238, 36.368], [140.6242, 36.3679], [140.6242, 36.3682], [140.6249, 36.3682], [140.6247, 36.3685], [140.6251, 36.3685], [140.6245, 36.3688], [140.6251, 36.3688], [140.6246, 36.369], [140.625, 36.369], [140.6246, 36.3691], [140.6251, 36.3696], [140.6243, 36.3702], [140.6247, 36.3707], [140.6246, 36.3709], [140.6249, 36.3709], [140.6247, 36.3712], [140.625, 36.3712], [140.6242, 36.3719], [140.6245, 36.3745], [140.6257, 36.3752], [140.6256, 36.3754], [140.6259, 36.3755], [140.6268, 36.3775], [140.6273, 36.3771], [140.6267, 36.3776], [140.6266, 36.3803], [140.6268, 36.381], [140.6273, 36.3809], [140.6272, 36.3811], [140.6278, 36.3808], [140.6274, 36.3813], [140.6278, 36.3812], [140.627, 36.3815], [140.6264, 36.3815], [140.6257, 36.3823], [140.6257, 36.383], [140.6239, 36.3844], [140.6238, 36.3852], [140.6231, 36.3855], [140.6224, 36.3862], [140.6224, 36.3858], [140.6231, 36.3854], [140.6237, 36.3852], [140.6238, 36.3849], [140.6233, 36.3849], [140.6229, 36.3848], [140.6234, 36.3849], [140.6228, 36.3836], [140.6214, 36.3835], [140.6216, 36.3847], [140.6225, 36.3853], [140.6215, 36.3848], [140.6213, 36.3841], [140.6203, 36.3843], [140.6205, 36.3853], [140.6202, 36.3843], [140.6191, 36.3843], [140.6179, 36.385], [140.6157, 36.3873], [140.6137, 36.3927], [140.6139, 36.3927], [140.6139, 36.3938], [140.6144, 36.3955], [140.6151, 36.3965], [140.6164, 36.3973], [140.6176, 36.3979], [140.6195, 36.3982], [140.6224, 36.3981], [140.6251, 36.3975], [140.6296, 36.3952], [140.634, 36.3954], [140.6313, 36.4287], [140.646, 36.4275], [140.6467, 36.449], [140.6087, 36.4499], [140.6091, 36.4579], [140.6102, 36.4628], [140.6099, 36.464], [140.61, 36.4638], [140.6108, 36.465], [140.6134, 36.4648], [140.6148, 36.4655], [140.6146, 36.4657], [140.6132, 36.4649], [140.6101, 36.4652], [140.6104, 36.4678], [140.6112, 36.4677], [140.6111, 36.4672], [140.6126, 36.4671], [140.6126, 36.4677], [140.6142, 36.4678], [140.6162, 36.4652], [140.6165, 36.4653], [140.6143, 36.4679], [140.6101, 36.4683], [140.6101, 36.4688], [140.6098, 36.4689], [140.6104, 36.4693], [140.6109, 36.4751], [140.6114, 36.4767], [140.612, 36.4785], [140.613, 36.4801], [140.6161, 36.4809], [140.6192, 36.4804], [140.6275, 36.4836], [140.6282, 36.4837], [140.6333, 36.4819], [140.6303, 36.4864], [140.63, 36.4922], [140.6306, 36.4949], [140.631, 36.5019], [140.6295, 36.5032], [140.6301, 36.5041], [140.6304, 36.5057], [140.631, 36.5072], [140.6332, 36.5092], [140.6321, 36.5102], [140.6312, 36.5125], [140.6319, 36.5142], [140.6339, 36.5156], [140.6334, 36.516], [140.6341, 36.5181], [140.6336, 36.52], [140.6336, 36.5213], [140.6351, 36.5265], [140.6373, 36.5307], [140.638, 36.5343], [140.6375, 36.5341], [140.638, 36.5343], [140.6386, 36.5371], [140.6386, 36.5373], [140.6385, 36.5373], [140.6381, 36.5366], [140.6379, 36.5365], [140.6381, 36.5374], [140.6378, 36.5378], [140.6381, 36.5377], [140.6381, 36.5367], [140.6384, 36.5373], [140.6385, 36.5373], [140.6387, 36.5373], [140.6394, 36.5395], [140.6423, 36.5417], [140.6448, 36.5403], [140.6456, 36.5408], [140.6447, 36.5404], [140.644, 36.5408], [140.6446, 36.5413], [140.6442, 36.541], [140.6434, 36.5414], [140.6441, 36.5424], [140.6446, 36.5417], [140.6453, 36.5425], [140.6458, 36.5423], [140.6464, 36.5412], [140.6458, 36.5424], [140.6456, 36.5425], [140.6463, 36.5444], [140.6449, 36.5465], [140.645, 36.5468], [140.6448, 36.5468], [140.6443, 36.5486], [140.6443, 36.5499], [140.646, 36.556], [140.647, 36.5582], [140.6478, 36.5588], [140.6478, 36.5597], [140.6489, 36.5638], [140.6518, 36.5689], [140.6522, 36.571], [140.6548, 36.5758], [140.657, 36.5774], [140.6581, 36.5779], [140.6599, 36.5775], [140.6596, 36.5768], [140.6602, 36.576], [140.6607, 36.5771], [140.6619, 36.5771], [140.6622, 36.5774], [140.6623, 36.5783], [140.6612, 36.5793], [140.6618, 36.5806], [140.6629, 36.5816], [140.6625, 36.5828], [140.6628, 36.5852], [140.6642, 36.5903], [140.6663, 36.5947], [140.6676, 36.5943], [140.6708, 36.5975], [140.6714, 36.5974], [140.6712, 36.5978], [140.6716, 36.5984], [140.6718, 36.5991], [140.6715, 36.5984], [140.6716, 36.5993], [140.6746, 36.6056], [140.6768, 36.6079], [140.6767, 36.6081], [140.6777, 36.6098], [140.6778, 36.6106], [140.6796, 36.6127], [140.6801, 36.6143], [140.68, 36.6148], [140.6811, 36.6153], [140.6812, 36.6157], [140.6822, 36.6165], [140.6826, 36.6167], [140.683, 36.6166], [140.6845, 36.6186], [140.6863, 36.6201], [140.6864, 36.62], [140.6873, 36.6202], [140.6879, 36.6199], [140.6878, 36.6195], [140.688, 36.6199], [140.6878, 36.6202], [140.688, 36.6204], [140.6894, 36.6211], [140.6888, 36.6215], [140.6887, 36.6226], [140.6889, 36.6236], [140.6895, 36.6244], [140.6892, 36.6252], [140.6894, 36.6262], [140.6892, 36.6263], [140.6899, 36.6276], [140.6899, 36.6294], [140.6896, 36.6295], [140.6899, 36.6295], [140.6902, 36.6302], [140.6906, 36.6302], [140.6905, 36.6308], [140.6909, 36.6326], [140.692, 36.6329], [140.691, 36.6332], [140.6908, 36.6336], [140.6912, 36.6364], [140.6906, 36.6364], [140.6912, 36.6364], [140.6917, 36.6379], [140.6917, 36.6389], [140.6925, 36.6409], [140.6918, 36.641], [140.6924, 36.6411], [140.6935, 36.6438], [140.6948, 36.6451], [140.6955, 36.647], [140.6971, 36.6488], [140.6984, 36.6494], [140.6967, 36.649], [140.6983, 36.6496], [140.6983, 36.6499], [140.6988, 36.6485], [140.7006, 36.6488], [140.7022, 36.6504], [140.702, 36.6505], [140.7005, 36.6489], [140.6993, 36.6487], [140.699, 36.6496], [140.6997, 36.6508], [140.7008, 36.6502], [140.7012, 36.6503], [140.7001, 36.6509], [140.7003, 36.6512], [140.6999, 36.6514], [140.7003, 36.6524], [140.7006, 36.6525], [140.7007, 36.6522], [140.701, 36.6525], [140.7005, 36.6526], [140.7007, 36.653], [140.701, 36.6532], [140.7013, 36.6529], [140.7016, 36.6531], [140.7011, 36.6533], [140.7012, 36.6536], [140.7016, 36.6539], [140.702, 36.6535], [140.7023, 36.6539], [140.7019, 36.6539], [140.7019, 36.6541], [140.7027, 36.655], [140.7046, 36.6556], [140.7034, 36.6559], [140.7023, 36.6556], [140.7011, 36.6561]]], [[[139.8828, 36.3231], [139.8817, 36.323], [139.882, 36.3218], [139.8827, 36.3217], [139.8828, 36.3231]]]]}, "properties": {"name": "茨城県"}}]}