{"type": "FeatureCollection", "features": [{"type": "Feature", "geometry": {"type": "MultiPolygon", "coordinates": [[[[137.3931, 34.6587], [137.4009, 34.6601], [137.4082, 34.6619], [137.4114, 34.662], [137.4131, 34.6624], [137.4158, 34.6626], [137.4183, 34.6633], [137.4227, 34.664], [137.4424, 34.6679], [137.4505, 34.6687], [137.4583, 34.6702], [137.4853, 34.6739], [137.4846, 34.6767], [137.4861, 34.6798], [137.4859, 34.6813], [137.4851, 34.6825], [137.4846, 34.684], [137.4855, 34.6845], [137.486, 34.6858], [137.4879, 34.687], [137.4893, 34.6888], [137.489, 34.6893], [137.4891, 34.6904], [137.4901, 34.6936], [137.4908, 34.695], [137.4906, 34.6965], [137.492, 34.7023], [137.4902, 34.7054], [137.4897, 34.7086], [137.4898, 34.7116], [137.4889, 34.7125], [137.4885, 34.7147], [137.4877, 34.7167], [137.4869, 34.7176], [137.4826, 34.7199], [137.4817, 34.7213], [137.4821, 34.7226], [137.4826, 34.7229], [137.4824, 34.7242], [137.4825, 34.7262], [137.4822, 34.7266], [137.481, 34.7266], [137.4803, 34.7293], [137.4812, 34.7302], [137.4808, 34.7307], [137.4818, 34.7313], [137.4792, 34.7338], [137.4783, 34.7353], [137.4785, 34.736], [137.4797, 34.7366], [137.4794, 34.7401], [137.4808, 34.7406], [137.4804, 34.7415], [137.4793, 34.7423], [137.4795, 34.7431], [137.4783, 34.7454], [137.4763, 34.7464], [137.4756, 34.7483], [137.4742, 34.75], [137.4756, 34.7513], [137.4749, 34.7552], [137.4762, 34.7562], [137.4774, 34.7567], [137.4769, 34.7578], [137.4763, 34.7583], [137.4767, 34.7587], [137.4767, 34.7594], [137.4774, 34.7598], [137.4775, 34.7603], [137.4772, 34.7622], [137.4768, 34.763], [137.4773, 34.7643], [137.4769, 34.7679], [137.4791, 34.7714], [137.4763, 34.7747], [137.4777, 34.7757], [137.4777, 34.7769], [137.4784, 34.7779], [137.4787, 34.7791], [137.4811, 34.7809], [137.4816, 34.7824], [137.4824, 34.7824], [137.4853, 34.7836], [137.488, 34.7838], [137.489, 34.784], [137.4915, 34.7854], [137.4917, 34.7858], [137.4924, 34.7866], [137.4932, 34.7868], [137.4929, 34.7892], [137.4933, 34.79], [137.4933, 34.7904], [137.493, 34.7911], [137.4921, 34.7921], [137.492, 34.7944], [137.4914, 34.7958], [137.4921, 34.7962], [137.4929, 34.7971], [137.4935, 34.7997], [137.4944, 34.8018], [137.4937, 34.8034], [137.4922, 34.8046], [137.4913, 34.8048], [137.4901, 34.8057], [137.4896, 34.8065], [137.4894, 34.8075], [137.4875, 34.8091], [137.4871, 34.8116], [137.4892, 34.8133], [137.4912, 34.8138], [137.4934, 34.815], [137.4944, 34.8179], [137.4942, 34.8184], [137.495, 34.8196], [137.4972, 34.8207], [137.4987, 34.8211], [137.5015, 34.823], [137.5003, 34.8244], [137.5, 34.8253], [137.4987, 34.8263], [137.4985, 34.8267], [137.4987, 34.827], [137.499, 34.8285], [137.4996, 34.8294], [137.5, 34.8295], [137.5001, 34.8315], [137.5013, 34.8322], [137.502, 34.8321], [137.502, 34.8327], [137.5026, 34.8336], [137.5034, 34.8333], [137.5077, 34.835], [137.5096, 34.8345], [137.5119, 34.8352], [137.5128, 34.8348], [137.516, 34.8361], [137.518, 34.8359], [137.5192, 34.8369], [137.5206, 34.8373], [137.5205, 34.8379], [137.5209, 34.8388], [137.5219, 34.8394], [137.5236, 34.8408], [137.5238, 34.8413], [137.528, 34.8417], [137.5289, 34.8422], [137.5295, 34.8437], [137.5313, 34.8437], [137.5345, 34.8444], [137.5365, 34.8436], [137.5371, 34.8422], [137.5388, 34.8419], [137.5405, 34.8424], [137.5422, 34.8422], [137.5434, 34.8431], [137.5435, 34.8441], [137.5444, 34.8456], [137.5492, 34.8489], [137.5498, 34.8491], [137.5505, 34.8489], [137.5508, 34.8501], [137.5505, 34.8512], [137.5515, 34.852], [137.5538, 34.8519], [137.555, 34.8524], [137.5568, 34.8512], [137.5578, 34.851], [137.5587, 34.8516], [137.5607, 34.8516], [137.562, 34.852], [137.5639, 34.8517], [137.5643, 34.8522], [137.5648, 34.8523], [137.5661, 34.8517], [137.5685, 34.8517], [137.5712, 34.8511], [137.579, 34.8512], [137.5868, 34.8507], [137.5881, 34.8526], [137.5956, 34.8609], [137.5965, 34.8639], [137.5967, 34.8675], [137.5964, 34.8689], [137.5952, 34.8702], [137.5971, 34.8722], [137.5983, 34.873], [137.6039, 34.8744], [137.6063, 34.8743], [137.6091, 34.8749], [137.6143, 34.8751], [137.6162, 34.8757], [137.6166, 34.8776], [137.6175, 34.8786], [137.6188, 34.879], [137.6204, 34.8789], [137.6234, 34.8805], [137.6242, 34.8813], [137.6264, 34.8814], [137.6286, 34.8827], [137.631, 34.885], [137.6329, 34.8853], [137.636, 34.89], [137.637, 34.8908], [137.6386, 34.8911], [137.6401, 34.8924], [137.6411, 34.8941], [137.6414, 34.8962], [137.6412, 34.8968], [137.6397, 34.8984], [137.64, 34.9], [137.6403, 34.9045], [137.6425, 34.9076], [137.6455, 34.9081], [137.6468, 34.9109], [137.6477, 34.9119], [137.6466, 34.9184], [137.6496, 34.9209], [137.6513, 34.924], [137.6519, 34.9256], [137.6522, 34.9288], [137.6521, 34.9302], [137.6507, 34.932], [137.6504, 34.9328], [137.651, 34.9337], [137.6561, 34.9376], [137.6569, 34.9389], [137.6573, 34.9412], [137.6595, 34.9439], [137.6626, 34.9468], [137.6645, 34.9475], [137.6668, 34.9479], [137.6713, 34.9477], [137.6753, 34.9455], [137.6782, 34.9462], [137.6785, 34.9469], [137.678, 34.9477], [137.681, 34.9495], [137.6815, 34.9511], [137.6834, 34.9541], [137.6851, 34.9546], [137.6885, 34.9568], [137.6891, 34.9588], [137.6897, 34.9598], [137.69, 34.9619], [137.6899, 34.9636], [137.6927, 34.9667], [137.6942, 34.9696], [137.6953, 34.9709], [137.6957, 34.9711], [137.6969, 34.9712], [137.7002, 34.9704], [137.7041, 34.9701], [137.7058, 34.9706], [137.707, 34.9714], [137.7073, 34.9726], [137.7055, 34.9751], [137.7033, 34.9775], [137.7024, 34.9791], [137.7018, 34.9809], [137.7006, 34.9823], [137.7003, 34.9835], [137.7005, 34.9843], [137.7023, 34.9877], [137.7054, 34.9915], [137.7074, 34.9936], [137.7083, 34.9959], [137.708, 34.9965], [137.7066, 34.9967], [137.7054, 34.9964], [137.7045, 34.9965], [137.7024, 35.0022], [137.7017, 35.0032], [137.701, 35.0035], [137.7017, 35.0048], [137.7024, 35.0055], [137.7024, 35.0067], [137.703, 35.0077], [137.7026, 35.0095], [137.7041, 35.0107], [137.7045, 35.0127], [137.7052, 35.0138], [137.7049, 35.0149], [137.7058, 35.0154], [137.7066, 35.0173], [137.7077, 35.0185], [137.7089, 35.019], [137.7108, 35.0208], [137.7107, 35.0224], [137.7128, 35.0253], [137.7149, 35.0258], [137.7163, 35.0273], [137.7175, 35.0315], [137.7174, 35.0324], [137.7169, 35.0334], [137.7173, 35.0341], [137.7172, 35.0352], [137.7187, 35.0348], [137.7183, 35.0365], [137.7192, 35.0361], [137.7199, 35.0363], [137.7207, 35.0359], [137.7214, 35.0365], [137.722, 35.0366], [137.7226, 35.037], [137.723, 35.0387], [137.7235, 35.0392], [137.7253, 35.0397], [137.7286, 35.0403], [137.7301, 35.0422], [137.7314, 35.045], [137.7329, 35.0465], [137.7351, 35.0481], [137.7358, 35.0511], [137.7366, 35.0526], [137.7402, 35.0557], [137.7404, 35.0566], [137.7436, 35.0581], [137.7457, 35.0599], [137.7469, 35.0603], [137.7485, 35.0616], [137.7505, 35.0627], [137.7514, 35.0641], [137.7527, 35.0645], [137.7531, 35.0649], [137.7549, 35.0654], [137.7561, 35.0649], [137.7564, 35.065], [137.7566, 35.0659], [137.7564, 35.0668], [137.7565, 35.0673], [137.7582, 35.0684], [137.7604, 35.0684], [137.7615, 35.0686], [137.7623, 35.0703], [137.7634, 35.0704], [137.7636, 35.0708], [137.7632, 35.0716], [137.7639, 35.0723], [137.7653, 35.0726], [137.767, 35.0727], [137.768, 35.0723], [137.7697, 35.0727], [137.7701, 35.0735], [137.7717, 35.0741], [137.7727, 35.0753], [137.7726, 35.0765], [137.7734, 35.0772], [137.7739, 35.0773], [137.7747, 35.0772], [137.7754, 35.0775], [137.7755, 35.0788], [137.7747, 35.0824], [137.7739, 35.0843], [137.7739, 35.0853], [137.7742, 35.0858], [137.7738, 35.0865], [137.7748, 35.087], [137.7745, 35.0888], [137.7734, 35.0901], [137.7733, 35.0905], [137.7745, 35.091], [137.7746, 35.0928], [137.7755, 35.0933], [137.776, 35.094], [137.7763, 35.0956], [137.7771, 35.0967], [137.7769, 35.0976], [137.7781, 35.0985], [137.7783, 35.0996], [137.7793, 35.0991], [137.7803, 35.0974], [137.7817, 35.0967], [137.7846, 35.0964], [137.7858, 35.0957], [137.7882, 35.0959], [137.7905, 35.0953], [137.7925, 35.0954], [137.7929, 35.0957], [137.7937, 35.0976], [137.7951, 35.103], [137.7972, 35.1042], [137.8004, 35.1054], [137.8011, 35.1059], [137.8012, 35.1075], [137.7981, 35.1195], [137.7981, 35.1202], [137.7992, 35.1238], [137.7989, 35.1255], [137.7981, 35.1267], [137.7973, 35.1271], [137.7933, 35.1278], [137.7927, 35.1281], [137.792, 35.129], [137.7923, 35.133], [137.793, 35.1352], [137.7957, 35.1364], [137.7973, 35.1364], [137.7988, 35.1353], [137.7997, 35.132], [137.8007, 35.131], [137.8018, 35.1307], [137.8032, 35.1306], [137.8053, 35.1309], [137.8072, 35.1324], [137.81, 35.1373], [137.8106, 35.1379], [137.8145, 35.1402], [137.815, 35.1408], [137.8125, 35.1435], [137.8122, 35.1445], [137.8123, 35.1467], [137.8128, 35.1493], [137.8134, 35.1507], [137.8147, 35.1525], [137.8159, 35.1528], [137.8182, 35.1496], [137.8199, 35.1486], [137.8221, 35.1481], [137.8266, 35.1505], [137.8289, 35.152], [137.8291, 35.1524], [137.8287, 35.1538], [137.8274, 35.1555], [137.8234, 35.1566], [137.8216, 35.1577], [137.8212, 35.1584], [137.8213, 35.1602], [137.8222, 35.162], [137.8258, 35.1662], [137.826, 35.167], [137.8256, 35.168], [137.8184, 35.1745], [137.8163, 35.1751], [137.8152, 35.1749], [137.8139, 35.1742], [137.8128, 35.174], [137.8106, 35.1748], [137.8094, 35.1756], [137.807, 35.1779], [137.8047, 35.1795], [137.8041, 35.1804], [137.8032, 35.1832], [137.8035, 35.1841], [137.8055, 35.1866], [137.8075, 35.1878], [137.8091, 35.1878], [137.8119, 35.1865], [137.813, 35.1863], [137.8143, 35.1866], [137.8155, 35.1876], [137.8164, 35.1893], [137.817, 35.1933], [137.8207, 35.1984], [137.8215, 35.2031], [137.8222, 35.204], [137.8232, 35.2046], [137.8245, 35.2048], [137.8293, 35.2044], [137.8304, 35.2046], [137.8309, 35.205], [137.831, 35.2057], [137.8308, 35.2066], [137.8304, 35.207], [137.8283, 35.208], [137.8277, 35.2088], [137.8275, 35.2102], [137.828, 35.2115], [137.8318, 35.2111], [137.835, 35.2111], [137.8374, 35.2119], [137.8382, 35.2125], [137.8346, 35.2137], [137.8275, 35.2156], [137.8244, 35.2159], [137.8216, 35.2157], [137.8195, 35.2148], [137.8181, 35.2147], [137.8162, 35.2139], [137.8149, 35.2127], [137.8116, 35.2119], [137.8096, 35.2103], [137.8068, 35.2099], [137.8055, 35.2093], [137.8023, 35.2074], [137.8002, 35.2056], [137.7989, 35.2053], [137.7972, 35.2052], [137.7962, 35.2048], [137.7953, 35.2041], [137.7941, 35.2049], [137.793, 35.2051], [137.7917, 35.2047], [137.7906, 35.2052], [137.7889, 35.2044], [137.7877, 35.2051], [137.786, 35.2057], [137.7837, 35.206], [137.7829, 35.2048], [137.7819, 35.2043], [137.7809, 35.2042], [137.7793, 35.2028], [137.778, 35.2037], [137.7741, 35.2033], [137.7743, 35.2041], [137.7739, 35.2051], [137.7734, 35.2055], [137.7705, 35.2061], [137.7693, 35.2061], [137.7676, 35.2069], [137.7661, 35.2102], [137.7683, 35.2127], [137.7691, 35.2143], [137.7693, 35.2161], [137.7683, 35.2172], [137.7681, 35.2184], [137.7664, 35.2187], [137.7655, 35.2185], [137.7648, 35.2187], [137.7634, 35.2202], [137.7618, 35.2207], [137.7605, 35.2208], [137.7596, 35.2221], [137.7572, 35.2214], [137.7565, 35.2208], [137.7549, 35.2207], [137.7535, 35.2203], [137.7525, 35.2202], [137.7508, 35.2208], [137.7503, 35.2206], [137.7495, 35.2193], [137.748, 35.2194], [137.7461, 35.2199], [137.7448, 35.219], [137.7436, 35.2188], [137.7423, 35.2196], [137.7411, 35.2199], [137.7406, 35.2211], [137.739, 35.2216], [137.7385, 35.222], [137.7369, 35.2218], [137.7354, 35.2227], [137.73, 35.222], [137.7292, 35.221], [137.7262, 35.2216], [137.7251, 35.2222], [137.724, 35.2217], [137.7231, 35.2217], [137.7219, 35.2226], [137.7208, 35.2249], [137.7209, 35.2257], [137.722, 35.2264], [137.7225, 35.228], [137.7224, 35.2298], [137.7221, 35.2305], [137.7215, 35.2309], [137.7207, 35.2307], [137.7198, 35.2297], [137.7184, 35.2292], [137.7167, 35.23], [137.7153, 35.2298], [137.7135, 35.2291], [137.7118, 35.2289], [137.7111, 35.2293], [137.7102, 35.2302], [137.709, 35.2307], [137.7078, 35.2318], [137.7077, 35.2322], [137.7058, 35.2333], [137.7057, 35.2339], [137.7051, 35.234], [137.7035, 35.2337], [137.7025, 35.233], [137.6992, 35.2314], [137.6981, 35.232], [137.6975, 35.2321], [137.6967, 35.2327], [137.6949, 35.2331], [137.6939, 35.2337], [137.6907, 35.2329], [137.6889, 35.231], [137.6872, 35.2307], [137.6854, 35.2312], [137.6838, 35.233], [137.6832, 35.2333], [137.6826, 35.2339], [137.6824, 35.2347], [137.6815, 35.2352], [137.6798, 35.2329], [137.6794, 35.2315], [137.6786, 35.2309], [137.6755, 35.231], [137.6744, 35.2308], [137.6724, 35.2297], [137.6715, 35.2289], [137.6697, 35.2284], [137.6683, 35.2274], [137.6653, 35.2274], [137.6638, 35.2279], [137.6623, 35.2277], [137.6613, 35.2272], [137.6592, 35.228], [137.6566, 35.2282], [137.6543, 35.227], [137.6538, 35.2263], [137.6536, 35.2241], [137.6524, 35.2231], [137.6534, 35.2215], [137.6538, 35.2186], [137.6536, 35.2175], [137.6502, 35.2162], [137.6486, 35.2144], [137.647, 35.2139], [137.645, 35.2141], [137.6445, 35.2136], [137.6444, 35.2127], [137.6452, 35.2122], [137.6453, 35.2117], [137.6446, 35.2101], [137.6448, 35.2096], [137.6442, 35.209], [137.6436, 35.209], [137.6399, 35.2094], [137.6387, 35.21], [137.6349, 35.2108], [137.6339, 35.2119], [137.6332, 35.2121], [137.617, 35.2095], [137.6166, 35.2096], [137.6156, 35.2106], [137.6152, 35.2106], [137.6142, 35.2103], [137.6133, 35.209], [137.6126, 35.2087], [137.6107, 35.2084], [137.6078, 35.207], [137.6065, 35.2067], [137.6053, 35.2068], [137.6027, 35.2061], [137.6004, 35.2045], [137.5974, 35.202], [137.5917, 35.1994], [137.5892, 35.1993], [137.5876, 35.1998], [137.5852, 35.1996], [137.5838, 35.1997], [137.583, 35.1996], [137.5817, 35.1987], [137.5785, 35.1983], [137.5775, 35.1999], [137.5779, 35.2018], [137.5766, 35.2029], [137.577, 35.2039], [137.5767, 35.2069], [137.5781, 35.2094], [137.5777, 35.2114], [137.577, 35.2121], [137.5769, 35.2127], [137.5784, 35.2153], [137.5784, 35.216], [137.5779, 35.217], [137.5788, 35.2194], [137.577, 35.2204], [137.5755, 35.2205], [137.5756, 35.2217], [137.5747, 35.2233], [137.5733, 35.2235], [137.5726, 35.2241], [137.5726, 35.2259], [137.5723, 35.2267], [137.5707, 35.2271], [137.5696, 35.2277], [137.5687, 35.2278], [137.5684, 35.228], [137.5676, 35.2295], [137.5669, 35.2298], [137.5666, 35.2306], [137.5655, 35.2316], [137.5649, 35.2332], [137.5631, 35.2343], [137.5627, 35.2353], [137.5602, 35.2365], [137.5572, 35.2373], [137.5564, 35.238], [137.5547, 35.2386], [137.5542, 35.2395], [137.5525, 35.2405], [137.5504, 35.2428], [137.5498, 35.2444], [137.5491, 35.2485], [137.5483, 35.2504], [137.5476, 35.2513], [137.5465, 35.2514], [137.546, 35.2518], [137.5463, 35.2544], [137.5477, 35.2561], [137.548, 35.257], [137.5476, 35.2587], [137.5479, 35.2594], [137.5484, 35.2598], [137.5528, 35.2604], [137.5577, 35.2648], [137.5579, 35.2663], [137.5577, 35.2672], [137.5565, 35.2689], [137.5564, 35.2695], [137.5572, 35.2707], [137.5561, 35.2716], [137.5552, 35.2734], [137.5557, 35.2744], [137.5575, 35.2749], [137.5583, 35.2756], [137.5603, 35.2764], [137.5614, 35.2775], [137.5642, 35.2778], [137.5645, 35.2784], [137.5652, 35.2789], [137.5654, 35.2802], [137.5664, 35.281], [137.5685, 35.2815], [137.5701, 35.2821], [137.5707, 35.2829], [137.5686, 35.2855], [137.5687, 35.2865], [137.5684, 35.2868], [137.5676, 35.2871], [137.5671, 35.2877], [137.5673, 35.2896], [137.5665, 35.2901], [137.5658, 35.2901], [137.5639, 35.2898], [137.562, 35.29], [137.562, 35.2872], [137.5616, 35.2868], [137.5615, 35.2862], [137.5607, 35.2855], [137.5609, 35.2848], [137.5616, 35.2845], [137.5619, 35.2833], [137.5594, 35.2833], [137.5582, 35.284], [137.5548, 35.2837], [137.5513, 35.2842], [137.5496, 35.2832], [137.5479, 35.2816], [137.5454, 35.2814], [137.544, 35.2807], [137.5433, 35.2806], [137.5417, 35.2813], [137.5404, 35.2812], [137.5395, 35.2818], [137.5372, 35.2817], [137.536, 35.2823], [137.5356, 35.2816], [137.5345, 35.2821], [137.5338, 35.2813], [137.533, 35.2821], [137.5316, 35.2822], [137.5307, 35.2825], [137.53, 35.2831], [137.5298, 35.284], [137.5289, 35.2842], [137.5251, 35.2844], [137.5234, 35.2841], [137.5215, 35.2844], [137.5207, 35.2837], [137.5202, 35.2838], [137.5198, 35.2832], [137.519, 35.2834], [137.5187, 35.2819], [137.52, 35.2788], [137.5203, 35.2767], [137.5208, 35.2755], [137.5208, 35.2732], [137.5202, 35.2733], [137.5192, 35.2742], [137.5162, 35.275], [137.5132, 35.2719], [137.5132, 35.2713], [137.514, 35.2699], [137.5138, 35.2692], [137.513, 35.2687], [137.5103, 35.2678], [137.5085, 35.2662], [137.5069, 35.2666], [137.5064, 35.2665], [137.506, 35.266], [137.5063, 35.2648], [137.5053, 35.263], [137.5049, 35.2628], [137.5036, 35.2629], [137.5009, 35.2637], [137.498, 35.2643], [137.497, 35.2642], [137.4966, 35.2635], [137.4966, 35.262], [137.4968, 35.2615], [137.4978, 35.261], [137.4981, 35.2604], [137.4979, 35.2599], [137.4974, 35.2593], [137.4953, 35.259], [137.492, 35.2595], [137.4897, 35.2588], [137.4881, 35.258], [137.4841, 35.2575], [137.4834, 35.257], [137.483, 35.2554], [137.4821, 35.2547], [137.4763, 35.2533], [137.4755, 35.2526], [137.4748, 35.2513], [137.4732, 35.2501], [137.4717, 35.2476], [137.4694, 35.2456], [137.469, 35.2455], [137.4679, 35.2457], [137.4666, 35.2467], [137.4658, 35.2465], [137.4649, 35.2454], [137.4633, 35.2441], [137.4627, 35.2418], [137.4615, 35.2407], [137.4603, 35.24], [137.4576, 35.2395], [137.4542, 35.2406], [137.4533, 35.2405], [137.4519, 35.2383], [137.451, 35.2359], [137.4502, 35.235], [137.4485, 35.2347], [137.4458, 35.2337], [137.4438, 35.2338], [137.4419, 35.2336], [137.4414, 35.2327], [137.4411, 35.2299], [137.4405, 35.2297], [137.4392, 35.2301], [137.4383, 35.2299], [137.4374, 35.228], [137.437, 35.2263], [137.4356, 35.2246], [137.4348, 35.2242], [137.4299, 35.2228], [137.429, 35.2229], [137.4282, 35.2232], [137.4274, 35.2254], [137.4258, 35.226], [137.4251, 35.2267], [137.424, 35.2286], [137.4233, 35.2315], [137.4225, 35.2326], [137.4204, 35.2341], [137.4189, 35.2386], [137.4178, 35.2399], [137.4169, 35.2405], [137.4159, 35.2403], [137.415, 35.2391], [137.4127, 35.2373], [137.4085, 35.2348], [137.4081, 35.2348], [137.4077, 35.2351], [137.4076, 35.2372], [137.4072, 35.2377], [137.4061, 35.2384], [137.4041, 35.2383], [137.4032, 35.2386], [137.4007, 35.2418], [137.4002, 35.2418], [137.397, 35.2407], [137.3895, 35.2402], [137.3881, 35.2403], [137.3867, 35.2412], [137.3859, 35.2423], [137.3855, 35.2439], [137.3849, 35.2443], [137.3852, 35.2449], [137.3849, 35.2456], [137.3841, 35.2462], [137.3828, 35.2468], [137.3825, 35.2472], [137.3829, 35.2478], [137.3857, 35.2492], [137.387, 35.2519], [137.3868, 35.2526], [137.3857, 35.2539], [137.3851, 35.2588], [137.3836, 35.2598], [137.3834, 35.2602], [137.3812, 35.2599], [137.379, 35.2587], [137.3778, 35.2587], [137.377, 35.2596], [137.3759, 35.2594], [137.3748, 35.2608], [137.3744, 35.2619], [137.3729, 35.2635], [137.3708, 35.2631], [137.3701, 35.2617], [137.3687, 35.2604], [137.3662, 35.261], [137.365, 35.2608], [137.362, 35.261], [137.3613, 35.2605], [137.3592, 35.2603], [137.3583, 35.2595], [137.3553, 35.2584], [137.3539, 35.2581], [137.3528, 35.2587], [137.3511, 35.2574], [137.3502, 35.2572], [137.3491, 35.2573], [137.3486, 35.2579], [137.3481, 35.258], [137.347, 35.2575], [137.3458, 35.2579], [137.344, 35.2579], [137.3435, 35.2588], [137.3452, 35.2601], [137.3454, 35.2604], [137.3451, 35.2617], [137.3447, 35.262], [137.3426, 35.2612], [137.3415, 35.2637], [137.3403, 35.264], [137.3399, 35.2648], [137.3419, 35.2671], [137.3452, 35.2691], [137.3467, 35.2708], [137.3464, 35.2715], [137.3453, 35.2722], [137.3453, 35.2732], [137.345, 35.2736], [137.3441, 35.2741], [137.3424, 35.2743], [137.3419, 35.2749], [137.3377, 35.276], [137.3381, 35.2747], [137.3379, 35.2744], [137.3375, 35.2744], [137.3355, 35.2754], [137.3339, 35.2775], [137.3328, 35.2776], [137.332, 35.2769], [137.3313, 35.2767], [137.3311, 35.2771], [137.332, 35.2782], [137.3303, 35.2785], [137.3291, 35.2799], [137.3276, 35.2807], [137.3266, 35.2803], [137.3256, 35.2804], [137.3245, 35.2814], [137.3244, 35.2819], [137.3235, 35.2823], [137.3212, 35.2843], [137.3202, 35.2844], [137.3182, 35.2856], [137.3175, 35.2854], [137.317, 35.2858], [137.3139, 35.2868], [137.3127, 35.2874], [137.3124, 35.2879], [137.3116, 35.2878], [137.3107, 35.2883], [137.31, 35.2882], [137.3097, 35.2889], [137.3089, 35.289], [137.3082, 35.2895], [137.3078, 35.2903], [137.308, 35.2911], [137.3055, 35.2905], [137.305, 35.29], [137.3037, 35.2906], [137.3027, 35.2902], [137.302, 35.2906], [137.3016, 35.2898], [137.2986, 35.2887], [137.2974, 35.2889], [137.2969, 35.2894], [137.2968, 35.2901], [137.2951, 35.29], [137.2926, 35.2885], [137.2918, 35.2885], [137.2913, 35.2882], [137.2902, 35.2885], [137.2894, 35.2881], [137.2872, 35.2887], [137.2845, 35.2883], [137.2838, 35.2887], [137.2832, 35.2882], [137.283, 35.2876], [137.2827, 35.2876], [137.281, 35.2878], [137.2803, 35.2885], [137.2786, 35.2879], [137.2781, 35.288], [137.2767, 35.2889], [137.2768, 35.2898], [137.2764, 35.2903], [137.276, 35.2905], [137.2752, 35.2905], [137.2741, 35.2878], [137.2733, 35.2878], [137.2717, 35.2861], [137.271, 35.2859], [137.2699, 35.2866], [137.2689, 35.2865], [137.2682, 35.2869], [137.2626, 35.285], [137.2621, 35.2834], [137.2611, 35.2831], [137.2603, 35.2822], [137.26, 35.2811], [137.2609, 35.2805], [137.2601, 35.2797], [137.2595, 35.2786], [137.2605, 35.2777], [137.2608, 35.2751], [137.2595, 35.2743], [137.2584, 35.2749], [137.2576, 35.275], [137.2574, 35.2725], [137.2569, 35.2723], [137.2557, 35.2727], [137.2535, 35.2726], [137.2531, 35.2723], [137.2527, 35.271], [137.2515, 35.2705], [137.2516, 35.2696], [137.2497, 35.2684], [137.2459, 35.2683], [137.2453, 35.2685], [137.2448, 35.2689], [137.2436, 35.2687], [137.2435, 35.2675], [137.2442, 35.2672], [137.2442, 35.2668], [137.2435, 35.266], [137.243, 35.2659], [137.2423, 35.2647], [137.2416, 35.2643], [137.2411, 35.2644], [137.2402, 35.2653], [137.2396, 35.2647], [137.239, 35.2645], [137.2373, 35.2653], [137.2354, 35.2647], [137.2344, 35.2637], [137.2338, 35.2623], [137.2339, 35.2617], [137.2332, 35.2609], [137.2299, 35.261], [137.2295, 35.2605], [137.2286, 35.2603], [137.2286, 35.2597], [137.2299, 35.2589], [137.229, 35.2589], [137.2284, 35.2592], [137.2282, 35.259], [137.2264, 35.2583], [137.2259, 35.2575], [137.225, 35.257], [137.2248, 35.2565], [137.2229, 35.2559], [137.2215, 35.2557], [137.2211, 35.2574], [137.2215, 35.26], [137.221, 35.2605], [137.2183, 35.2588], [137.218, 35.2595], [137.2176, 35.2598], [137.2169, 35.2594], [137.2159, 35.2596], [137.2145, 35.2593], [137.2134, 35.26], [137.2129, 35.2596], [137.212, 35.26], [137.2112, 35.2598], [137.2113, 35.2592], [137.2107, 35.2586], [137.2088, 35.258], [137.2086, 35.2572], [137.2088, 35.2567], [137.2084, 35.2543], [137.2079, 35.2541], [137.2078, 35.2536], [137.2064, 35.2532], [137.2056, 35.255], [137.2033, 35.2551], [137.203, 35.2549], [137.2028, 35.2535], [137.2024, 35.2531], [137.2015, 35.2533], [137.2015, 35.2524], [137.2004, 35.2515], [137.1985, 35.2524], [137.1974, 35.2533], [137.1931, 35.2538], [137.191, 35.2544], [137.1904, 35.2541], [137.1901, 35.2529], [137.1894, 35.2526], [137.187, 35.2534], [137.1861, 35.2531], [137.184, 35.2545], [137.1839, 35.2556], [137.1827, 35.2564], [137.1819, 35.2575], [137.1811, 35.2577], [137.1806, 35.2581], [137.1796, 35.258], [137.179, 35.2588], [137.178, 35.2592], [137.1765, 35.2604], [137.1756, 35.2627], [137.1754, 35.2646], [137.174, 35.2649], [137.1729, 35.2648], [137.1736, 35.2655], [137.1755, 35.2663], [137.1765, 35.268], [137.1774, 35.2683], [137.1773, 35.2695], [137.1766, 35.2699], [137.1767, 35.2707], [137.1757, 35.2706], [137.1756, 35.2709], [137.1749, 35.271], [137.1744, 35.2717], [137.1736, 35.272], [137.1736, 35.2734], [137.1739, 35.2739], [137.1737, 35.2749], [137.1732, 35.2752], [137.1729, 35.2757], [137.1712, 35.2751], [137.1702, 35.2756], [137.1695, 35.2763], [137.1697, 35.2777], [137.1693, 35.2782], [137.1685, 35.2784], [137.1683, 35.2791], [137.1676, 35.2791], [137.1673, 35.2798], [137.1665, 35.2803], [137.1657, 35.2822], [137.165, 35.2828], [137.1651, 35.2835], [137.1635, 35.2831], [137.1625, 35.2834], [137.1617, 35.2824], [137.1613, 35.2823], [137.1604, 35.2827], [137.1588, 35.2825], [137.1571, 35.2818], [137.1564, 35.2818], [137.1557, 35.2813], [137.1546, 35.2798], [137.1523, 35.2796], [137.1513, 35.2805], [137.1507, 35.2807], [137.1505, 35.2813], [137.1493, 35.2818], [137.148, 35.2809], [137.1472, 35.2808], [137.1456, 35.2799], [137.145, 35.2804], [137.1434, 35.2808], [137.1431, 35.2818], [137.1419, 35.2833], [137.1419, 35.284], [137.1405, 35.2848], [137.1403, 35.2858], [137.1381, 35.2867], [137.1382, 35.2877], [137.1378, 35.2882], [137.1372, 35.2885], [137.1352, 35.2904], [137.1343, 35.2906], [137.1341, 35.2912], [137.1333, 35.2921], [137.1333, 35.2927], [137.1327, 35.2927], [137.1315, 35.2937], [137.1304, 35.2926], [137.1291, 35.2946], [137.1286, 35.2946], [137.1283, 35.2943], [137.1277, 35.2942], [137.1269, 35.2944], [137.126, 35.2953], [137.124, 35.2954], [137.1235, 35.2962], [137.1227, 35.2957], [137.1216, 35.2961], [137.1212, 35.2965], [137.1202, 35.2965], [137.1198, 35.2973], [137.1189, 35.2979], [137.1168, 35.2974], [137.1164, 35.2975], [137.1152, 35.2989], [137.1144, 35.2987], [137.1131, 35.299], [137.1122, 35.2988], [137.1106, 35.2997], [137.1101, 35.2997], [137.1096, 35.3002], [137.108, 35.3], [137.1072, 35.3003], [137.1048, 35.3005], [137.1038, 35.3012], [137.1025, 35.3017], [137.1009, 35.3017], [137.1011, 35.3], [137.1008, 35.2992], [137.0977, 35.2971], [137.0976, 35.2961], [137.0987, 35.2935], [137.0988, 35.2923], [137.0984, 35.2918], [137.0966, 35.2913], [137.0962, 35.2905], [137.0935, 35.2913], [137.092, 35.2931], [137.091, 35.2929], [137.0904, 35.2925], [137.087, 35.2927], [137.081, 35.2924], [137.0806, 35.2942], [137.081, 35.2951], [137.0801, 35.2955], [137.0796, 35.2962], [137.0805, 35.2972], [137.0805, 35.298], [137.081, 35.2985], [137.0813, 35.2997], [137.0809, 35.3003], [137.0799, 35.301], [137.0802, 35.3019], [137.0801, 35.3032], [137.0817, 35.3053], [137.0799, 35.3067], [137.0791, 35.3069], [137.0776, 35.307], [137.0762, 35.3063], [137.0748, 35.3063], [137.0734, 35.3067], [137.072, 35.3066], [137.0707, 35.3081], [137.069, 35.3087], [137.0671, 35.3088], [137.0664, 35.309], [137.0668, 35.3117], [137.0656, 35.3128], [137.0645, 35.3167], [137.0635, 35.3177], [137.0632, 35.3184], [137.0638, 35.3204], [137.0657, 35.3219], [137.0687, 35.3242], [137.0694, 35.3245], [137.0696, 35.3251], [137.0717, 35.325], [137.0727, 35.3258], [137.0731, 35.3268], [137.0727, 35.3269], [137.0717, 35.3284], [137.0714, 35.3306], [137.071, 35.3311], [137.0696, 35.331], [137.0694, 35.3327], [137.0688, 35.3335], [137.0683, 35.3338], [137.0681, 35.3351], [137.0688, 35.3357], [137.0669, 35.336], [137.0662, 35.3365], [137.0656, 35.3362], [137.0648, 35.3364], [137.0638, 35.336], [137.0633, 35.3382], [137.0627, 35.3383], [137.0623, 35.3388], [137.0616, 35.339], [137.0602, 35.3387], [137.0596, 35.3389], [137.0595, 35.3384], [137.0586, 35.3386], [137.0568, 35.3381], [137.0561, 35.3377], [137.0555, 35.3377], [137.0553, 35.337], [137.054, 35.3361], [137.0536, 35.3361], [137.0529, 35.3366], [137.0524, 35.3365], [137.0519, 35.336], [137.0508, 35.3357], [137.0498, 35.3343], [137.0494, 35.3343], [137.0474, 35.3355], [137.0479, 35.336], [137.048, 35.3369], [137.0465, 35.3395], [137.0462, 35.3407], [137.0465, 35.3436], [137.0462, 35.344], [137.0467, 35.3456], [137.0465, 35.3464], [137.0468, 35.3469], [137.0466, 35.3475], [137.0468, 35.3486], [137.0459, 35.3501], [137.0461, 35.351], [137.0472, 35.3515], [137.0479, 35.3522], [137.0479, 35.353], [137.0488, 35.3554], [137.049, 35.3576], [137.0501, 35.3595], [137.0491, 35.3616], [137.0488, 35.3631], [137.0482, 35.3634], [137.048, 35.3645], [137.047, 35.3657], [137.047, 35.3661], [137.0462, 35.3662], [137.0456, 35.3666], [137.0452, 35.3675], [137.0449, 35.3676], [137.0406, 35.3669], [137.0398, 35.3675], [137.0388, 35.3678], [137.0381, 35.3675], [137.0375, 35.368], [137.0369, 35.3677], [137.0344, 35.3677], [137.0339, 35.3681], [137.034, 35.369], [137.0326, 35.3691], [137.0297, 35.3711], [137.0293, 35.3724], [137.0298, 35.374], [137.0291, 35.3743], [137.0288, 35.3751], [137.0284, 35.3753], [137.0282, 35.3762], [137.0274, 35.3758], [137.0265, 35.3749], [137.0255, 35.3751], [137.023, 35.3748], [137.0211, 35.3757], [137.02, 35.3757], [137.0188, 35.3765], [137.018, 35.3766], [137.0161, 35.3778], [137.016, 35.3791], [137.0151, 35.3804], [137.0153, 35.3812], [137.0145, 35.3817], [137.0133, 35.3818], [137.0117, 35.3813], [137.0109, 35.3821], [137.0103, 35.3812], [137.0096, 35.3815], [137.0073, 35.3814], [137.0061, 35.3818], [137.0058, 35.3817], [137.0055, 35.3811], [137.0038, 35.3808], [137.0026, 35.3812], [137.0021, 35.3817], [137.0021, 35.3834], [137.0007, 35.3841], [137.0003, 35.3847], [136.9997, 35.385], [136.9988, 35.3859], [136.9987, 35.3863], [136.9994, 35.3868], [136.9991, 35.3874], [136.9993, 35.3881], [136.9989, 35.3883], [136.9992, 35.3902], [136.9983, 35.3915], [136.9975, 35.3911], [136.997, 35.3911], [136.9962, 35.3923], [136.9951, 35.3932], [136.9947, 35.3931], [136.9938, 35.3936], [136.9935, 35.3935], [136.9933, 35.394], [136.9924, 35.3946], [136.9911, 35.3951], [136.9904, 35.3951], [136.9901, 35.3956], [136.9908, 35.3963], [136.9899, 35.3974], [136.9901, 35.3976], [136.9896, 35.3987], [136.9874, 35.4007], [136.9872, 35.4022], [136.9825, 35.4015], [136.9809, 35.402], [136.9801, 35.4028], [136.9781, 35.4033], [136.9784, 35.4064], [136.9799, 35.4076], [136.9801, 35.4084], [136.981, 35.4093], [136.9825, 35.41], [136.9844, 35.412], [136.9848, 35.413], [136.9844, 35.414], [136.9869, 35.4155], [136.9869, 35.4158], [136.9847, 35.4175], [136.9858, 35.4182], [136.9862, 35.4196], [136.9874, 35.4205], [136.9885, 35.4205], [136.9906, 35.4231], [136.9918, 35.4228], [136.9932, 35.4233], [136.9926, 35.4243], [136.9913, 35.4247], [136.986, 35.4245], [136.9742, 35.4217], [136.9716, 35.4222], [136.9702, 35.4222], [136.9666, 35.4217], [136.9646, 35.4211], [136.9636, 35.4204], [136.9628, 35.4193], [136.9618, 35.4173], [136.9612, 35.4151], [136.9612, 35.4139], [136.9627, 35.4093], [136.963, 35.4066], [136.9624, 35.4012], [136.9622, 35.4005], [136.9608, 35.3989], [136.9589, 35.3974], [136.9568, 35.3963], [136.9489, 35.3948], [136.9442, 35.3924], [136.9381, 35.3901], [136.9336, 35.3872], [136.9277, 35.3819], [136.9243, 35.3799], [136.9211, 35.3787], [136.9137, 35.3775], [136.905, 35.3775], [136.8925, 35.3786], [136.8925, 35.3781], [136.8888, 35.3781], [136.8867, 35.3778], [136.8747, 35.3735], [136.8708, 35.3728], [136.8649, 35.3728], [136.8628, 35.3692], [136.8599, 35.3673], [136.8525, 35.3641], [136.8456, 35.3619], [136.842, 35.36], [136.8352, 35.3569], [136.8327, 35.3566], [136.8291, 35.357], [136.8195, 35.359], [136.8126, 35.3597], [136.8074, 35.3599], [136.8034, 35.3604], [136.8011, 35.3611], [136.7932, 35.3646], [136.7953, 35.3666], [136.791, 35.369], [136.7769, 35.3701], [136.7727, 35.3696], [136.77, 35.3686], [136.767, 35.3662], [136.7643, 35.3628], [136.7601, 35.3588], [136.7595, 35.3578], [136.7568, 35.3517], [136.7534, 35.3453], [136.7493, 35.3361], [136.7443, 35.3297], [136.7375, 35.3195], [136.736, 35.3169], [136.7321, 35.3087], [136.7312, 35.305], [136.7284, 35.3004], [136.719, 35.2887], [136.7178, 35.2876], [136.714, 35.2855], [136.7114, 35.2835], [136.7087, 35.2809], [136.7045, 35.2758], [136.7024, 35.2718], [136.7005, 35.263], [136.6992, 35.261], [136.6951, 35.2559], [136.6942, 35.2551], [136.6913, 35.2537], [136.6867, 35.2506], [136.6805, 35.2452], [136.6798, 35.2442], [136.6792, 35.2415], [136.6792, 35.2397], [136.6799, 35.2339], [136.681, 35.2284], [136.6811, 35.2262], [136.6817, 35.2241], [136.6827, 35.2135], [136.6826, 35.2071], [136.6836, 35.2015], [136.6829, 35.1989], [136.6817, 35.197], [136.677, 35.1939], [136.6755, 35.1925], [136.6725, 35.1897], [136.6722, 35.1878], [136.6718, 35.1878], [136.6713, 35.1834], [136.6712, 35.178], [136.6716, 35.1731], [136.6731, 35.1679], [136.674, 35.163], [136.6742, 35.1572], [136.6741, 35.1533], [136.6723, 35.1462], [136.6715, 35.142], [136.6718, 35.1376], [136.6725, 35.1355], [136.6742, 35.1326], [136.6751, 35.1314], [136.6765, 35.1303], [136.6801, 35.1287], [136.6862, 35.1266], [136.6953, 35.124], [136.7004, 35.1181], [136.7014, 35.1186], [136.7124, 35.1054], [136.7184, 35.1028], [136.7202, 35.1034], [136.7204, 35.103], [136.7207, 35.1031], [136.7213, 35.1021], [136.7216, 35.1026], [136.7247, 35.1012], [136.7243, 35.1005], [136.7272, 35.0993], [136.731, 35.0972], [136.7328, 35.0959], [136.7355, 35.0926], [136.741, 35.0867], [136.7499, 35.0802], [136.7507, 35.0784], [136.7518, 35.0722], [136.7516, 35.062], [136.7533, 35.0535], [136.7574, 35.0456], [136.761, 35.0372], [136.7726, 35.0243], [136.7699, 35.0227], [136.7827, 35.0084], [136.7984, 35.0129], [136.7979, 35.0124], [136.7982, 35.0115], [136.7852, 34.9979], [136.7921, 34.9893], [136.7842, 34.9447], [136.8253, 34.9394], [136.825, 34.9385], [136.8245, 34.9384], [136.824, 34.9388], [136.8241, 34.9384], [136.8238, 34.9377], [136.8235, 34.9373], [136.8231, 34.9373], [136.8234, 34.9368], [136.823, 34.9364], [136.8227, 34.9352], [136.8222, 34.9345], [136.8224, 34.9341], [136.8216, 34.9335], [136.8224, 34.934], [136.823, 34.9352], [136.8233, 34.935], [136.8222, 34.9333], [136.822, 34.9326], [136.8222, 34.9333], [136.8227, 34.9335], [136.8232, 34.9331], [136.8233, 34.9325], [136.8233, 34.9321], [136.8228, 34.9321], [136.8226, 34.9324], [136.8228, 34.932], [136.8238, 34.9319], [136.824, 34.9313], [136.8242, 34.9294], [136.824, 34.9265], [136.8234, 34.9253], [136.823, 34.9252], [136.8237, 34.9247], [136.8237, 34.9236], [136.8236, 34.9233], [136.8232, 34.9232], [136.8237, 34.9231], [136.8236, 34.9209], [136.8239, 34.9207], [136.8236, 34.9208], [136.8228, 34.918], [136.8223, 34.9179], [136.8215, 34.9172], [136.821, 34.9154], [136.8216, 34.9172], [136.8223, 34.9178], [136.8229, 34.9176], [136.8226, 34.9152], [136.8215, 34.9154], [136.8222, 34.915], [136.8221, 34.9127], [136.8225, 34.9127], [136.8225, 34.9114], [136.8217, 34.9089], [136.8209, 34.9085], [136.8206, 34.9074], [136.8206, 34.9054], [136.8208, 34.9055], [136.8207, 34.907], [136.821, 34.908], [136.8214, 34.9082], [136.8214, 34.908], [136.8217, 34.908], [136.8219, 34.906], [136.8218, 34.9055], [136.8212, 34.9055], [136.8214, 34.9054], [136.821, 34.9048], [136.8215, 34.9055], [136.822, 34.9054], [136.8225, 34.9048], [136.8227, 34.9052], [136.8236, 34.9052], [136.8239, 34.9045], [136.8236, 34.9037], [136.8239, 34.9036], [136.8243, 34.9045], [136.8248, 34.9041], [136.8244, 34.9032], [136.8236, 34.9035], [136.8232, 34.9028], [136.8227, 34.9029], [136.8225, 34.9044], [136.8221, 34.9041], [136.8215, 34.9045], [136.8221, 34.9038], [136.8222, 34.902], [136.8231, 34.8993], [136.8235, 34.8988], [136.8237, 34.8974], [136.8244, 34.8974], [136.8241, 34.8973], [136.8246, 34.8967], [136.8246, 34.8949], [136.8254, 34.8948], [136.8258, 34.8942], [136.8258, 34.8938], [136.8267, 34.8943], [136.8269, 34.8939], [136.8265, 34.8935], [136.8271, 34.8931], [136.8257, 34.8922], [136.8229, 34.8895], [136.8225, 34.889], [136.8226, 34.8886], [136.8216, 34.888], [136.8207, 34.8866], [136.8208, 34.8863], [136.822, 34.8882], [136.8221, 34.8882], [136.8224, 34.886], [136.8227, 34.8858], [136.8224, 34.8845], [136.822, 34.8841], [136.8224, 34.883], [136.8255, 34.8776], [136.8291, 34.8736], [136.8277, 34.8753], [136.8299, 34.8765], [136.8328, 34.8744], [136.832, 34.8731], [136.8307, 34.872], [136.832, 34.873], [136.8354, 34.8789], [136.835, 34.8814], [136.8358, 34.8815], [136.8369, 34.8843], [136.8377, 34.8844], [136.8377, 34.8846], [136.8379, 34.8846], [136.8383, 34.8832], [136.8381, 34.8831], [136.8386, 34.8822], [136.8379, 34.882], [136.8388, 34.8823], [136.8389, 34.8821], [136.8384, 34.8819], [136.8393, 34.8805], [136.8397, 34.8806], [136.8401, 34.88], [136.8387, 34.8794], [136.8393, 34.8787], [136.8404, 34.8792], [136.8401, 34.879], [136.8405, 34.8791], [136.8408, 34.8784], [136.8403, 34.8781], [136.8409, 34.8783], [136.8411, 34.8778], [136.8406, 34.8777], [136.8408, 34.8771], [136.8405, 34.8768], [136.8363, 34.8784], [136.8381, 34.8776], [136.8373, 34.8759], [136.8433, 34.8723], [136.8436, 34.8719], [136.8435, 34.8714], [136.8441, 34.8718], [136.8439, 34.8722], [136.8444, 34.8725], [136.8448, 34.8724], [136.8444, 34.8725], [136.8442, 34.8722], [136.8454, 34.8715], [136.8443, 34.8717], [136.8441, 34.8715], [136.8456, 34.8714], [136.8459, 34.8712], [136.8458, 34.8708], [136.8439, 34.871], [136.8463, 34.8704], [136.8466, 34.8707], [136.8476, 34.8705], [136.8481, 34.8707], [136.849, 34.8704], [136.849, 34.87], [136.8495, 34.8701], [136.8509, 34.8681], [136.8507, 34.8677], [136.8514, 34.8687], [136.8516, 34.8685], [136.8514, 34.868], [136.8521, 34.8673], [136.8529, 34.8668], [136.8531, 34.8669], [136.8537, 34.8663], [136.8545, 34.8661], [136.8549, 34.8655], [136.8552, 34.8655], [136.855, 34.8654], [136.8553, 34.865], [136.8556, 34.865], [136.856, 34.8638], [136.8564, 34.8638], [136.8566, 34.863], [136.8572, 34.8627], [136.8571, 34.8619], [136.8575, 34.8611], [136.8574, 34.8575], [136.8568, 34.8562], [136.8563, 34.8562], [136.8557, 34.8559], [136.8562, 34.8556], [136.8578, 34.8559], [136.8565, 34.8556], [136.8567, 34.8544], [136.8568, 34.8544], [136.8566, 34.8556], [136.8574, 34.8557], [136.8576, 34.8543], [136.8578, 34.8543], [136.858, 34.8535], [136.8582, 34.8535], [136.8583, 34.8533], [136.8576, 34.853], [136.8557, 34.8543], [136.8576, 34.853], [136.8587, 34.8529], [136.8587, 34.8522], [136.8588, 34.852], [136.8588, 34.8524], [136.8591, 34.8514], [136.8602, 34.8501], [136.8604, 34.8501], [136.8602, 34.8508], [136.8606, 34.8502], [136.8607, 34.8484], [136.861, 34.8479], [136.8613, 34.848], [136.8618, 34.8465], [136.8627, 34.8473], [136.8631, 34.847], [136.8634, 34.8438], [136.8635, 34.8433], [136.8638, 34.8432], [136.8638, 34.8426], [136.8636, 34.8425], [136.8639, 34.8415], [136.8643, 34.8413], [136.8637, 34.8425], [136.8642, 34.8426], [136.8646, 34.842], [136.8644, 34.8418], [136.8652, 34.8423], [136.8648, 34.8419], [136.8652, 34.8414], [136.8653, 34.8405], [136.8657, 34.8406], [136.8662, 34.84], [136.8661, 34.8396], [136.8667, 34.8376], [136.8655, 34.8318], [136.8652, 34.8316], [136.8656, 34.8315], [136.8653, 34.8315], [136.8652, 34.8307], [136.864, 34.8302], [136.8632, 34.8287], [136.8642, 34.8302], [136.8655, 34.8305], [136.8658, 34.8294], [136.8651, 34.8294], [136.8647, 34.8272], [136.864, 34.8273], [136.8637, 34.8282], [136.8639, 34.8272], [136.8647, 34.8271], [136.8656, 34.8272], [136.8652, 34.8265], [136.8655, 34.8265], [136.8657, 34.826], [136.8645, 34.8226], [136.8644, 34.8224], [136.864, 34.8224], [136.8643, 34.8221], [136.8635, 34.8198], [136.8633, 34.8198], [136.8633, 34.8192], [136.8626, 34.8193], [136.8634, 34.8191], [136.8635, 34.8185], [136.8629, 34.8176], [136.8627, 34.816], [136.8625, 34.816], [136.8627, 34.8159], [136.8627, 34.8156], [136.8614, 34.8128], [136.861, 34.8122], [136.8605, 34.8123], [136.8609, 34.8121], [136.8609, 34.8118], [136.859, 34.8076], [136.8586, 34.8072], [136.8584, 34.8073], [136.8586, 34.8071], [136.8585, 34.8067], [136.8583, 34.8063], [136.858, 34.8063], [136.8599, 34.8059], [136.8598, 34.8056], [136.8582, 34.806], [136.8573, 34.8038], [136.8585, 34.8036], [136.8587, 34.8032], [136.8586, 34.8013], [136.858, 34.8004], [136.8583, 34.8003], [136.8578, 34.7994], [136.8581, 34.799], [136.8576, 34.7981], [136.8573, 34.7982], [136.8576, 34.798], [136.857, 34.7962], [136.8564, 34.7951], [136.8561, 34.7951], [136.8565, 34.795], [136.8561, 34.7935], [136.8537, 34.7888], [136.8535, 34.7888], [136.8538, 34.7887], [136.8537, 34.7885], [136.8528, 34.7868], [136.8519, 34.7871], [136.8544, 34.7861], [136.8541, 34.7857], [136.8528, 34.7866], [136.8521, 34.7868], [136.8526, 34.7865], [136.8525, 34.7859], [136.8468, 34.7741], [136.8468, 34.7739], [136.8474, 34.7739], [136.8465, 34.7736], [136.8439, 34.7668], [136.8433, 34.7661], [136.8429, 34.7662], [136.8413, 34.7662], [136.8429, 34.7661], [136.8446, 34.7651], [136.843, 34.7658], [136.8428, 34.7653], [136.8417, 34.7653], [136.8417, 34.7648], [136.8403, 34.7647], [136.8403, 34.7661], [136.8409, 34.7665], [136.8402, 34.7661], [136.8403, 34.7639], [136.8421, 34.7639], [136.8423, 34.7638], [136.842, 34.7625], [136.8428, 34.7617], [136.8429, 34.7609], [136.8437, 34.7604], [136.8437, 34.76], [136.8434, 34.7596], [136.8438, 34.7594], [136.8442, 34.7588], [136.8442, 34.7576], [136.8449, 34.7572], [136.8449, 34.7566], [136.8454, 34.7563], [136.8453, 34.7561], [136.8468, 34.7559], [136.8465, 34.7558], [136.8473, 34.7548], [136.8476, 34.7549], [136.8473, 34.7548], [136.8484, 34.7534], [136.8489, 34.7534], [136.8484, 34.7534], [136.8493, 34.7524], [136.8496, 34.7524], [136.8493, 34.7524], [136.8503, 34.751], [136.8507, 34.7511], [136.8503, 34.7509], [136.8514, 34.7496], [136.851, 34.7491], [136.8512, 34.7489], [136.8517, 34.7491], [136.8513, 34.7488], [136.8521, 34.7484], [136.8527, 34.7475], [136.8533, 34.7473], [136.8538, 34.7468], [136.8546, 34.7468], [136.8563, 34.7456], [136.8588, 34.7427], [136.8587, 34.7415], [136.8594, 34.7411], [136.8597, 34.7405], [136.8603, 34.7404], [136.8609, 34.7398], [136.8598, 34.7391], [136.8597, 34.7388], [136.8603, 34.7394], [136.8608, 34.7388], [136.8603, 34.7385], [136.8606, 34.738], [136.8603, 34.7379], [136.8592, 34.7385], [136.8603, 34.7379], [136.8617, 34.7382], [136.8619, 34.7375], [136.8618, 34.7382], [136.8623, 34.7383], [136.8648, 34.7381], [136.8664, 34.7375], [136.8679, 34.7363], [136.8683, 34.7356], [136.8683, 34.734], [136.8676, 34.7337], [136.8698, 34.7346], [136.8703, 34.7343], [136.8701, 34.7341], [136.8708, 34.734], [136.8707, 34.7338], [136.8694, 34.734], [136.8674, 34.7331], [136.8687, 34.7337], [136.8694, 34.7335], [136.8716, 34.7316], [136.8721, 34.7306], [136.8714, 34.7303], [136.8726, 34.7306], [136.8739, 34.7306], [136.8749, 34.7292], [136.8759, 34.7292], [136.8762, 34.7289], [136.8759, 34.7288], [136.8767, 34.7289], [136.8775, 34.7284], [136.8806, 34.7273], [136.8823, 34.726], [136.8816, 34.7257], [136.8821, 34.7252], [136.8825, 34.725], [136.8823, 34.7254], [136.8826, 34.7253], [136.8826, 34.7257], [136.8833, 34.7253], [136.883, 34.7254], [136.8829, 34.7251], [136.8834, 34.7246], [136.8835, 34.7252], [136.8836, 34.7252], [136.8833, 34.7255], [136.8844, 34.7248], [136.8845, 34.7246], [136.8841, 34.7247], [136.8841, 34.7242], [136.8836, 34.7242], [136.8835, 34.7239], [136.8842, 34.7232], [136.8846, 34.7235], [136.8851, 34.723], [136.8853, 34.7237], [136.8855, 34.7236], [136.8858, 34.7232], [136.8856, 34.7227], [136.8858, 34.7229], [136.8859, 34.7228], [136.8858, 34.7222], [136.886, 34.7222], [136.8861, 34.722], [136.8857, 34.7217], [136.8859, 34.7215], [136.8866, 34.7219], [136.8868, 34.7217], [136.8873, 34.7218], [136.8878, 34.7214], [136.8877, 34.7207], [136.888, 34.7203], [136.8883, 34.7204], [136.8882, 34.7207], [136.8886, 34.7209], [136.889, 34.7208], [136.889, 34.7204], [136.8895, 34.72], [136.8898, 34.7202], [136.8901, 34.7201], [136.8903, 34.7205], [136.8915, 34.7205], [136.8919, 34.7203], [136.892, 34.7198], [136.8921, 34.7204], [136.8934, 34.7201], [136.8929, 34.7195], [136.8923, 34.7196], [136.893, 34.7195], [136.8944, 34.7207], [136.8933, 34.7194], [136.8938, 34.7199], [136.8942, 34.7199], [136.8979, 34.719], [136.8983, 34.7187], [136.8984, 34.7182], [136.8989, 34.7184], [136.8995, 34.7182], [136.901, 34.7174], [136.9005, 34.7169], [136.9003, 34.7164], [136.9012, 34.7163], [136.9007, 34.7161], [136.9017, 34.7161], [136.9016, 34.7164], [136.9023, 34.7163], [136.9027, 34.7166], [136.9034, 34.7165], [136.9038, 34.7161], [136.9036, 34.7157], [136.9038, 34.7151], [136.9036, 34.7148], [136.9048, 34.7146], [136.905, 34.7148], [136.9049, 34.7151], [136.9054, 34.7155], [136.9051, 34.7156], [136.9063, 34.7157], [136.9064, 34.7162], [136.9064, 34.7156], [136.9068, 34.7155], [136.907, 34.7152], [136.9067, 34.7149], [136.9078, 34.7147], [136.908, 34.7149], [136.9083, 34.7147], [136.908, 34.7144], [136.9082, 34.7143], [136.9096, 34.7142], [136.9094, 34.7139], [136.9097, 34.7134], [136.9103, 34.7133], [136.9093, 34.713], [136.9102, 34.7123], [136.9111, 34.7122], [136.9103, 34.7121], [136.91, 34.7117], [136.912, 34.711], [136.9115, 34.7118], [136.9124, 34.7114], [136.9121, 34.7118], [136.9122, 34.712], [136.9131, 34.7116], [136.9129, 34.7112], [136.9137, 34.7108], [136.9135, 34.7112], [136.9143, 34.7111], [136.9141, 34.7112], [136.9148, 34.7114], [136.9144, 34.7117], [136.9145, 34.7119], [136.9151, 34.7118], [136.9157, 34.7113], [136.9153, 34.7104], [136.9159, 34.7102], [136.9159, 34.7099], [136.9166, 34.7101], [136.9164, 34.7102], [136.9166, 34.7107], [136.9171, 34.7107], [136.9176, 34.7104], [136.9174, 34.7103], [136.9177, 34.7098], [136.9168, 34.7097], [136.9183, 34.7093], [136.9182, 34.7091], [136.9187, 34.7082], [136.9182, 34.7091], [136.9186, 34.7095], [136.9202, 34.7089], [136.9199, 34.7084], [136.9205, 34.7081], [136.9211, 34.708], [136.9214, 34.7085], [136.9231, 34.7077], [136.9226, 34.707], [136.9216, 34.7071], [136.9204, 34.7079], [136.9191, 34.7081], [136.9217, 34.7069], [136.9235, 34.7067], [136.9238, 34.7071], [136.9241, 34.7066], [136.9246, 34.7066], [136.9255, 34.7062], [136.9267, 34.7062], [136.9271, 34.7065], [136.9278, 34.7061], [136.9287, 34.706], [136.929, 34.7055], [136.9297, 34.7054], [136.9305, 34.7048], [136.93, 34.703], [136.9335, 34.7023], [136.9341, 34.7025], [136.9342, 34.7034], [136.9354, 34.7041], [136.9341, 34.7035], [136.9338, 34.7036], [136.9332, 34.7044], [136.934, 34.705], [136.9366, 34.704], [136.9346, 34.7049], [136.9344, 34.7053], [136.9341, 34.7052], [136.9338, 34.7054], [136.9341, 34.7057], [136.9331, 34.7053], [136.9334, 34.7065], [136.934, 34.7067], [136.9342, 34.7064], [136.934, 34.7067], [136.9353, 34.7074], [136.934, 34.7067], [136.9335, 34.7073], [136.9337, 34.7077], [136.9343, 34.708], [136.9346, 34.7077], [136.9343, 34.7076], [136.9357, 34.7083], [136.9371, 34.7067], [136.9369, 34.7055], [136.9378, 34.7054], [136.9384, 34.7048], [136.9379, 34.7054], [136.939, 34.7063], [136.9402, 34.7051], [136.9405, 34.7053], [136.9399, 34.7058], [136.9402, 34.706], [136.9411, 34.7053], [136.9409, 34.7052], [136.9415, 34.7048], [136.9405, 34.7035], [136.9396, 34.7039], [136.9402, 34.7049], [136.9392, 34.7038], [136.9398, 34.7034], [136.9396, 34.7032], [136.9398, 34.7031], [136.9394, 34.703], [136.9402, 34.7022], [136.941, 34.7024], [136.9415, 34.7022], [136.9415, 34.7013], [136.9412, 34.7014], [136.9445, 34.6993], [136.9449, 34.6993], [136.9451, 34.6997], [136.9445, 34.7005], [136.945, 34.7004], [136.9453, 34.7008], [136.9453, 34.7005], [136.9456, 34.7008], [136.9453, 34.701], [136.9456, 34.7021], [136.9455, 34.7015], [136.9457, 34.702], [136.9465, 34.702], [136.9464, 34.701], [136.9457, 34.7011], [136.9455, 34.7014], [136.9456, 34.701], [136.9458, 34.7008], [136.9459, 34.701], [136.9476, 34.7008], [136.9474, 34.7], [136.948, 34.6998], [136.9473, 34.6992], [136.9475, 34.6989], [136.9478, 34.6993], [136.948, 34.6992], [136.9477, 34.6984], [136.9481, 34.6987], [136.9481, 34.6984], [136.9486, 34.6985], [136.9484, 34.6987], [136.949, 34.6994], [136.9492, 34.6989], [136.9498, 34.6989], [136.9497, 34.6986], [136.9499, 34.6987], [136.9501, 34.6983], [136.9507, 34.6981], [136.9512, 34.6991], [136.9511, 34.6997], [136.9516, 34.7], [136.9524, 34.6998], [136.9529, 34.7001], [136.9531, 34.6997], [136.9521, 34.6987], [136.9525, 34.6981], [136.9532, 34.6985], [136.9539, 34.6996], [136.9545, 34.6998], [136.955, 34.6988], [136.9551, 34.699], [136.9557, 34.6988], [136.9561, 34.6991], [136.9567, 34.6984], [136.9561, 34.6978], [136.9562, 34.697], [136.9566, 34.6968], [136.9567, 34.6981], [136.9571, 34.6981], [136.9573, 34.6985], [136.9577, 34.6978], [136.9569, 34.6996], [136.9571, 34.7001], [136.9576, 34.7001], [136.9575, 34.6997], [136.9583, 34.6994], [136.9586, 34.6988], [136.9587, 34.699], [136.9594, 34.699], [136.9595, 34.6987], [136.9598, 34.699], [136.9602, 34.6982], [136.9607, 34.6985], [136.9611, 34.6982], [136.9613, 34.6987], [136.9605, 34.7], [136.9606, 34.7005], [136.96, 34.7009], [136.9607, 34.7013], [136.9617, 34.7013], [136.9617, 34.7006], [136.9621, 34.7008], [136.9621, 34.7005], [136.9625, 34.7008], [136.9627, 34.7006], [136.963, 34.701], [136.963, 34.7013], [136.9627, 34.701], [136.9627, 34.7013], [136.9643, 34.7013], [136.9651, 34.701], [136.9649, 34.7007], [136.9653, 34.7005], [136.9647, 34.6994], [136.9651, 34.6991], [136.9663, 34.6999], [136.9666, 34.7003], [136.9664, 34.7005], [136.9674, 34.7003], [136.9677, 34.7], [136.9679, 34.7002], [136.968, 34.6995], [136.9674, 34.6992], [136.9673, 34.6983], [136.9681, 34.6984], [136.9687, 34.6978], [136.969, 34.6982], [136.9691, 34.6978], [136.9697, 34.6975], [136.9701, 34.6966], [136.9704, 34.6966], [136.9707, 34.697], [136.971, 34.697], [136.9712, 34.6967], [136.9709, 34.6964], [136.9715, 34.6962], [136.9713, 34.6958], [136.9711, 34.6959], [136.9712, 34.6957], [136.9719, 34.695], [136.972, 34.6953], [136.9721, 34.6947], [136.9726, 34.695], [136.9722, 34.6952], [136.9723, 34.6955], [136.9727, 34.6954], [136.9728, 34.696], [136.9734, 34.6961], [136.9735, 34.6964], [136.9737, 34.6959], [136.9743, 34.6958], [136.9742, 34.696], [136.9746, 34.6962], [136.9739, 34.6967], [136.9749, 34.6978], [136.9737, 34.6965], [136.9735, 34.6965], [136.9736, 34.6969], [136.9725, 34.6975], [136.9725, 34.6979], [136.972, 34.6978], [136.9719, 34.6981], [136.9707, 34.698], [136.9707, 34.6989], [136.9705, 34.6988], [136.9709, 34.6994], [136.9713, 34.6994], [136.9713, 34.6987], [136.9718, 34.6998], [136.9717, 34.7], [136.972, 34.6999], [136.9727, 34.7002], [136.9733, 34.6995], [136.9727, 34.6988], [136.9733, 34.6994], [136.9738, 34.6995], [136.9742, 34.7011], [136.9737, 34.7021], [136.9733, 34.7021], [136.9735, 34.7025], [136.9738, 34.7022], [136.9742, 34.7029], [136.9752, 34.7028], [136.9755, 34.7023], [136.9754, 34.7017], [136.9758, 34.7017], [136.9758, 34.7014], [136.9758, 34.7017], [136.9767, 34.7018], [136.9764, 34.7018], [136.9761, 34.7034], [136.9773, 34.7036], [136.9777, 34.7018], [136.9775, 34.7018], [136.9778, 34.7018], [136.9774, 34.704], [136.9763, 34.7061], [136.975, 34.7059], [136.9748, 34.7064], [136.9751, 34.7053], [136.9741, 34.7051], [136.9739, 34.7055], [136.9743, 34.7059], [136.9741, 34.706], [136.9736, 34.7055], [136.9734, 34.7057], [136.9738, 34.7051], [136.9733, 34.7047], [136.9726, 34.7053], [136.9729, 34.7054], [136.9729, 34.7061], [136.9733, 34.7063], [136.9728, 34.7062], [136.9711, 34.7089], [136.9707, 34.709], [136.9699, 34.7103], [136.9703, 34.7109], [136.9698, 34.7103], [136.9686, 34.7101], [136.9684, 34.7097], [136.9678, 34.7096], [136.9677, 34.7098], [136.9678, 34.7115], [136.9682, 34.7116], [136.9679, 34.7119], [136.9686, 34.7127], [136.9692, 34.7125], [136.9688, 34.7114], [136.9693, 34.7125], [136.9703, 34.7121], [136.9704, 34.7123], [136.9708, 34.7122], [136.9706, 34.7117], [136.9709, 34.7112], [136.9706, 34.7117], [136.971, 34.7125], [136.9685, 34.7133], [136.9702, 34.7129], [136.9714, 34.7133], [136.9713, 34.7129], [136.9716, 34.713], [136.9716, 34.7127], [136.9723, 34.7131], [136.9721, 34.7135], [136.9725, 34.7137], [136.9719, 34.7139], [136.9721, 34.7148], [136.9733, 34.7152], [136.9727, 34.7154], [136.9726, 34.7158], [136.973, 34.7162], [136.9728, 34.7165], [136.973, 34.7172], [136.9725, 34.7177], [136.971, 34.717], [136.9699, 34.7172], [136.9693, 34.7178], [136.9695, 34.7184], [136.9699, 34.7185], [136.9702, 34.7183], [136.9708, 34.719], [136.97, 34.7193], [136.9693, 34.7186], [136.9685, 34.7191], [136.9685, 34.7198], [136.9685, 34.7192], [136.9679, 34.7187], [136.9668, 34.7187], [136.967, 34.719], [136.9657, 34.7181], [136.9647, 34.7178], [136.9631, 34.7188], [136.9625, 34.7203], [136.962, 34.7207], [136.962, 34.7212], [136.9629, 34.7211], [136.9631, 34.7206], [136.9638, 34.7206], [136.9641, 34.7193], [136.9646, 34.7195], [136.9643, 34.7207], [136.9651, 34.7223], [136.9646, 34.7214], [136.9632, 34.7218], [136.9639, 34.723], [136.9657, 34.7232], [136.9658, 34.7223], [136.9658, 34.7234], [136.9661, 34.7234], [136.967, 34.7231], [136.9673, 34.7224], [136.9673, 34.7228], [136.9683, 34.7236], [136.969, 34.7233], [136.9693, 34.7237], [136.9696, 34.7236], [136.9695, 34.7241], [136.9699, 34.724], [136.9702, 34.7247], [136.9707, 34.7241], [136.9713, 34.7243], [136.9706, 34.725], [136.9707, 34.7252], [136.9704, 34.7258], [136.9707, 34.7259], [136.9702, 34.726], [136.9694, 34.7265], [136.9688, 34.7259], [136.9678, 34.7267], [136.9674, 34.7278], [136.9673, 34.7295], [136.9659, 34.7327], [136.9643, 34.7342], [136.9618, 34.7354], [136.9606, 34.7362], [136.9603, 34.7367], [136.9592, 34.7361], [136.959, 34.7356], [136.9592, 34.7361], [136.96, 34.7367], [136.9563, 34.7378], [136.952, 34.738], [136.9511, 34.7385], [136.9509, 34.7383], [136.951, 34.7385], [136.9503, 34.7389], [136.9501, 34.7388], [136.9503, 34.739], [136.9494, 34.74], [136.9498, 34.7403], [136.9497, 34.7409], [136.9497, 34.7403], [136.9493, 34.74], [136.9488, 34.7406], [136.9494, 34.7409], [136.9491, 34.7411], [136.9483, 34.7406], [136.9484, 34.7403], [136.9481, 34.7407], [136.949, 34.7412], [136.9483, 34.7408], [136.947, 34.7419], [136.9472, 34.742], [136.9467, 34.7418], [136.9469, 34.7419], [136.946, 34.7426], [136.9462, 34.7428], [136.9459, 34.7426], [136.9455, 34.7428], [136.9449, 34.7434], [136.9451, 34.7437], [136.9449, 34.7436], [136.9439, 34.7446], [136.9429, 34.7462], [136.9427, 34.7472], [136.9429, 34.7476], [136.9419, 34.747], [136.9419, 34.7472], [136.9428, 34.7477], [136.9423, 34.7475], [136.9419, 34.7476], [136.9402, 34.749], [136.9373, 34.75], [136.9362, 34.7513], [136.9361, 34.7522], [136.9351, 34.7519], [136.936, 34.7525], [136.9358, 34.7524], [136.9348, 34.7538], [136.9299, 34.7555], [136.9276, 34.757], [136.9272, 34.7579], [136.9276, 34.7597], [136.9273, 34.7597], [136.9272, 34.76], [136.9273, 34.7609], [136.9275, 34.7609], [136.9275, 34.7632], [136.927, 34.7632], [136.927, 34.7641], [136.9262, 34.7642], [136.926, 34.7646], [136.9254, 34.7647], [136.9252, 34.7644], [136.9241, 34.7646], [136.9243, 34.7656], [136.9228, 34.767], [136.9242, 34.7655], [136.924, 34.7645], [136.9233, 34.7644], [136.9234, 34.7649], [136.9221, 34.7651], [136.9223, 34.7661], [136.9218, 34.7645], [136.9216, 34.7646], [136.9216, 34.7649], [136.9212, 34.7648], [136.9189, 34.7662], [136.9182, 34.767], [136.9183, 34.7671], [136.9181, 34.767], [136.9177, 34.7676], [136.9176, 34.7681], [136.9172, 34.7677], [136.9174, 34.7682], [136.9166, 34.769], [136.9153, 34.7694], [136.915, 34.7702], [136.9145, 34.7705], [136.9144, 34.7715], [136.9149, 34.7741], [136.9156, 34.7758], [136.9169, 34.7756], [136.918, 34.7766], [136.9172, 34.7759], [136.917, 34.7761], [136.9172, 34.7759], [136.9169, 34.7757], [136.9159, 34.7758], [136.9159, 34.7762], [136.9162, 34.7761], [136.9159, 34.7762], [136.9162, 34.7773], [136.9175, 34.7772], [136.9158, 34.7774], [136.915, 34.7779], [136.9137, 34.7777], [136.9134, 34.7778], [136.9146, 34.7782], [136.9169, 34.7779], [136.9152, 34.7782], [136.9151, 34.7784], [136.9156, 34.7797], [136.9153, 34.7798], [136.9159, 34.7815], [136.9156, 34.7817], [136.9161, 34.7837], [136.9178, 34.7877], [136.9181, 34.7882], [136.9184, 34.7881], [136.9181, 34.7882], [136.9189, 34.7894], [136.9187, 34.7895], [136.9205, 34.7922], [136.9203, 34.7923], [136.9209, 34.7931], [136.9212, 34.7932], [136.9207, 34.7933], [136.9209, 34.7935], [136.9211, 34.7949], [136.9209, 34.7961], [136.9192, 34.7981], [136.9211, 34.8023], [136.9222, 34.804], [136.9206, 34.8043], [136.9264, 34.8044], [136.9265, 34.8135], [136.9377, 34.8133], [136.9388, 34.8225], [136.9486, 34.8122], [136.9651, 34.8121], [136.9624, 34.807], [136.959, 34.8016], [136.9831, 34.8029], [136.9904, 34.803], [136.9906, 34.8049], [136.9992, 34.8068], [137.0004, 34.8042], [137.0028, 34.8018], [137.0026, 34.8016], [137.003, 34.8017], [137.0027, 34.8015], [137.003, 34.8017], [137.0061, 34.799], [137.0101, 34.7971], [137.01, 34.7968], [137.0103, 34.797], [137.0105, 34.7966], [137.0106, 34.7968], [137.0121, 34.7961], [137.0118, 34.7956], [137.012, 34.7956], [137.0115, 34.7929], [137.0126, 34.7928], [137.0125, 34.7919], [137.0139, 34.7917], [137.0137, 34.7909], [137.0147, 34.7908], [137.0143, 34.7894], [137.0132, 34.788], [137.0141, 34.7874], [137.0146, 34.7878], [137.0168, 34.7859], [137.0201, 34.7846], [137.0212, 34.782], [137.0262, 34.7776], [137.0281, 34.7772], [137.0297, 34.7776], [137.0306, 34.7785], [137.0314, 34.7781], [137.0301, 34.7773], [137.0296, 34.7761], [137.03, 34.7756], [137.0297, 34.7761], [137.0299, 34.7768], [137.0327, 34.7761], [137.0324, 34.7751], [137.0299, 34.7749], [137.0329, 34.775], [137.0338, 34.7774], [137.0341, 34.7773], [137.0341, 34.7771], [137.0342, 34.7774], [137.0342, 34.7771], [137.0344, 34.7773], [137.0406, 34.7757], [137.0406, 34.7755], [137.0407, 34.7757], [137.0408, 34.7755], [137.0411, 34.7757], [137.0432, 34.7759], [137.0463, 34.7767], [137.0467, 34.7765], [137.0476, 34.7765], [137.048, 34.7772], [137.0494, 34.7777], [137.051, 34.7779], [137.0505, 34.7796], [137.0542, 34.7801], [137.0563, 34.7808], [137.0565, 34.7814], [137.0562, 34.7836], [137.0566, 34.7832], [137.0568, 34.7815], [137.0571, 34.7812], [137.0591, 34.7815], [137.0592, 34.7818], [137.0604, 34.7821], [137.0606, 34.7817], [137.0615, 34.782], [137.0615, 34.7822], [137.0624, 34.7826], [137.0626, 34.7824], [137.0629, 34.7831], [137.0636, 34.7831], [137.0637, 34.7827], [137.0636, 34.7833], [137.063, 34.7833], [137.063, 34.7845], [137.0641, 34.7845], [137.0641, 34.7842], [137.0641, 34.7846], [137.0647, 34.7846], [137.0648, 34.7832], [137.0645, 34.7824], [137.0648, 34.7832], [137.0647, 34.7854], [137.0651, 34.7855], [137.0652, 34.7852], [137.0654, 34.7855], [137.0656, 34.7853], [137.0654, 34.7855], [137.0693, 34.7866], [137.0694, 34.7863], [137.0695, 34.7866], [137.0697, 34.7862], [137.0695, 34.7866], [137.0698, 34.7867], [137.0719, 34.7865], [137.072, 34.7863], [137.0719, 34.7865], [137.0733, 34.7866], [137.0733, 34.7865], [137.0733, 34.7866], [137.0753, 34.7868], [137.0753, 34.7865], [137.0757, 34.7872], [137.0754, 34.7888], [137.0758, 34.7888], [137.0766, 34.7857], [137.0771, 34.7851], [137.0791, 34.7846], [137.079, 34.7843], [137.08, 34.784], [137.0802, 34.7845], [137.0804, 34.7845], [137.0803, 34.7839], [137.0815, 34.7836], [137.0818, 34.7841], [137.0816, 34.7838], [137.0823, 34.7836], [137.0838, 34.7818], [137.0828, 34.7811], [137.0837, 34.78], [137.0843, 34.7798], [137.0842, 34.7791], [137.0843, 34.7798], [137.0855, 34.7794], [137.0849, 34.7784], [137.0842, 34.7788], [137.0843, 34.7786], [137.0833, 34.7781], [137.0842, 34.7785], [137.085, 34.7784], [137.0867, 34.7764], [137.0865, 34.7758], [137.0873, 34.7757], [137.0877, 34.7752], [137.0885, 34.7752], [137.0876, 34.7754], [137.088, 34.7762], [137.0886, 34.7766], [137.0895, 34.7768], [137.0901, 34.7767], [137.0898, 34.7763], [137.0902, 34.7765], [137.0902, 34.777], [137.0908, 34.777], [137.0911, 34.7767], [137.0908, 34.777], [137.0905, 34.777], [137.0902, 34.7775], [137.091, 34.7783], [137.0917, 34.7785], [137.0919, 34.7781], [137.0914, 34.7779], [137.0911, 34.7773], [137.0926, 34.778], [137.0932, 34.7772], [137.0915, 34.7763], [137.0914, 34.7761], [137.0945, 34.778], [137.0939, 34.7793], [137.0945, 34.7797], [137.0946, 34.7802], [137.0958, 34.7799], [137.0948, 34.7802], [137.0976, 34.7825], [137.0985, 34.7836], [137.0992, 34.7839], [137.1, 34.7837], [137.1003, 34.7833], [137.1012, 34.7841], [137.102, 34.7843], [137.1019, 34.7841], [137.1025, 34.7839], [137.103, 34.7845], [137.1039, 34.7849], [137.1055, 34.7843], [137.1039, 34.7849], [137.1044, 34.7862], [137.1038, 34.7854], [137.1028, 34.7856], [137.1029, 34.7869], [137.1034, 34.7869], [137.1041, 34.7865], [137.1055, 34.7872], [137.106, 34.7864], [137.1062, 34.7864], [137.1059, 34.7869], [137.1074, 34.7877], [137.1078, 34.7871], [137.1062, 34.7897], [137.1055, 34.79], [137.1052, 34.7912], [137.1058, 34.7909], [137.1068, 34.7913], [137.1072, 34.7908], [137.1076, 34.7909], [137.1088, 34.7906], [137.1093, 34.7907], [137.1093, 34.79], [137.1094, 34.7904], [137.1097, 34.7905], [137.1104, 34.7905], [137.1109, 34.7903], [137.1115, 34.7904], [137.1117, 34.7908], [137.1119, 34.7906], [137.1122, 34.7912], [137.1122, 34.7906], [137.113, 34.7909], [137.1144, 34.791], [137.115, 34.7898], [137.115, 34.7908], [137.1165, 34.7905], [137.1167, 34.7901], [137.1169, 34.7905], [137.1177, 34.79], [137.1177, 34.7897], [137.1165, 34.7899], [137.1161, 34.7895], [137.1153, 34.7895], [137.1162, 34.7894], [137.1165, 34.7896], [137.1171, 34.7894], [137.1179, 34.7886], [137.1178, 34.7883], [137.1175, 34.7882], [137.1178, 34.7883], [137.1182, 34.7879], [137.1195, 34.7882], [137.1189, 34.7878], [137.1186, 34.7874], [137.1189, 34.7877], [137.1211, 34.7871], [137.1209, 34.7866], [137.1212, 34.7873], [137.1223, 34.7867], [137.1229, 34.786], [137.1226, 34.7857], [137.1224, 34.7857], [137.1226, 34.7855], [137.1232, 34.7859], [137.124, 34.7851], [137.1235, 34.7846], [137.1221, 34.7856], [137.1204, 34.7855], [137.1216, 34.7854], [137.1226, 34.7847], [137.1228, 34.7839], [137.1232, 34.7838], [137.1239, 34.7831], [137.1257, 34.7827], [137.1273, 34.7827], [137.1273, 34.7823], [137.1274, 34.7827], [137.1286, 34.7828], [137.1297, 34.7824], [137.13, 34.7819], [137.1304, 34.7823], [137.1314, 34.782], [137.1325, 34.782], [137.1329, 34.7824], [137.1329, 34.7829], [137.1335, 34.7832], [137.1336, 34.784], [137.1326, 34.7856], [137.1334, 34.7868], [137.1353, 34.7876], [137.1362, 34.7876], [137.1372, 34.787], [137.1363, 34.7877], [137.135, 34.7876], [137.135, 34.788], [137.1349, 34.7878], [137.1345, 34.7877], [137.1343, 34.788], [137.1344, 34.7887], [137.1348, 34.7888], [137.1349, 34.7882], [137.1349, 34.7887], [137.1363, 34.7891], [137.1365, 34.7883], [137.1365, 34.7887], [137.1387, 34.7888], [137.1387, 34.7893], [137.14, 34.7892], [137.1401, 34.7878], [137.1414, 34.7879], [137.1413, 34.789], [137.1415, 34.7887], [137.1426, 34.7888], [137.143, 34.7884], [137.1431, 34.7887], [137.144, 34.7883], [137.1439, 34.7878], [137.1441, 34.7883], [137.1444, 34.7882], [137.1442, 34.7883], [137.1444, 34.7886], [137.1455, 34.7884], [137.1462, 34.7873], [137.1457, 34.7865], [137.1462, 34.7869], [137.1464, 34.7867], [137.1462, 34.7869], [137.1466, 34.7874], [137.148, 34.7853], [137.1472, 34.785], [137.1466, 34.7857], [137.1453, 34.7863], [137.1443, 34.7859], [137.1452, 34.7861], [137.1463, 34.7856], [137.1469, 34.785], [137.1465, 34.7846], [137.147, 34.7849], [137.1472, 34.7848], [137.1476, 34.7847], [137.148, 34.784], [137.1492, 34.7843], [137.1487, 34.784], [137.1495, 34.7829], [137.15, 34.7827], [137.15, 34.7822], [137.151, 34.7818], [137.1514, 34.782], [137.1526, 34.7813], [137.1558, 34.7828], [137.1591, 34.7832], [137.1594, 34.7836], [137.1593, 34.7843], [137.1603, 34.7849], [137.1628, 34.7848], [137.1636, 34.784], [137.1642, 34.7838], [137.1636, 34.784], [137.1632, 34.7845], [137.163, 34.7851], [137.1635, 34.7853], [137.1628, 34.7851], [137.1628, 34.7853], [137.1608, 34.7854], [137.1607, 34.7858], [137.1611, 34.786], [137.1607, 34.7858], [137.1605, 34.7864], [137.161, 34.7866], [137.1613, 34.7863], [137.1611, 34.7861], [137.1628, 34.7869], [137.1642, 34.7865], [137.1637, 34.7859], [137.1641, 34.7862], [137.1653, 34.7862], [137.1649, 34.7858], [137.1642, 34.7858], [137.1649, 34.7858], [137.1649, 34.7855], [137.1644, 34.7855], [137.1649, 34.7855], [137.1649, 34.7852], [137.1645, 34.7853], [137.1649, 34.7851], [137.1646, 34.7848], [137.1649, 34.785], [137.1683, 34.785], [137.1683, 34.7876], [137.1699, 34.7877], [137.1714, 34.7872], [137.1721, 34.7863], [137.1745, 34.7847], [137.1747, 34.7843], [137.1745, 34.7838], [137.1739, 34.7836], [137.1743, 34.7828], [137.1731, 34.7823], [137.1734, 34.781], [137.1731, 34.7823], [137.1754, 34.7831], [137.176, 34.7819], [137.175, 34.7815], [137.1753, 34.7809], [137.1771, 34.7816], [137.1775, 34.7807], [137.1761, 34.7803], [137.1762, 34.78], [137.1776, 34.7804], [137.1779, 34.7792], [137.1772, 34.7791], [137.177, 34.7785], [137.1772, 34.7787], [137.1783, 34.7785], [137.178, 34.7779], [137.1779, 34.7777], [137.1776, 34.7775], [137.1779, 34.7778], [137.1774, 34.778], [137.1774, 34.7782], [137.1772, 34.778], [137.1758, 34.7779], [137.1758, 34.7783], [137.1754, 34.779], [137.1757, 34.7783], [137.1757, 34.7776], [137.1741, 34.7757], [137.1745, 34.7748], [137.175, 34.7746], [137.1747, 34.7739], [137.1738, 34.7731], [137.1748, 34.7739], [137.175, 34.7745], [137.1755, 34.7744], [137.1756, 34.7738], [137.1751, 34.7722], [137.1741, 34.7724], [137.1738, 34.7719], [137.1749, 34.7714], [137.1746, 34.771], [137.1739, 34.7715], [137.1746, 34.771], [137.1743, 34.7707], [137.1738, 34.7712], [137.1742, 34.7706], [137.1735, 34.7712], [137.1742, 34.7706], [137.1721, 34.7702], [137.1717, 34.7706], [137.1713, 34.7707], [137.1713, 34.7712], [137.171, 34.7706], [137.1706, 34.7709], [137.1708, 34.7705], [137.1702, 34.7703], [137.1698, 34.7708], [137.1701, 34.7702], [137.1699, 34.7704], [137.1696, 34.7702], [137.1695, 34.7704], [137.1697, 34.77], [137.169, 34.7697], [137.1677, 34.771], [137.1683, 34.7722], [137.1692, 34.773], [137.1674, 34.772], [137.1678, 34.7707], [137.169, 34.7697], [137.1683, 34.7692], [137.1682, 34.7677], [137.1684, 34.7676], [137.1686, 34.767], [137.1692, 34.7666], [137.1693, 34.7655], [137.1695, 34.7652], [137.17, 34.7651], [137.1706, 34.7652], [137.1709, 34.7656], [137.1713, 34.7652], [137.1716, 34.7652], [137.1712, 34.7653], [137.1715, 34.7656], [137.1723, 34.7659], [137.1732, 34.7658], [137.173, 34.7655], [137.1734, 34.7656], [137.1733, 34.7658], [137.1742, 34.7659], [137.1754, 34.7654], [137.1752, 34.7649], [137.1748, 34.765], [137.1752, 34.7649], [137.1758, 34.7654], [137.1766, 34.7654], [137.2074, 34.7274], [137.2133, 34.7186], [137.2367, 34.6883], [137.2355, 34.6874], [137.234, 34.6883], [137.2347, 34.6891], [137.2339, 34.6884], [137.2326, 34.689], [137.2331, 34.6887], [137.2329, 34.6882], [137.2318, 34.6863], [137.2317, 34.6862], [137.231, 34.6865], [137.2317, 34.686], [137.2305, 34.6841], [137.23, 34.6837], [137.2292, 34.6841], [137.2323, 34.6825], [137.2315, 34.6814], [137.2312, 34.681], [137.2309, 34.681], [137.2292, 34.6789], [137.2253, 34.6765], [137.224, 34.6758], [137.2233, 34.6759], [137.2223, 34.6755], [137.2219, 34.6757], [137.2216, 34.6753], [137.2217, 34.6758], [137.2215, 34.6761], [137.2198, 34.6758], [137.2185, 34.6764], [137.2162, 34.6768], [137.2145, 34.6776], [137.2134, 34.6786], [137.213, 34.6786], [137.2119, 34.6793], [137.2105, 34.678], [137.2091, 34.6778], [137.2079, 34.6785], [137.2065, 34.6781], [137.2033, 34.6747], [137.2022, 34.6732], [137.202, 34.6733], [137.2019, 34.673], [137.1996, 34.6703], [137.1973, 34.6685], [137.1967, 34.6685], [137.1955, 34.6679], [137.194, 34.6679], [137.1926, 34.6684], [137.1921, 34.6689], [137.1919, 34.6688], [137.1914, 34.6693], [137.1913, 34.6702], [137.1897, 34.6696], [137.1886, 34.6702], [137.1875, 34.67], [137.186, 34.669], [137.184, 34.6665], [137.182, 34.6645], [137.1815, 34.6642], [137.1813, 34.6643], [137.1795, 34.662], [137.179, 34.6618], [137.1785, 34.6621], [137.179, 34.6617], [137.1786, 34.6617], [137.178, 34.661], [137.1783, 34.6606], [137.1781, 34.66], [137.1782, 34.6605], [137.1776, 34.6613], [137.1778, 34.6614], [137.1776, 34.6613], [137.1774, 34.6616], [137.1782, 34.6626], [137.1773, 34.6615], [137.1775, 34.6612], [137.1769, 34.6604], [137.1752, 34.6592], [137.1731, 34.6586], [137.1699, 34.6565], [137.1648, 34.6556], [137.1625, 34.6548], [137.1613, 34.6547], [137.1611, 34.6552], [137.1611, 34.6539], [137.1607, 34.6556], [137.1609, 34.6549], [137.1596, 34.6549], [137.1595, 34.6552], [137.1595, 34.6549], [137.1578, 34.6547], [137.1569, 34.6551], [137.1572, 34.6556], [137.1564, 34.6546], [137.1572, 34.6542], [137.1569, 34.6539], [137.1558, 34.6542], [137.1547, 34.6538], [137.1547, 34.6539], [137.1561, 34.6548], [137.1565, 34.6552], [137.1565, 34.6558], [137.1574, 34.6566], [137.157, 34.6563], [137.157, 34.6564], [137.1525, 34.6548], [137.148, 34.654], [137.1477, 34.6543], [137.1478, 34.654], [137.1455, 34.6538], [137.1454, 34.6536], [137.145, 34.6538], [137.1445, 34.6537], [137.1445, 34.6539], [137.1441, 34.6537], [137.1439, 34.6539], [137.1436, 34.6537], [137.1423, 34.6543], [137.1392, 34.6549], [137.139, 34.6551], [137.1385, 34.6551], [137.1383, 34.6546], [137.1389, 34.6545], [137.1388, 34.6543], [137.1353, 34.6554], [137.1332, 34.6555], [137.129, 34.6532], [137.1284, 34.6531], [137.1288, 34.6524], [137.13, 34.6518], [137.1328, 34.652], [137.134, 34.6511], [137.1357, 34.6512], [137.1371, 34.6508], [137.1404, 34.6465], [137.1408, 34.6456], [137.1423, 34.6445], [137.1421, 34.6443], [137.1402, 34.6459], [137.1405, 34.6455], [137.1396, 34.6449], [137.139, 34.6438], [137.1379, 34.6428], [137.1372, 34.6419], [137.1372, 34.6413], [137.1355, 34.6408], [137.1356, 34.6406], [137.1343, 34.64], [137.1339, 34.6403], [137.1343, 34.64], [137.1335, 34.6394], [137.1327, 34.6391], [137.1325, 34.6396], [137.1327, 34.6391], [137.1302, 34.6383], [137.13, 34.6385], [137.1301, 34.6383], [137.1294, 34.638], [137.1281, 34.6378], [137.1278, 34.638], [137.1265, 34.6379], [137.1265, 34.6381], [137.1265, 34.6379], [137.125, 34.6373], [137.1246, 34.6382], [137.125, 34.6373], [137.1192, 34.6347], [137.1184, 34.6347], [137.118, 34.6359], [137.1184, 34.6347], [137.1177, 34.6348], [137.117, 34.6352], [137.1169, 34.6358], [137.1176, 34.6362], [137.1179, 34.6368], [137.1162, 34.636], [137.1145, 34.6357], [137.1137, 34.6358], [137.1125, 34.6364], [137.1107, 34.6367], [137.1079, 34.6367], [137.1077, 34.637], [137.1067, 34.6364], [137.1055, 34.6372], [137.1065, 34.6365], [137.1061, 34.6363], [137.1057, 34.6363], [137.1058, 34.6362], [137.1053, 34.6354], [137.1051, 34.6355], [137.105, 34.6347], [137.1052, 34.6353], [137.1055, 34.6352], [137.1051, 34.6342], [137.1039, 34.6342], [137.1039, 34.6329], [137.1034, 34.6329], [137.1038, 34.632], [137.1041, 34.632], [137.1038, 34.6319], [137.1038, 34.6306], [137.1028, 34.6291], [137.102, 34.6285], [137.1018, 34.6286], [137.103, 34.63], [137.1033, 34.6313], [137.1033, 34.6327], [137.1026, 34.6328], [137.1023, 34.6338], [137.1022, 34.6367], [137.1027, 34.6368], [137.1025, 34.6368], [137.1027, 34.638], [137.1033, 34.6385], [137.1027, 34.638], [137.102, 34.6381], [137.1021, 34.639], [137.1023, 34.6395], [137.1033, 34.6393], [137.1034, 34.6387], [137.1035, 34.6394], [137.1065, 34.6416], [137.1066, 34.6427], [137.1051, 34.6436], [137.1031, 34.6444], [137.1024, 34.6453], [137.1018, 34.6456], [137.1001, 34.646], [137.0968, 34.6458], [137.0956, 34.646], [137.0945, 34.6468], [137.0911, 34.6471], [137.0912, 34.6488], [137.0904, 34.6488], [137.0904, 34.6476], [137.0897, 34.6477], [137.0897, 34.648], [137.0897, 34.6477], [137.0888, 34.6477], [137.0885, 34.6481], [137.0887, 34.6483], [137.0885, 34.6481], [137.0884, 34.6483], [137.0877, 34.6481], [137.0873, 34.6471], [137.0871, 34.6471], [137.0873, 34.6468], [137.0872, 34.6466], [137.0865, 34.6466], [137.0867, 34.6471], [137.0865, 34.6467], [137.0859, 34.6469], [137.0859, 34.6471], [137.0857, 34.6469], [137.0859, 34.6468], [137.0855, 34.6468], [137.0856, 34.6471], [137.0851, 34.6472], [137.0856, 34.6479], [137.0858, 34.6478], [137.0856, 34.6479], [137.0859, 34.6483], [137.0861, 34.6482], [137.086, 34.6483], [137.0862, 34.6487], [137.09, 34.6497], [137.09, 34.6511], [137.0896, 34.6515], [137.0898, 34.6535], [137.0899, 34.6542], [137.0902, 34.6543], [137.0902, 34.6535], [137.0899, 34.6531], [137.0903, 34.653], [137.0904, 34.6546], [137.0908, 34.6554], [137.0904, 34.6566], [137.0911, 34.6574], [137.0904, 34.6571], [137.0892, 34.6571], [137.0879, 34.6574], [137.0867, 34.6583], [137.0864, 34.6589], [137.0854, 34.6591], [137.0846, 34.6599], [137.083, 34.6605], [137.0819, 34.6615], [137.082, 34.6618], [137.0796, 34.6622], [137.0797, 34.6625], [137.0807, 34.6623], [137.0813, 34.6626], [137.0829, 34.6623], [137.0807, 34.6628], [137.0813, 34.6626], [137.0807, 34.6623], [137.0797, 34.6625], [137.08, 34.663], [137.0781, 34.6633], [137.0775, 34.6632], [137.0769, 34.6634], [137.0775, 34.6631], [137.078, 34.6633], [137.0789, 34.6631], [137.0789, 34.6624], [137.0777, 34.6626], [137.0748, 34.6625], [137.0713, 34.6618], [137.0694, 34.6611], [137.0677, 34.6601], [137.0639, 34.6569], [137.0627, 34.6556], [137.0615, 34.6537], [137.06, 34.653], [137.0583, 34.6506], [137.0556, 34.6461], [137.0538, 34.642], [137.0427, 34.6235], [137.0359, 34.611], [137.0321, 34.6045], [137.0323, 34.6044], [137.032, 34.6044], [137.0303, 34.6021], [137.0305, 34.6009], [137.0299, 34.5975], [137.0284, 34.5935], [137.0266, 34.5897], [137.0259, 34.589], [137.0255, 34.5891], [137.0258, 34.5888], [137.0257, 34.5885], [137.0237, 34.5865], [137.0212, 34.5873], [137.0238, 34.5863], [137.0234, 34.5855], [137.0229, 34.5855], [137.0233, 34.5853], [137.0231, 34.5849], [137.0227, 34.585], [137.0231, 34.5849], [137.0229, 34.5846], [137.0225, 34.5848], [137.0229, 34.5846], [137.0228, 34.5844], [137.0209, 34.5838], [137.0209, 34.5845], [137.0207, 34.584], [137.0199, 34.5841], [137.02, 34.5848], [137.0196, 34.5842], [137.019, 34.5845], [137.0191, 34.5849], [137.0189, 34.5845], [137.0185, 34.5846], [137.0193, 34.5864], [137.0204, 34.5876], [137.0199, 34.5884], [137.0203, 34.5875], [137.0199, 34.5874], [137.0193, 34.5864], [137.0182, 34.5843], [137.018, 34.583], [137.0153, 34.5811], [137.0152, 34.5803], [137.0154, 34.5797], [137.018, 34.5787], [137.0187, 34.5787], [137.0206, 34.5795], [137.0223, 34.5799], [137.0308, 34.5809], [137.0329, 34.5806], [137.0329, 34.5809], [137.033, 34.5806], [137.0336, 34.5802], [137.034, 34.5795], [137.0338, 34.5794], [137.0344, 34.5787], [137.0356, 34.5784], [137.0358, 34.5781], [137.0375, 34.5784], [137.0384, 34.5783], [137.0388, 34.5784], [137.0388, 34.5788], [137.0392, 34.579], [137.043, 34.5801], [137.0453, 34.5805], [137.0491, 34.5816], [137.0523, 34.582], [137.0564, 34.5831], [137.0564, 34.5833], [137.0564, 34.5831], [137.0585, 34.5836], [137.061, 34.5842], [137.061, 34.5844], [137.061, 34.5842], [137.0751, 34.5871], [137.0749, 34.5876], [137.0751, 34.5871], [137.0874, 34.5896], [137.0949, 34.5907], [137.0974, 34.5907], [137.0988, 34.59], [137.1005, 34.5901], [137.1011, 34.5896], [137.1024, 34.5891], [137.105, 34.589], [137.1063, 34.5887], [137.1066, 34.5884], [137.1079, 34.5882], [137.1104, 34.5889], [137.1117, 34.5905], [137.1105, 34.5889], [137.1116, 34.5887], [137.1122, 34.5882], [137.1141, 34.5882], [137.1149, 34.5879], [137.1156, 34.5874], [137.1175, 34.5871], [137.1194, 34.5874], [137.1212, 34.5874], [137.1218, 34.5871], [137.1229, 34.5872], [137.1231, 34.5871], [137.1239, 34.5875], [137.126, 34.588], [137.1266, 34.588], [137.128, 34.5885], [137.1299, 34.5883], [137.1304, 34.5885], [137.1309, 34.5883], [137.1326, 34.5883], [137.1345, 34.5887], [137.1357, 34.5892], [137.1374, 34.5892], [137.138, 34.5896], [137.1393, 34.5895], [137.1403, 34.5898], [137.1411, 34.5896], [137.1424, 34.5899], [137.1454, 34.5908], [137.1495, 34.5924], [137.1515, 34.5922], [137.1524, 34.593], [137.1552, 34.5939], [137.1566, 34.594], [137.1568, 34.5935], [137.157, 34.5936], [137.1567, 34.594], [137.1581, 34.5949], [137.1646, 34.597], [137.1691, 34.599], [137.1815, 34.6037], [137.1859, 34.6046], [137.1885, 34.6049], [137.1891, 34.6035], [137.1886, 34.6047], [137.1895, 34.6047], [137.1897, 34.6035], [137.1894, 34.6018], [137.1898, 34.6034], [137.1898, 34.6046], [137.1965, 34.6076], [137.2068, 34.6115], [137.213, 34.6133], [137.2176, 34.6141], [137.2195, 34.6141], [137.219, 34.6143], [137.2191, 34.6146], [137.2192, 34.6143], [137.2197, 34.6141], [137.2199, 34.6135], [137.2203, 34.6133], [137.222, 34.6134], [137.2223, 34.6137], [137.2268, 34.6155], [137.2329, 34.6174], [137.2435, 34.6212], [137.2488, 34.6226], [137.2515, 34.6237], [137.2587, 34.6259], [137.264, 34.6272], [137.2676, 34.6284], [137.2793, 34.6316], [137.2855, 34.6336], [137.301, 34.6372], [137.3165, 34.6414], [137.3211, 34.642], [137.3257, 34.6433], [137.3283, 34.6439], [137.3294, 34.6439], [137.3317, 34.6447], [137.3357, 34.6455], [137.3418, 34.6476], [137.3553, 34.6506], [137.3582, 34.651], [137.3641, 34.6528], [137.3736, 34.6542], [137.3764, 34.655], [137.3817, 34.6561], [137.3824, 34.6565], [137.3828, 34.6564], [137.3875, 34.6573], [137.3931, 34.6587]]], [[[137.0397, 34.7257], [137.041, 34.726], [137.0411, 34.7251], [137.0417, 34.7248], [137.0417, 34.725], [137.042, 34.7249], [137.0419, 34.7252], [137.0425, 34.7256], [137.0418, 34.7261], [137.0421, 34.7266], [137.0439, 34.7265], [137.045, 34.7257], [137.0445, 34.7255], [137.0449, 34.7245], [137.0456, 34.7238], [137.0458, 34.7224], [137.0449, 34.7226], [137.0448, 34.7223], [137.0437, 34.7224], [137.0436, 34.7221], [137.043, 34.7224], [137.0429, 34.723], [137.0428, 34.7228], [137.0429, 34.7224], [137.0436, 34.7221], [137.0438, 34.722], [137.0438, 34.7223], [137.0448, 34.7223], [137.0449, 34.7225], [137.0462, 34.7224], [137.0468, 34.7208], [137.0462, 34.7197], [137.046, 34.7197], [137.0459, 34.7199], [137.0455, 34.7194], [137.0453, 34.719], [137.0458, 34.7189], [137.0452, 34.718], [137.0444, 34.7179], [137.0442, 34.7175], [137.0436, 34.7175], [137.0437, 34.7173], [137.0431, 34.7176], [137.0431, 34.717], [137.0432, 34.7173], [137.0438, 34.7172], [137.0436, 34.7166], [137.0438, 34.716], [137.0441, 34.7161], [137.0443, 34.7157], [137.0449, 34.7157], [137.0446, 34.7151], [137.0454, 34.7154], [137.0458, 34.7164], [137.0457, 34.7168], [137.0452, 34.7168], [137.0452, 34.7177], [137.0469, 34.7207], [137.0475, 34.7206], [137.0474, 34.7201], [137.0477, 34.7197], [137.0487, 34.7191], [137.0477, 34.7198], [137.0475, 34.7204], [137.0493, 34.7201], [137.05, 34.7196], [137.0502, 34.7191], [137.0494, 34.7178], [137.0484, 34.7181], [137.0494, 34.7178], [137.0491, 34.7169], [137.0487, 34.7166], [137.0491, 34.7158], [137.0488, 34.7152], [137.0477, 34.7146], [137.0471, 34.7152], [137.0469, 34.7149], [137.0471, 34.7145], [137.0465, 34.7141], [137.0466, 34.7138], [137.0471, 34.7136], [137.0477, 34.7139], [137.048, 34.7141], [137.0479, 34.7147], [137.0488, 34.7152], [137.0491, 34.715], [137.0494, 34.7154], [137.05, 34.7153], [137.0501, 34.7148], [137.0505, 34.7148], [137.0514, 34.7154], [137.0515, 34.7158], [137.052, 34.7159], [137.0524, 34.7158], [137.0523, 34.7154], [137.0526, 34.715], [137.0523, 34.7145], [137.0524, 34.7143], [137.0528, 34.7143], [137.0526, 34.7146], [137.0532, 34.7162], [137.0529, 34.7161], [137.053, 34.7164], [137.0528, 34.7165], [137.053, 34.7171], [137.0525, 34.7176], [137.053, 34.7177], [137.0531, 34.718], [137.0527, 34.718], [137.0527, 34.7182], [137.0532, 34.7182], [137.0535, 34.719], [137.0527, 34.7194], [137.0529, 34.7197], [137.0536, 34.7198], [137.0537, 34.72], [137.053, 34.7203], [137.053, 34.7205], [137.054, 34.7213], [137.0541, 34.721], [137.0544, 34.7213], [137.0542, 34.7208], [137.0549, 34.7213], [137.0547, 34.721], [137.0551, 34.721], [137.0553, 34.7215], [137.0557, 34.7215], [137.0559, 34.7214], [137.0562, 34.7216], [137.056, 34.7213], [137.0564, 34.7212], [137.0566, 34.7219], [137.0564, 34.7222], [137.0567, 34.7226], [137.0565, 34.7225], [137.0566, 34.7228], [137.0559, 34.7229], [137.0552, 34.7225], [137.0538, 34.723], [137.0534, 34.7227], [137.0527, 34.7231], [137.0526, 34.723], [137.0519, 34.7231], [137.0516, 34.7226], [137.0512, 34.7232], [137.0506, 34.7234], [137.0503, 34.7232], [137.0499, 34.7242], [137.0495, 34.7235], [137.0493, 34.7234], [137.0494, 34.7238], [137.0497, 34.7241], [137.0503, 34.7243], [137.0506, 34.724], [137.0509, 34.7246], [137.0523, 34.7245], [137.0526, 34.7248], [137.0531, 34.725], [137.0532, 34.7248], [137.0538, 34.7253], [137.0537, 34.7257], [137.0543, 34.7257], [137.0548, 34.7264], [137.0556, 34.7262], [137.055, 34.727], [137.0546, 34.7271], [137.0542, 34.7276], [137.0532, 34.728], [137.0532, 34.7283], [137.0524, 34.7284], [137.051, 34.7292], [137.0492, 34.7284], [137.0478, 34.7293], [137.0471, 34.729], [137.0471, 34.7297], [137.0462, 34.7301], [137.0461, 34.7306], [137.0459, 34.7305], [137.0437, 34.7313], [137.0436, 34.7316], [137.0438, 34.7316], [137.0436, 34.7318], [137.043, 34.7315], [137.0426, 34.7316], [137.042, 34.7326], [137.0402, 34.733], [137.0388, 34.7336], [137.0371, 34.7323], [137.0371, 34.7325], [137.0366, 34.7323], [137.0368, 34.7322], [137.0364, 34.732], [137.0357, 34.7323], [137.0358, 34.732], [137.0353, 34.7321], [137.0359, 34.7313], [137.0362, 34.7313], [137.0362, 34.7308], [137.0355, 34.7309], [137.0355, 34.7306], [137.036, 34.7306], [137.036, 34.7301], [137.0368, 34.7297], [137.0366, 34.7289], [137.0362, 34.7285], [137.0358, 34.7283], [137.0356, 34.7289], [137.0349, 34.7289], [137.0345, 34.7287], [137.0348, 34.7284], [137.0344, 34.7284], [137.034, 34.7279], [137.0333, 34.7284], [137.0324, 34.7281], [137.0314, 34.7285], [137.0298, 34.7279], [137.0305, 34.7275], [137.0308, 34.727], [137.0307, 34.7268], [137.0311, 34.7267], [137.0314, 34.7272], [137.0317, 34.7271], [137.032, 34.7268], [137.0315, 34.726], [137.0319, 34.7265], [137.0329, 34.726], [137.0327, 34.7259], [137.0329, 34.7255], [137.0328, 34.7259], [137.0336, 34.7261], [137.0335, 34.7263], [137.034, 34.7263], [137.0341, 34.7257], [137.0338, 34.7257], [137.0337, 34.726], [137.0336, 34.7252], [137.033, 34.7248], [137.0323, 34.7254], [137.0331, 34.7247], [137.0323, 34.7242], [137.0325, 34.7242], [137.0323, 34.7238], [137.0321, 34.7237], [137.0311, 34.7239], [137.0307, 34.7236], [137.0314, 34.7229], [137.0324, 34.7228], [137.0325, 34.723], [137.033, 34.7227], [137.0335, 34.7221], [137.0341, 34.7219], [137.0339, 34.7215], [137.0342, 34.7214], [137.034, 34.7211], [137.0343, 34.7207], [137.0347, 34.7209], [137.0346, 34.7211], [137.035, 34.7211], [137.0349, 34.7213], [137.0359, 34.7212], [137.0363, 34.7209], [137.0362, 34.7206], [137.0366, 34.7203], [137.0365, 34.72], [137.037, 34.7199], [137.0374, 34.7201], [137.0375, 34.7198], [137.0378, 34.7199], [137.0381, 34.7196], [137.0377, 34.7192], [137.038, 34.7193], [137.0379, 34.7188], [137.0383, 34.7188], [137.0381, 34.7185], [137.0384, 34.7183], [137.038, 34.7177], [137.0383, 34.7175], [137.0391, 34.719], [137.0387, 34.7191], [137.0389, 34.7196], [137.0384, 34.7196], [137.0387, 34.7198], [137.0384, 34.7199], [137.0386, 34.7202], [137.0379, 34.7204], [137.0382, 34.7207], [137.038, 34.7213], [137.037, 34.7211], [137.0368, 34.7225], [137.0373, 34.7232], [137.0377, 34.7224], [137.0374, 34.723], [137.0381, 34.7234], [137.0375, 34.724], [137.0387, 34.7251], [137.0389, 34.7246], [137.0393, 34.7247], [137.0395, 34.7253], [137.0392, 34.7254], [137.0397, 34.7257]]], [[[137.1015, 34.7693], [137.1001, 34.769], [137.0994, 34.7691], [137.0987, 34.7687], [137.0987, 34.766], [137.0995, 34.7658], [137.1006, 34.766], [137.1012, 34.7659], [137.1021, 34.7662], [137.1023, 34.7661], [137.1038, 34.7673], [137.1035, 34.7676], [137.1029, 34.7674], [137.1026, 34.7675], [137.1015, 34.7693]]], [[[137.146, 34.7794], [137.1457, 34.7802], [137.1448, 34.7796], [137.1438, 34.7793], [137.1431, 34.7796], [137.1431, 34.7802], [137.1431, 34.7797], [137.1423, 34.7794], [137.1419, 34.7789], [137.1425, 34.7787], [137.1434, 34.7789], [137.144, 34.7783], [137.1449, 34.7781], [137.1456, 34.7783], [137.1462, 34.7787], [137.146, 34.7794]]], [[[137.1477, 34.7727], [137.1475, 34.7729], [137.1475, 34.7736], [137.1468, 34.7727], [137.1462, 34.7726], [137.146, 34.7729], [137.1461, 34.7725], [137.1448, 34.7723], [137.1447, 34.7717], [137.1443, 34.7712], [137.1455, 34.7705], [137.1458, 34.7707], [137.1466, 34.7705], [137.1476, 34.7712], [137.1477, 34.7715], [137.1479, 34.7715], [137.1477, 34.7715], [137.1479, 34.7722], [137.1477, 34.7727]]], [[[136.7984, 34.8758], [136.799, 34.8731], [136.8007, 34.87], [136.8033, 34.859], [136.8027, 34.8579], [136.8037, 34.8573], [136.8063, 34.8462], [136.8063, 34.8428], [136.8069, 34.8402], [136.8076, 34.8395], [136.8083, 34.8393], [136.814, 34.8401], [136.8125, 34.8468], [136.8242, 34.8486], [136.8238, 34.8568], [136.8235, 34.8592], [136.8196, 34.8586], [136.819, 34.8612], [136.8227, 34.8618], [136.8222, 34.863], [136.8204, 34.8662], [136.8175, 34.8699], [136.8141, 34.873], [136.8109, 34.8751], [136.8063, 34.8774], [136.8045, 34.8779], [136.8022, 34.8776], [136.7994, 34.877], [136.7987, 34.8765], [136.7984, 34.8758]]], [[[136.9258, 34.7053], [136.9255, 34.7056], [136.9252, 34.7054], [136.9258, 34.7053]]], [[[137.0085, 34.6863], [137.0083, 34.6863], [137.0073, 34.6854], [137.0074, 34.6846], [137.0076, 34.6845], [137.0071, 34.6828], [137.0065, 34.6826], [137.0062, 34.6832], [137.0065, 34.6826], [137.0062, 34.6825], [137.0057, 34.6829], [137.0054, 34.6825], [137.0044, 34.6825], [137.0053, 34.6825], [137.0059, 34.682], [137.0059, 34.68], [137.0057, 34.68], [137.0057, 34.6807], [137.0036, 34.6807], [137.0036, 34.6825], [137.004, 34.6827], [137.0036, 34.6825], [137.0018, 34.6825], [137.0018, 34.6805], [137.0022, 34.6805], [137.0022, 34.6793], [137.0028, 34.6793], [137.0039, 34.6799], [137.0062, 34.6799], [137.0069, 34.6789], [137.0063, 34.6784], [137.005, 34.6782], [137.0048, 34.6786], [137.0043, 34.6786], [137.0045, 34.6779], [137.0035, 34.678], [137.0033, 34.6783], [137.0023, 34.6787], [137.0032, 34.678], [137.003, 34.6778], [137.0025, 34.6778], [137.002, 34.6781], [137.0021, 34.6786], [137.0017, 34.6786], [137.0018, 34.679], [137.001, 34.6783], [137.0008, 34.6784], [137.0003, 34.6781], [137.0005, 34.6779], [137, 34.6776], [137.0002, 34.6771], [137.0007, 34.6769], [137.0009, 34.6764], [137.0014, 34.6763], [137.0016, 34.6758], [137.0013, 34.6753], [137.0017, 34.6747], [137.0016, 34.6742], [137.0006, 34.6736], [136.9997, 34.6736], [136.9998, 34.673], [136.9993, 34.6726], [136.9991, 34.6727], [136.9982, 34.6716], [136.9981, 34.6705], [136.9987, 34.6702], [136.9995, 34.6705], [137.0003, 34.6703], [137.0008, 34.6707], [137.0021, 34.6702], [137.0022, 34.6691], [137.0028, 34.6687], [137.0029, 34.6682], [137.002, 34.6677], [137.002, 34.6671], [137.0024, 34.6669], [137.0031, 34.6672], [137.0033, 34.6665], [137.0039, 34.6665], [137.0044, 34.6669], [137.0047, 34.6663], [137.006, 34.6668], [137.0058, 34.6672], [137.0061, 34.6677], [137.0057, 34.6683], [137.0062, 34.6688], [137.0058, 34.6689], [137.0059, 34.6697], [137.0051, 34.6702], [137.0056, 34.671], [137.006, 34.671], [137.0061, 34.6712], [137.006, 34.6715], [137.0057, 34.6712], [137.0057, 34.6716], [137.0051, 34.6716], [137.0044, 34.6727], [137.0051, 34.6747], [137.0062, 34.6759], [137.0073, 34.6767], [137.0081, 34.677], [137.0085, 34.6767], [137.0091, 34.6767], [137.0102, 34.6774], [137.0106, 34.6817], [137.0102, 34.6831], [137.0106, 34.6838], [137.0087, 34.6847], [137.0084, 34.6858], [137.0085, 34.6863]]], [[[136.9959, 34.6673], [136.9958, 34.6679], [136.9955, 34.6674], [136.9945, 34.6671], [136.9945, 34.6666], [136.9951, 34.6668], [136.9953, 34.6666], [136.996, 34.6672], [136.9959, 34.6673]]], [[[137.0073, 34.6599], [137.0067, 34.66], [137.0069, 34.6597], [137.0067, 34.6596], [137.0068, 34.6593], [137.0071, 34.6596], [137.0074, 34.6594], [137.0068, 34.6588], [137.007, 34.6586], [137.0065, 34.6584], [137.0068, 34.6583], [137.0066, 34.6581], [137.007, 34.6581], [137.0068, 34.6579], [137.0073, 34.6576], [137.0071, 34.6573], [137.0076, 34.6571], [137.0078, 34.6566], [137.0085, 34.6572], [137.0088, 34.6572], [137.0091, 34.658], [137.0089, 34.6585], [137.0086, 34.6585], [137.0085, 34.6594], [137.0088, 34.6595], [137.0073, 34.6599]]], [[[137.0082, 34.6927], [137.007, 34.6928], [137.0068, 34.6923], [137.0064, 34.6921], [137.0062, 34.6911], [137.0078, 34.6909], [137.0088, 34.6911], [137.0088, 34.6925], [137.0082, 34.6927]]], [[[136.999, 34.6811], [136.9983, 34.6811], [136.9978, 34.6805], [136.9981, 34.6803], [136.9979, 34.6797], [136.9985, 34.6791], [136.9996, 34.6792], [137, 34.6798], [137, 34.6802], [136.9995, 34.6811], [136.999, 34.6811]]], [[[136.9908, 34.6702], [136.9907, 34.6703], [136.9904, 34.6701], [136.9905, 34.6698], [136.9909, 34.67], [136.9911, 34.6699], [136.9911, 34.6702], [136.9908, 34.6702]]], [[[137.0035, 34.7093], [137.003, 34.7098], [137.0031, 34.7091], [137.0009, 34.7086], [137.0029, 34.709], [137.0038, 34.7083], [137.006, 34.709], [137.0064, 34.7089], [137.0067, 34.7084], [137.0055, 34.7082], [137.0052, 34.7077], [137.0061, 34.7078], [137.0063, 34.7071], [137.006, 34.7069], [137.005, 34.7076], [137.0038, 34.7075], [137.0035, 34.708], [137.0023, 34.7076], [137.0021, 34.7078], [137.0018, 34.7077], [137.0019, 34.7074], [137.0013, 34.7069], [137.0009, 34.7069], [137.0013, 34.7068], [137.0014, 34.7066], [137.0011, 34.7065], [137.0014, 34.7066], [137.0015, 34.7053], [137.0017, 34.7052], [136.9981, 34.705], [136.9977, 34.7057], [136.9987, 34.7057], [136.9994, 34.706], [136.9995, 34.7058], [137.0004, 34.7061], [136.9999, 34.706], [136.999, 34.7071], [137.0004, 34.7079], [136.9986, 34.7069], [136.9979, 34.7063], [136.9974, 34.7065], [136.9959, 34.7052], [136.996, 34.7049], [136.996, 34.705], [136.9967, 34.7048], [136.9972, 34.704], [136.9971, 34.7034], [136.9961, 34.7033], [136.9973, 34.7034], [136.9973, 34.7032], [136.997, 34.7032], [136.9973, 34.7031], [136.9969, 34.7017], [136.9963, 34.7016], [136.9961, 34.7029], [136.9962, 34.7014], [136.9977, 34.7012], [136.9978, 34.7009], [136.9985, 34.7008], [136.9977, 34.7002], [136.9979, 34.6998], [136.9989, 34.7], [137.0001, 34.7009], [137.0007, 34.7009], [137.0006, 34.7011], [137.0015, 34.701], [137.0013, 34.7013], [137.0017, 34.7016], [137.0022, 34.7016], [137.0023, 34.7014], [137.0021, 34.7013], [137.003, 34.7012], [137.0038, 34.7014], [137.005, 34.7019], [137.0052, 34.7023], [137.006, 34.7022], [137.0064, 34.7028], [137.0068, 34.7029], [137.008, 34.7024], [137.0092, 34.7031], [137.0097, 34.7027], [137.0104, 34.7028], [137.01, 34.7028], [137.0094, 34.7036], [137.0099, 34.7039], [137.0103, 34.7034], [137.0102, 34.7037], [137.0106, 34.7039], [137.011, 34.7036], [137.0108, 34.7027], [137.011, 34.7036], [137.0107, 34.704], [137.0115, 34.7048], [137.0119, 34.7048], [137.0115, 34.7049], [137.0115, 34.7054], [137.0121, 34.7059], [137.0135, 34.7065], [137.0132, 34.7072], [137.0121, 34.7073], [137.0125, 34.7077], [137.0114, 34.7078], [137.0113, 34.7074], [137.0111, 34.7075], [137.011, 34.7088], [137.0079, 34.7087], [137.0074, 34.7089], [137.0071, 34.7096], [137.004, 34.7086], [137.0037, 34.7088], [137.0039, 34.7089], [137.0037, 34.7093], [137.0035, 34.7093]]], [[[136.9935, 34.7041], [136.9921, 34.7028], [136.9931, 34.7029], [136.9932, 34.7025], [136.9933, 34.7026], [136.9935, 34.7023], [136.9939, 34.7035], [136.9935, 34.7041]]]]}, "properties": {"name": "愛知県"}}]}