{"type": "FeatureCollection", "features": [{"type": "Feature", "geometry": {"type": "MultiPolygon", "coordinates": [[[[135.374, 33.7045], [135.3738, 33.703], [135.3772, 33.7026], [135.374, 33.7045]]], [[[135.9529, 33.6149], [135.9517, 33.6162], [135.9531, 33.6131], [135.9529, 33.6149]]], [[[135.1752, 34.1584], [135.1724, 34.1505], [135.174, 34.1543], [135.183, 34.1508], [135.1779, 34.1408], [135.1779, 34.1438], [135.0968, 34.1427], [135.1068, 34.1193], [135.0979, 34.1154], [135.0979, 34.1094], [135.1007, 34.1082], [135.0822, 34.0753], [135.0786, 34.0735], [135.0835, 34.0723], [135.0884, 34.0669], [135.0993, 34.0701], [135.1008, 34.0684], [135.1051, 34.071], [135.1115, 34.0703], [135.1124, 34.0679], [135.1213, 34.0676], [135.1235, 34.0646], [135.1353, 34.0649], [135.1378, 34.0576], [135.1458, 34.0565], [135.1487, 34.0532], [135.1463, 34.0542], [135.1461, 34.0453], [135.1519, 34.0447], [135.1584, 34.0472], [135.1627, 34.0426], [135.1597, 34.0373], [135.1663, 34.0371], [135.1676, 34.0349], [135.1671, 34.0372], [135.175, 34.0377], [135.1686, 34.0361], [135.1708, 34.0322], [135.1716, 34.034], [135.1741, 34.0317], [135.1702, 34.0309], [135.1715, 34.0278], [135.1671, 34.0246], [135.1693, 34.0296], [135.1578, 34.0245], [135.1523, 34.0259], [135.1499, 34.0215], [135.1518, 34.0189], [135.1489, 34.0175], [135.1409, 34.0196], [135.1368, 34.0168], [135.1461, 34.0136], [135.1471, 34.0108], [135.1509, 34.0098], [135.1509, 34.0068], [135.1442, 34.0053], [135.1434, 34.0075], [135.1371, 34.0004], [135.1287, 34.0006], [135.1257, 33.9973], [135.1181, 33.9987], [135.112, 33.9951], [135.1129, 33.991], [135.1096, 33.9889], [135.1056, 33.9897], [135.1044, 33.993], [135.0935, 33.9932], [135.091, 33.9898], [135.0941, 33.9885], [135.0896, 33.9867], [135.0911, 33.9829], [135.0881, 33.9792], [135.084, 33.9801], [135.0675, 33.9767], [135.0741, 33.9762], [135.0794, 33.9697], [135.0859, 33.9682], [135.084, 33.9616], [135.0733, 33.9589], [135.08, 33.9559], [135.0876, 33.9561], [135.0844, 33.9572], [135.0866, 33.9586], [135.0952, 33.9577], [135.1006, 33.961], [135.1, 33.9655], [135.1025, 33.967], [135.1028, 33.9542], [135.1006, 33.9497], [135.0953, 33.9477], [135.0886, 33.949], [135.0882, 33.9455], [135.0909, 33.944], [135.0895, 33.9422], [135.0859, 33.9435], [135.0814, 33.9415], [135.0865, 33.9394], [135.0851, 33.9353], [135.0753, 33.9348], [135.0734, 33.9315], [135.0681, 33.9316], [135.0646, 33.9271], [135.0708, 33.9239], [135.0746, 33.9279], [135.0792, 33.9255], [135.0792, 33.9234], [135.0752, 33.9228], [135.0775, 33.9216], [135.0752, 33.9176], [135.0824, 33.9195], [135.0828, 33.917], [135.0784, 33.9136], [135.0839, 33.9104], [135.0762, 33.903], [135.0724, 33.9037], [135.0761, 33.9054], [135.0712, 33.9061], [135.059, 33.9048], [135.058, 33.9009], [135.065, 33.8954], [135.0642, 33.8917], [135.0564, 33.8881], [135.0577, 33.8798], [135.0687, 33.8825], [135.0801, 33.8909], [135.0826, 33.8902], [135.0818, 33.8871], [135.0894, 33.8868], [135.1129, 33.8934], [135.1413, 33.8852], [135.1523, 33.8755], [135.1411, 33.8687], [135.1469, 33.8562], [135.1602, 33.8577], [135.1676, 33.8474], [135.1627, 33.8453], [135.1746, 33.84], [135.1746, 33.8321], [135.1832, 33.8278], [135.1828, 33.826], [135.1849, 33.8268], [135.1844, 33.8245], [135.1824, 33.8254], [135.1873, 33.8187], [135.1948, 33.8166], [135.1965, 33.8137], [135.206, 33.8122], [135.2079, 33.8089], [135.2171, 33.8142], [135.2192, 33.8118], [135.2171, 33.8089], [135.2212, 33.8082], [135.2207, 33.8049], [135.2343, 33.7997], [135.2376, 33.7936], [135.2335, 33.789], [135.2349, 33.7815], [135.2453, 33.78], [135.2528, 33.7823], [135.2711, 33.7828], [135.2798, 33.7794], [135.2872, 33.7731], [135.2949, 33.7712], [135.2977, 33.7682], [135.2964, 33.7637], [135.3078, 33.7689], [135.3163, 33.768], [135.3254, 33.7584], [135.3232, 33.7514], [135.3283, 33.7477], [135.3273, 33.7421], [135.3334, 33.7447], [135.3346, 33.7431], [135.3372, 33.7459], [135.3394, 33.7445], [135.3438, 33.7462], [135.3456, 33.7442], [135.3484, 33.7474], [135.3579, 33.7398], [135.3575, 33.7375], [135.3516, 33.7346], [135.3511, 33.7314], [135.3538, 33.7318], [135.351, 33.7303], [135.3512, 33.7295], [135.3485, 33.7321], [135.3495, 33.7347], [135.3453, 33.7345], [135.3482, 33.734], [135.3473, 33.7308], [135.348, 33.7318], [135.3507, 33.7294], [135.3522, 33.7291], [135.3507, 33.7267], [135.3524, 33.7276], [135.3525, 33.7246], [135.3583, 33.7276], [135.3626, 33.7263], [135.3574, 33.7282], [135.362, 33.7297], [135.3633, 33.7327], [135.3643, 33.7296], [135.3659, 33.7319], [135.3696, 33.7301], [135.3634, 33.7281], [135.3722, 33.7285], [135.3713, 33.7303], [135.3744, 33.7264], [135.3733, 33.7288], [135.3758, 33.7278], [135.3797, 33.7209], [135.3782, 33.72], [135.3803, 33.718], [135.3804, 33.7205], [135.3831, 33.7193], [135.3811, 33.7182], [135.3829, 33.7156], [135.384, 33.7184], [135.3867, 33.7171], [135.3844, 33.7155], [135.3937, 33.7151], [135.3924, 33.7202], [135.3959, 33.7229], [135.4011, 33.7202], [135.4022, 33.7191], [135.4002, 33.7205], [135.3984, 33.719], [135.401, 33.7182], [135.397, 33.7183], [135.3958, 33.7146], [135.3942, 33.7151], [135.3973, 33.7113], [135.3938, 33.7118], [135.3912, 33.7093], [135.3939, 33.7076], [135.3904, 33.7054], [135.3965, 33.7041], [135.3911, 33.7017], [135.3896, 33.7035], [135.3871, 33.7008], [135.3858, 33.6984], [135.3882, 33.6946], [135.386, 33.6935], [135.3859, 33.697], [135.3824, 33.6971], [135.3865, 33.7048], [135.3851, 33.7026], [135.3849, 33.7054], [135.384, 33.7036], [135.3825, 33.7052], [135.3834, 33.7032], [135.3794, 33.7015], [135.3815, 33.7008], [135.3789, 33.6982], [135.3805, 33.6953], [135.3779, 33.6967], [135.3765, 33.695], [135.383, 33.6913], [135.3725, 33.6897], [135.3779, 33.6827], [135.3699, 33.6867], [135.3666, 33.686], [135.3663, 33.689], [135.3638, 33.6869], [135.3675, 33.6838], [135.3628, 33.6814], [135.3654, 33.6797], [135.3605, 33.6796], [135.3612, 33.6859], [135.3593, 33.684], [135.3584, 33.6861], [135.3562, 33.682], [135.3532, 33.6832], [135.3596, 33.6883], [135.3551, 33.6875], [135.3562, 33.6953], [135.3521, 33.6931], [135.3359, 33.6952], [135.3338, 33.6918], [135.3379, 33.6924], [135.3451, 33.6886], [135.3403, 33.6841], [135.3443, 33.6808], [135.3428, 33.6779], [135.3367, 33.677], [135.3296, 33.6704], [135.3321, 33.6701], [135.3307, 33.6671], [135.3399, 33.6639], [135.3392, 33.6614], [135.3507, 33.657], [135.3521, 33.6543], [135.3626, 33.6533], [135.3626, 33.6556], [135.3655, 33.6564], [135.3674, 33.6524], [135.3778, 33.6532], [135.3791, 33.6495], [135.3806, 33.6514], [135.3833, 33.6498], [135.3826, 33.6464], [135.386, 33.6468], [135.3914, 33.643], [135.3933, 33.6372], [135.3906, 33.6368], [135.393, 33.6342], [135.391, 33.6327], [135.3944, 33.6297], [135.3933, 33.6272], [135.3959, 33.6279], [135.3953, 33.6299], [135.3967, 33.6314], [135.3996, 33.6314], [135.3961, 33.6298], [135.3977, 33.6283], [135.3959, 33.6264], [135.3972, 33.6248], [135.3944, 33.6254], [135.3938, 33.6223], [135.3899, 33.621], [135.3903, 33.6173], [135.3924, 33.6162], [135.396, 33.6184], [135.3978, 33.6153], [135.3927, 33.6142], [135.3931, 33.6081], [135.3881, 33.6081], [135.3898, 33.6065], [135.3876, 33.6047], [135.3898, 33.6037], [135.3861, 33.6001], [135.393, 33.5978], [135.3888, 33.5961], [135.3925, 33.5952], [135.3901, 33.5932], [135.3939, 33.5927], [135.3915, 33.5919], [135.3925, 33.5895], [135.3967, 33.5887], [135.3958, 33.5863], [135.3999, 33.5842], [135.4051, 33.5903], [135.4029, 33.5812], [135.406, 33.5816], [135.4044, 33.5786], [135.4083, 33.5781], [135.4095, 33.5756], [135.4119, 33.5773], [135.4128, 33.5757], [135.4172, 33.5812], [135.4198, 33.5689], [135.4225, 33.5724], [135.4269, 33.5695], [135.4286, 33.5707], [135.4314, 33.5688], [135.4308, 33.5663], [135.436, 33.567], [135.4459, 33.5607], [135.4511, 33.5694], [135.4487, 33.5641], [135.4545, 33.5652], [135.4439, 33.5584], [135.4452, 33.5563], [135.449, 33.5566], [135.4467, 33.5495], [135.452, 33.5485], [135.4589, 33.5532], [135.4587, 33.546], [135.4626, 33.5485], [135.4684, 33.5465], [135.4768, 33.5513], [135.48, 33.5504], [135.4786, 33.546], [135.4806, 33.5446], [135.4859, 33.5485], [135.4887, 33.5463], [135.4876, 33.5508], [135.4896, 33.548], [135.4929, 33.5481], [135.4942, 33.5449], [135.4904, 33.5424], [135.49, 33.5443], [135.4871, 33.5445], [135.4872, 33.5427], [135.4918, 33.5402], [135.4944, 33.5419], [135.4995, 33.5408], [135.5012, 33.5352], [135.5102, 33.5348], [135.5145, 33.5308], [135.5101, 33.5259], [135.5144, 33.5236], [135.5189, 33.5216], [135.5263, 33.5226], [135.5305, 33.5195], [135.5333, 33.5203], [135.5344, 33.5179], [135.5362, 33.5206], [135.54, 33.5187], [135.5437, 33.5207], [135.547, 33.5161], [135.5574, 33.5165], [135.5601, 33.5142], [135.5719, 33.5167], [135.5764, 33.5108], [135.5788, 33.5112], [135.5783, 33.5073], [135.5834, 33.5083], [135.587, 33.5066], [135.59, 33.5024], [135.5887, 33.5008], [135.5926, 33.4981], [135.5911, 33.5074], [135.5964, 33.5071], [135.6006, 33.504], [135.6065, 33.5095], [135.6105, 33.506], [135.6121, 33.5085], [135.6248, 33.5023], [135.6273, 33.5026], [135.6294, 33.5091], [135.6427, 33.5018], [135.6527, 33.4996], [135.6562, 33.5012], [135.6545, 33.4987], [135.6574, 33.495], [135.6606, 33.4971], [135.661, 33.4935], [135.6637, 33.4936], [135.6631, 33.4902], [135.67, 33.4916], [135.6752, 33.4878], [135.6794, 33.4899], [135.681, 33.4857], [135.682, 33.4901], [135.6905, 33.4864], [135.6962, 33.4879], [135.7006, 33.4943], [135.7038, 33.4869], [135.7084, 33.4852], [135.7086, 33.4883], [135.7102, 33.4877], [135.7072, 33.4793], [135.709, 33.4779], [135.713, 33.4857], [135.7168, 33.4855], [135.7157, 33.4817], [135.7214, 33.4775], [135.725, 33.4784], [135.7248, 33.4765], [135.7365, 33.4861], [135.7363, 33.4842], [135.7388, 33.4842], [135.7363, 33.4836], [135.7362, 33.4807], [135.7396, 33.4766], [135.7423, 33.4795], [135.7463, 33.4795], [135.7464, 33.4825], [135.7517, 33.4803], [135.7587, 33.4844], [135.7603, 33.4816], [135.7655, 33.4825], [135.7678, 33.4796], [135.764, 33.4747], [135.7656, 33.4722], [135.7687, 33.4738], [135.7697, 33.4786], [135.7749, 33.4783], [135.7745, 33.4751], [135.7715, 33.4761], [135.7715, 33.473], [135.7738, 33.4721], [135.7756, 33.4609], [135.7499, 33.4512], [135.7486, 33.4487], [135.756, 33.444], [135.7532, 33.4368], [135.7612, 33.4355], [135.7625, 33.4332], [135.7708, 33.4471], [135.7748, 33.4451], [135.7787, 33.4461], [135.7823, 33.4398], [135.7856, 33.4407], [135.7851, 33.4391], [135.7886, 33.4382], [135.7865, 33.4392], [135.7889, 33.4404], [135.7887, 33.445], [135.7929, 33.4441], [135.7897, 33.4484], [135.7981, 33.4455], [135.7937, 33.4494], [135.7965, 33.451], [135.7859, 33.4605], [135.7861, 33.4648], [135.7859, 33.4624], [135.784, 33.4624], [135.7847, 33.4649], [135.7812, 33.4633], [135.7817, 33.4658], [135.7841, 33.4657], [135.7818, 33.4667], [135.7823, 33.47], [135.7871, 33.4676], [135.7851, 33.4709], [135.7817, 33.471], [135.7841, 33.4712], [135.7854, 33.4749], [135.7837, 33.475], [135.7903, 33.484], [135.7945, 33.4849], [135.7987, 33.4992], [135.807, 33.5032], [135.8111, 33.5022], [135.825, 33.5144], [135.8428, 33.5127], [135.8418, 33.5169], [135.8462, 33.5181], [135.8476, 33.5209], [135.8501, 33.5178], [135.8533, 33.5181], [135.8526, 33.5219], [135.8713, 33.5315], [135.8708, 33.535], [135.8718, 33.5327], [135.8761, 33.5331], [135.8757, 33.53], [135.8783, 33.5285], [135.8822, 33.5356], [135.8869, 33.5355], [135.8877, 33.5396], [135.8935, 33.5393], [135.8972, 33.5451], [135.9019, 33.5452], [135.909, 33.55], [135.9126, 33.549], [135.9119, 33.5525], [135.9172, 33.5528], [135.9152, 33.5571], [135.9189, 33.5595], [135.925, 33.5596], [135.9241, 33.5632], [135.9225, 33.5622], [135.9096, 33.5674], [135.9147, 33.5711], [135.9213, 33.5694], [135.9221, 33.5754], [135.9252, 33.5771], [135.9297, 33.5764], [135.9277, 33.5777], [135.9275, 33.579], [135.9298, 33.5795], [135.929, 33.5772], [135.9308, 33.5763], [135.9312, 33.5746], [135.9341, 33.5739], [135.9335, 33.5727], [135.9384, 33.5729], [135.9416, 33.5789], [135.954, 33.578], [135.9596, 33.582], [135.9578, 33.5842], [135.9633, 33.5954], [135.9509, 33.5899], [135.9455, 33.5908], [135.9428, 33.5938], [135.9502, 33.5915], [135.9463, 33.5964], [135.9475, 33.5991], [135.9453, 33.599], [135.9487, 33.6034], [135.9451, 33.605], [135.9361, 33.5986], [135.9364, 33.594], [135.9341, 33.593], [135.9302, 33.5961], [135.9327, 33.5998], [135.929, 33.5999], [135.9307, 33.6021], [135.9271, 33.6027], [135.9299, 33.6047], [135.9267, 33.6045], [135.9276, 33.6061], [135.9255, 33.6065], [135.9255, 33.6095], [135.9337, 33.6112], [135.9323, 33.6124], [135.9358, 33.6126], [135.9355, 33.6151], [135.9384, 33.6139], [135.9361, 33.6185], [135.9389, 33.6179], [135.9402, 33.6148], [135.9454, 33.6173], [135.9451, 33.6193], [135.9421, 33.6188], [135.9414, 33.6218], [135.9436, 33.6224], [135.9414, 33.6242], [135.9494, 33.6249], [135.9474, 33.6275], [135.9491, 33.6303], [135.9509, 33.63], [135.9493, 33.6274], [135.9517, 33.6182], [135.9537, 33.6219], [135.9529, 33.6323], [135.9478, 33.6328], [135.9474, 33.635], [135.9463, 33.6333], [135.941, 33.634], [135.936, 33.6383], [135.9363, 33.6427], [135.9395, 33.6468], [135.9571, 33.6495], [135.961, 33.6545], [135.9713, 33.6514], [135.9654, 33.656], [135.9704, 33.6546], [135.9755, 33.6573], [135.9791, 33.6552], [135.9791, 33.6487], [135.9862, 33.6553], [135.986, 33.661], [135.989, 33.6609], [135.987, 33.6652], [135.9858, 33.6611], [135.9775, 33.6589], [135.9749, 33.6604], [135.9767, 33.6631], [135.9738, 33.6637], [135.975, 33.6675], [135.9717, 33.6726], [135.975, 33.6732], [135.9785, 33.6799], [135.9844, 33.6832], [135.9859, 33.6816], [135.9873, 33.6844], [135.9909, 33.6843], [135.991, 33.6823], [135.9858, 33.6806], [135.9883, 33.6814], [135.9894, 33.6781], [135.992, 33.6783], [135.9917, 33.6858], [135.9877, 33.6855], [135.9869, 33.6897], [135.9927, 33.6933], [135.994, 33.7032], [136.013, 33.7272], [135.9795, 33.7369], [135.9723, 33.7338], [135.9769, 33.7264], [135.9754, 33.7229], [135.951, 33.7295], [135.9408, 33.7359], [135.9373, 33.7572], [135.9285, 33.7543], [135.921, 33.7584], [135.9174, 33.7663], [135.9059, 33.7679], [135.9022, 33.7799], [135.8968, 33.7865], [135.8975, 33.7922], [135.8911, 33.8016], [135.8818, 33.8017], [135.8744, 33.8077], [135.8633, 33.811], [135.8579, 33.8162], [135.8558, 33.8199], [135.8586, 33.8286], [135.8557, 33.8367], [135.8604, 33.849], [135.8531, 33.8591], [135.8587, 33.8688], [135.8526, 33.8793], [135.8552, 33.8877], [135.8515, 33.8941], [135.8472, 33.8965], [135.8363, 33.8954], [135.8156, 33.9058], [135.8086, 33.9065], [135.8032, 33.903], [135.8017, 33.8958], [135.7924, 33.8946], [135.7782, 33.8883], [135.7663, 33.8909], [135.764, 33.8874], [135.7562, 33.8851], [135.7516, 33.8896], [135.7482, 33.8877], [135.7447, 33.8906], [135.7421, 33.8898], [135.7388, 33.8947], [135.7331, 33.8958], [135.7243, 33.9032], [135.6861, 33.9039], [135.6792, 33.8982], [135.6706, 33.9004], [135.6628, 33.899], [135.6605, 33.8973], [135.662, 33.8888], [135.6556, 33.8815], [135.6479, 33.877], [135.6396, 33.8778], [135.6201, 33.8718], [135.6179, 33.8721], [135.6181, 33.8746], [135.6267, 33.8843], [135.6227, 33.8979], [135.6192, 33.8995], [135.6062, 33.899], [135.6009, 33.9026], [135.6, 33.9084], [135.6105, 33.9132], [135.6141, 33.9253], [135.6097, 33.9323], [135.6112, 33.9368], [135.6172, 33.9373], [135.6184, 33.9441], [135.6154, 33.9487], [135.617, 33.9538], [135.6312, 33.9489], [135.6372, 33.9506], [135.6355, 33.9588], [135.6403, 33.9662], [135.6375, 33.9759], [135.6391, 33.9838], [135.6359, 33.9909], [135.63, 33.9913], [135.6292, 33.9973], [135.6238, 34.0015], [135.6255, 34.0071], [135.6222, 34.0097], [135.6123, 34.0103], [135.608, 34.0137], [135.5941, 34.0128], [135.5919, 34.0195], [135.5959, 34.0239], [135.5948, 34.0287], [135.5993, 34.0329], [135.5946, 34.0393], [135.5946, 34.0441], [135.5875, 34.047], [135.5802, 34.0582], [135.5668, 34.0577], [135.5642, 34.0632], [135.5524, 34.0655], [135.551, 34.0686], [135.5462, 34.0693], [135.5398, 34.075], [135.5433, 34.0817], [135.55, 34.0847], [135.5487, 34.0965], [135.5462, 34.0979], [135.5474, 34.1004], [135.5584, 34.1033], [135.5572, 34.1081], [135.5789, 34.1163], [135.5821, 34.1287], [135.5853, 34.1324], [135.5852, 34.1409], [135.59, 34.1484], [135.6219, 34.1585], [135.6207, 34.1686], [135.6285, 34.1767], [135.6378, 34.1794], [135.6449, 34.1883], [135.6448, 34.1909], [135.6415, 34.1914], [135.6341, 34.1984], [135.6345, 34.2043], [135.6481, 34.219], [135.655, 34.2163], [135.6626, 34.2184], [135.6682, 34.2242], [135.6774, 34.2234], [135.683, 34.222], [135.6879, 34.2172], [135.6937, 34.2171], [135.6975, 34.2122], [135.7014, 34.2124], [135.708, 34.2081], [135.7135, 34.2143], [135.7273, 34.2206], [135.7302, 34.2283], [135.7289, 34.2349], [135.7236, 34.2396], [135.7194, 34.2604], [135.7161, 34.2656], [135.7083, 34.2686], [135.7085, 34.2719], [135.704, 34.2715], [135.7007, 34.2755], [135.6926, 34.2782], [135.6891, 34.2714], [135.6807, 34.2705], [135.6726, 34.2814], [135.6755, 34.2902], [135.6671, 34.3004], [135.6688, 34.3033], [135.6668, 34.305], [135.6689, 34.3063], [135.6655, 34.3123], [135.6691, 34.3152], [135.6685, 34.324], [135.6657, 34.3269], [135.6601, 34.3269], [135.6585, 34.3339], [135.6614, 34.338], [135.6605, 34.3449], [135.6629, 34.3469], [135.6636, 34.3552], [135.656, 34.3658], [135.6512, 34.3832], [135.6389, 34.3836], [135.6365, 34.3814], [135.6197, 34.3846], [135.6142, 34.3766], [135.6045, 34.3773], [135.5974, 34.3803], [135.5933, 34.375], [135.5834, 34.3771], [135.5769, 34.3758], [135.5724, 34.372], [135.5634, 34.3693], [135.5547, 34.3593], [135.5471, 34.3564], [135.5407, 34.3578], [135.5347, 34.3518], [135.527, 34.3513], [135.5089, 34.3367], [135.5035, 34.3367], [135.5022, 34.3382], [135.5049, 34.3412], [135.502, 34.3497], [135.4897, 34.3554], [135.4852, 34.363], [135.4792, 34.358], [135.478, 34.3533], [135.473, 34.3533], [135.4662, 34.3473], [135.456, 34.3476], [135.4534, 34.3499], [135.4448, 34.3476], [135.4353, 34.3487], [135.4289, 34.3457], [135.4248, 34.3399], [135.409, 34.3418], [135.4056, 34.334], [135.3969, 34.3304], [135.3909, 34.3331], [135.3868, 34.3293], [135.3683, 34.3312], [135.3623, 34.3291], [135.3591, 34.3331], [135.3555, 34.3336], [135.3462, 34.3304], [135.342, 34.3351], [135.3376, 34.3353], [135.3392, 34.3295], [135.3279, 34.3238], [135.3304, 34.3167], [135.3245, 34.3192], [135.3129, 34.3141], [135.304, 34.3137], [135.3028, 34.3042], [135.2929, 34.299], [135.2826, 34.3179], [135.2721, 34.3121], [135.2619, 34.3122], [135.258, 34.3156], [135.249, 34.3143], [135.2356, 34.3036], [135.2248, 34.3009], [135.2206, 34.3047], [135.2088, 34.3081], [135.2086, 34.3027], [135.2044, 34.298], [135.2054, 34.2883], [135.192, 34.2866], [135.1845, 34.2789], [135.1717, 34.2807], [135.1538, 34.2742], [135.1521, 34.2743], [135.1549, 34.2812], [135.1468, 34.2839], [135.1429, 34.2802], [135.1396, 34.2817], [135.137, 34.2736], [135.131, 34.2722], [135.1294, 34.2759], [135.1258, 34.2774], [135.119, 34.2732], [135.1139, 34.2745], [135.1114, 34.2715], [135.1073, 34.2782], [135.1084, 34.2842], [135.1037, 34.2839], [135.1051, 34.2853], [135.1013, 34.2859], [135.0987, 34.2891], [135.0993, 34.2944], [135.0968, 34.2959], [135.1064, 34.3059], [135.106, 34.3089], [135.1035, 34.3112], [135.0969, 34.308], [135.0933, 34.3116], [135.0848, 34.3065], [135.0791, 34.3082], [135.0745, 34.3057], [135.07, 34.2982], [135.0688, 34.2899], [134.998, 34.2691], [135.1752, 34.1584]]], [[[135.0553, 34.2992], [135.047, 34.2976], [135.0372, 34.2986], [135.0325, 34.2952], [135.0474, 34.2924], [135.055, 34.2969], [135.0602, 34.2973], [135.0553, 34.2992]]], [[[135.0274, 34.2934], [135.0237, 34.2926], [135.0263, 34.291], [135.0274, 34.2934]]], [[[135.0208, 34.2931], [135.0127, 34.2838], [135.0037, 34.2847], [134.9991, 34.2796], [135.011, 34.2758], [135.0119, 34.2795], [135.016, 34.2799], [135.0202, 34.286], [135.0205, 34.2913], [135.0237, 34.2927], [135.0208, 34.2931]]], [[[135.0776, 34.115], [135.075, 34.113], [135.08, 34.1095], [135.0839, 34.1141], [135.0776, 34.115]]], [[[135.8848, 33.8845], [135.8882, 33.8956], [135.8799, 33.9047], [135.8789, 33.9087], [135.8809, 33.9093], [135.8819, 33.9153], [135.8802, 33.918], [135.8771, 33.9173], [135.8659, 33.922], [135.8687, 33.9143], [135.8596, 33.9031], [135.8584, 33.8959], [135.8608, 33.8873], [135.8715, 33.8886], [135.8826, 33.8793], [135.8733, 33.87], [135.8749, 33.8617], [135.8781, 33.8645], [135.8785, 33.8719], [135.8862, 33.8721], [135.8917, 33.8683], [135.8977, 33.8701], [135.9013, 33.8853], [135.892, 33.8939], [135.8902, 33.8905], [135.893, 33.8891], [135.8929, 33.8819], [135.8888, 33.8814], [135.8848, 33.8845]]], [[[135.1187, 34.0186], [135.1249, 34.0153], [135.1253, 34.0173], [135.1288, 34.0178], [135.1187, 34.0186]]], [[[135.0745, 33.9505], [135.0717, 33.9503], [135.0734, 33.9471], [135.0757, 33.9478], [135.0745, 33.9505]]], [[[135.0957, 34.0054], [135.0929, 34.0077], [135.0921, 34.0033], [135.1026, 34.0041], [135.0957, 34.0054]]], [[[135.0912, 34.0035], [135.0894, 34.0021], [135.0928, 34.0017], [135.0912, 34.0035]]], [[[135.0878, 33.9918], [135.0817, 33.99], [135.0897, 33.9873], [135.0878, 33.9918]]], [[[135.3319, 33.6944], [135.3316, 33.693], [135.3334, 33.6937], [135.3319, 33.6944]]], [[[135.3648, 33.6972], [135.3627, 33.6972], [135.3635, 33.6947], [135.3648, 33.6972]]], [[[135.561, 33.5128], [135.5578, 33.5128], [135.5605, 33.5113], [135.561, 33.5128]]], [[[135.9464, 33.622], [135.9464, 33.6194], [135.9491, 33.6192], [135.9464, 33.622]]], [[[135.9745, 33.986], [135.961, 33.9846], [135.9542, 33.9804], [135.9476, 33.9807], [135.9414, 33.9757], [135.9385, 33.981], [135.9264, 33.9814], [135.9215, 33.978], [135.9157, 33.9726], [135.9151, 33.9661], [135.9068, 33.963], [135.9045, 33.9555], [135.8972, 33.9541], [135.8936, 33.9499], [135.893, 33.9389], [135.8981, 33.9338], [135.8997, 33.9248], [135.9047, 33.9257], [135.9098, 33.9226], [135.9091, 33.9185], [135.9178, 33.9195], [135.922, 33.9141], [135.9327, 33.9169], [135.9346, 33.9196], [135.9325, 33.9227], [135.9291, 33.9231], [135.9234, 33.9198], [135.9173, 33.9242], [135.921, 33.9338], [135.9313, 33.9334], [135.9279, 33.9398], [135.9294, 33.9414], [135.9357, 33.9392], [135.9435, 33.9398], [135.9577, 33.9343], [135.9648, 33.9281], [135.9684, 33.9285], [135.9773, 33.9473], [135.9773, 33.9577], [135.9745, 33.9624], [135.977, 33.9667], [135.9871, 33.9682], [135.9992, 33.9558], [136.0034, 33.9626], [136.0131, 33.9688], [136.0131, 33.975], [136.0045, 33.9846], [136.004, 33.9917], [135.9953, 34.001], [135.9972, 34.0025], [136.0042, 34.0018], [136.006, 34.009], [136.0036, 34.0099], [136.0014, 34.0061], [135.9911, 34.0038], [135.9848, 33.9917], [135.9773, 33.9896], [135.9745, 33.986]]], [[[135.6925, 33.4834], [135.6902, 33.4813], [135.6937, 33.482], [135.6925, 33.4834]]], [[[135.8153, 33.4642], [135.8138, 33.4608], [135.8207, 33.4622], [135.8248, 33.4599], [135.8213, 33.4548], [135.8221, 33.4514], [135.8228, 33.4535], [135.8316, 33.4489], [135.83, 33.4523], [135.8321, 33.4531], [135.8291, 33.4562], [135.8364, 33.4527], [135.8382, 33.4556], [135.8394, 33.4537], [135.8405, 33.4603], [135.8442, 33.458], [135.8488, 33.4615], [135.8535, 33.4599], [135.8533, 33.466], [135.857, 33.4668], [135.8627, 33.4724], [135.8574, 33.4702], [135.8539, 33.4721], [135.848, 33.4715], [135.8449, 33.4748], [135.8375, 33.4738], [135.8372, 33.4767], [135.8142, 33.4763], [135.8143, 33.4795], [135.8115, 33.4813], [135.805, 33.4773], [135.8039, 33.4753], [135.806, 33.4747], [135.8004, 33.4724], [135.8021, 33.4707], [135.8002, 33.4711], [135.7974, 33.4638], [135.8002, 33.4615], [135.8024, 33.4621], [135.8016, 33.4645], [135.8055, 33.4635], [135.8082, 33.4658], [135.8094, 33.4631], [135.8153, 33.4642]]], [[[135.7957, 33.4622], [135.7943, 33.4611], [135.797, 33.4602], [135.7957, 33.4622]]], [[[135.8199, 33.4521], [135.8126, 33.4507], [135.816, 33.4456], [135.8199, 33.4521]]]]}, "properties": {"name": "和歌山県"}}]}