{"type": "FeatureCollection", "features": [{"type": "Feature", "geometry": {"type": "MultiPolygon", "coordinates": [[[[139.8355, 35.5951], [139.8415, 35.6494], [139.8454, 35.6493], [139.8452, 35.6465], [139.8493, 35.6463], [139.849, 35.6421], [139.8597, 35.6383], [139.8691, 35.6388], [139.8699, 35.6373], [139.8826, 35.6451], [139.8871, 35.6559], [139.8866, 35.679], [139.8929, 35.682], [139.9078, 35.6848], [139.915, 35.6922], [139.9211, 35.7032], [139.8983, 35.7239], [139.8972, 35.7303], [139.9006, 35.7376], [139.8999, 35.7436], [139.8851, 35.7558], [139.8799, 35.7662], [139.881, 35.7718], [139.8935, 35.7783], [139.8938, 35.7828], [139.8876, 35.7842], [139.8774, 35.7812], [139.8739, 35.7818], [139.8711, 35.787], [139.8777, 35.7939], [139.8727, 35.7969], [139.8646, 35.7947], [139.8595, 35.7956], [139.8554, 35.7908], [139.8432, 35.7998], [139.8382, 35.8009], [139.8325, 35.7955], [139.8258, 35.7935], [139.8196, 35.7994], [139.8208, 35.8058], [139.8251, 35.8108], [139.8232, 35.8145], [139.8212, 35.815], [139.8208, 35.8113], [139.8142, 35.8085], [139.8026, 35.8086], [139.793, 35.8052], [139.7816, 35.807], [139.7711, 35.8171], [139.7663, 35.8174], [139.7609, 35.8125], [139.7554, 35.8127], [139.755, 35.8104], [139.7521, 35.8112], [139.7503, 35.8093], [139.7508, 35.8062], [139.7605, 35.7975], [139.7555, 35.7873], [139.7467, 35.7867], [139.7453, 35.783], [139.738, 35.7802], [139.7382, 35.7858], [139.7353, 35.7884], [139.7258, 35.7873], [139.7202, 35.7917], [139.7077, 35.7927], [139.6978, 35.7986], [139.6953, 35.7954], [139.6948, 35.7999], [139.6909, 35.8009], [139.6784, 35.799], [139.6553, 35.8005], [139.648, 35.7973], [139.6403, 35.7982], [139.6376, 35.7908], [139.6328, 35.7895], [139.6317, 35.7862], [139.6243, 35.7802], [139.6253, 35.7728], [139.6232, 35.7667], [139.6177, 35.7666], [139.6174, 35.7702], [139.6129, 35.7708], [139.6112, 35.7693], [139.611, 35.7712], [139.6087, 35.7691], [139.6063, 35.7713], [139.5987, 35.769], [139.5974, 35.7713], [139.6027, 35.7756], [139.5968, 35.7766], [139.597, 35.7786], [139.5944, 35.779], [139.5939, 35.7773], [139.5887, 35.7788], [139.5824, 35.7711], [139.5781, 35.7712], [139.577, 35.7679], [139.5704, 35.7656], [139.5715, 35.7634], [139.5636, 35.7628], [139.5621, 35.7599], [139.5579, 35.7599], [139.5551, 35.7559], [139.5482, 35.7536], [139.5471, 35.7553], [139.5445, 35.7545], [139.5476, 35.7743], [139.5163, 35.7657], [139.5226, 35.772], [139.5322, 35.7735], [139.5432, 35.7798], [139.5438, 35.7884], [139.5371, 35.7916], [139.5448, 35.7971], [139.5477, 35.8024], [139.5422, 35.8073], [139.5293, 35.7942], [139.5229, 35.7917], [139.5225, 35.7893], [139.5138, 35.7883], [139.5126, 35.7854], [139.5068, 35.783], [139.499, 35.7821], [139.4969, 35.7784], [139.4957, 35.7814], [139.4936, 35.7815], [139.4937, 35.7794], [139.4902, 35.7809], [139.489, 35.7791], [139.4828, 35.7811], [139.4765, 35.7778], [139.4765, 35.7754], [139.4737, 35.776], [139.4705, 35.7732], [139.4615, 35.7734], [139.458, 35.7697], [139.4478, 35.7689], [139.4447, 35.7666], [139.4386, 35.7692], [139.4317, 35.7666], [139.4222, 35.7682], [139.4164, 35.7662], [139.4129, 35.7684], [139.4046, 35.7694], [139.4003, 35.7684], [139.3982, 35.7648], [139.3919, 35.7631], [139.3919, 35.7669], [139.3804, 35.7664], [139.3791, 35.7707], [139.3818, 35.7744], [139.38, 35.779], [139.3754, 35.7803], [139.3725, 35.7785], [139.3688, 35.7784], [139.3733, 35.7797], [139.3673, 35.7855], [139.3699, 35.7873], [139.37, 35.7919], [139.3595, 35.7914], [139.3575, 35.794], [139.3502, 35.7933], [139.3466, 35.7965], [139.3326, 35.7917], [139.3253, 35.7955], [139.315, 35.8141], [139.3165, 35.8206], [139.315, 35.825], [139.3051, 35.8228], [139.3042, 35.8249], [139.3027, 35.8242], [139.3014, 35.8352], [139.2953, 35.8338], [139.2907, 35.8378], [139.2842, 35.8361], [139.2799, 35.8411], [139.2797, 35.8391], [139.2713, 35.8396], [139.2606, 35.8359], [139.252, 35.8385], [139.2439, 35.8368], [139.2388, 35.8405], [139.2306, 35.8366], [139.2116, 35.8469], [139.2056, 35.8457], [139.2034, 35.8412], [139.1925, 35.8402], [139.1743, 35.8483], [139.1649, 35.8502], [139.1595, 35.8571], [139.1474, 35.8627], [139.1355, 35.8654], [139.1194, 35.8643], [139.1013, 35.8657], [139.099, 35.8687], [139.0912, 35.8691], [139.0795, 35.8754], [139.0724, 35.8716], [139.0616, 35.8736], [139.058, 35.8774], [139.0501, 35.8787], [139.043, 35.8855], [139.024, 35.8973], [139.0182, 35.8984], [139.0103, 35.8971], [139.007, 35.8938], [139.0058, 35.8882], [139.001, 35.884], [138.9958, 35.8844], [138.9882, 35.881], [138.9793, 35.8849], [138.9729, 35.8819], [138.9681, 35.8821], [138.9649, 35.8774], [138.9547, 35.875], [138.9496, 35.8692], [138.9451, 35.8679], [138.9465, 35.8643], [138.943, 35.8573], [138.9483, 35.8497], [138.9474, 35.8426], [138.9621, 35.8296], [138.9698, 35.8313], [138.9712, 35.8], [138.9768, 35.7931], [138.9768, 35.789], [138.9847, 35.7856], [138.9867, 35.7812], [138.9843, 35.7679], [138.9893, 35.7636], [138.9925, 35.7555], [139.0003, 35.7504], [139.0053, 35.7504], [139.0151, 35.7335], [139.0214, 35.7268], [139.0223, 35.7227], [139.0271, 35.7182], [139.039, 35.7114], [139.0476, 35.7093], [139.0654, 35.6978], [139.0707, 35.6977], [139.0724, 35.6954], [139.082, 35.6957], [139.0922, 35.6905], [139.0973, 35.6925], [139.1059, 35.6911], [139.1231, 35.6775], [139.1274, 35.6764], [139.131, 35.6718], [139.1367, 35.6723], [139.1462, 35.667], [139.1538, 35.6659], [139.1616, 35.6678], [139.1674, 35.6618], [139.1669, 35.6507], [139.174, 35.6506], [139.1787, 35.6456], [139.1898, 35.6464], [139.1941, 35.6517], [139.1984, 35.653], [139.2113, 35.6491], [139.2157, 35.6461], [139.2156, 35.6371], [139.2222, 35.6292], [139.2198, 35.6259], [139.2261, 35.6237], [139.2309, 35.617], [139.2303, 35.6146], [139.2381, 35.6097], [139.2389, 35.6069], [139.2471, 35.6052], [139.2524, 35.6015], [139.2578, 35.6041], [139.265, 35.6024], [139.266, 35.6078], [139.2685, 35.6092], [139.2853, 35.6134], [139.2944, 35.6111], [139.2992, 35.6062], [139.304, 35.6046], [139.3143, 35.6043], [139.3208, 35.6065], [139.3302, 35.6032], [139.34, 35.6055], [139.3441, 35.6025], [139.3566, 35.5987], [139.3626, 35.5992], [139.3701, 35.5945], [139.3744, 35.5945], [139.3844, 35.5876], [139.3889, 35.5884], [139.3903, 35.5852], [139.3999, 35.5845], [139.4015, 35.5771], [139.4092, 35.5751], [139.4162, 35.5616], [139.4225, 35.5596], [139.4273, 35.5511], [139.4335, 35.5463], [139.4358, 35.547], [139.4406, 35.543], [139.4453, 35.542], [139.4486, 35.5352], [139.4584, 35.5281], [139.4548, 35.5215], [139.4634, 35.5175], [139.468, 35.5023], [139.4764, 35.5013], [139.4861, 35.5038], [139.481, 35.506], [139.4771, 35.5111], [139.4875, 35.5248], [139.4855, 35.5314], [139.4871, 35.5357], [139.4839, 35.5361], [139.4847, 35.538], [139.4801, 35.5431], [139.4826, 35.5483], [139.4818, 35.5557], [139.4766, 35.5628], [139.4747, 35.5598], [139.4702, 35.5604], [139.468, 35.563], [139.4754, 35.5809], [139.4826, 35.5817], [139.4854, 35.5848], [139.4903, 35.5847], [139.4827, 35.5714], [139.4861, 35.569], [139.4894, 35.5615], [139.5009, 35.5684], [139.5006, 35.5705], [139.5066, 35.5717], [139.5074, 35.5755], [139.5053, 35.5746], [139.4999, 35.5806], [139.4939, 35.5826], [139.4937, 35.5892], [139.4884, 35.5896], [139.4838, 35.5927], [139.4851, 35.5942], [139.4833, 35.5931], [139.4836, 35.595], [139.4795, 35.5952], [139.4778, 35.5989], [139.473, 35.6001], [139.4679, 35.6052], [139.4662, 35.6097], [139.4584, 35.6078], [139.4534, 35.6042], [139.4489, 35.6117], [139.4528, 35.6181], [139.4569, 35.619], [139.4628, 35.625], [139.4684, 35.62], [139.4754, 35.6199], [139.4763, 35.613], [139.4796, 35.6132], [139.4832, 35.6086], [139.4879, 35.6078], [139.4895, 35.6045], [139.5, 35.6052], [139.4948, 35.6165], [139.5032, 35.6229], [139.5156, 35.6254], [139.5175, 35.6305], [139.5236, 35.6324], [139.5209, 35.6374], [139.5253, 35.6428], [139.5476, 35.6368], [139.5494, 35.6342], [139.5618, 35.6327], [139.5667, 35.6295], [139.5659, 35.6276], [139.5764, 35.6219], [139.5834, 35.6215], [139.5918, 35.6176], [139.5988, 35.6186], [139.6057, 35.6156], [139.6089, 35.6165], [139.6184, 35.6137], [139.6311, 35.6073], [139.6519, 35.5917], [139.6564, 35.5896], [139.6645, 35.5897], [139.6689, 35.5854], [139.6775, 35.564], [139.6901, 35.5568], [139.6977, 35.5557], [139.7035, 35.5524], [139.6977, 35.5418], [139.7042, 35.5359], [139.7132, 35.5365], [139.7268, 35.5425], [139.7553, 35.5451], [139.7786, 35.5369], [139.7821, 35.5386], [139.7844, 35.5353], [139.7949, 35.5322], [139.8008, 35.5349], [139.8043, 35.5299], [139.8001, 35.5258], [139.8018, 35.5246], [139.7998, 35.5228], [139.8024, 35.5209], [139.8259, 35.5418], [139.8233, 35.5438], [139.8204, 35.5427], [139.8071, 35.5308], [139.803, 35.5359], [139.8088, 35.5389], [139.8065, 35.5422], [139.8275, 35.5649], [139.8012, 35.5829], [139.8257, 35.5696], [139.8355, 35.5951]]], [[[139.9197, 31.8876], [139.9194, 31.8894], [139.9169, 31.8891], [139.9149, 31.8865], [139.9169, 31.8853], [139.9197, 31.8876]]], [[[140.0513, 31.4368], [140.0548, 31.438], [140.0504, 31.4428], [140.0492, 31.4367], [140.0513, 31.4368]]], [[[139.3532, 34.7502], [139.3531, 34.7474], [139.3512, 34.7472], [139.3567, 34.7424], [139.3569, 34.7357], [139.3528, 34.7317], [139.3525, 34.719], [139.3611, 34.7102], [139.3584, 34.7014], [139.3724, 34.6995], [139.3747, 34.6969], [139.3837, 34.6942], [139.3909, 34.6866], [139.3948, 34.6872], [139.3957, 34.684], [139.3996, 34.684], [139.4012, 34.682], [139.4145, 34.6807], [139.4244, 34.6828], [139.4341, 34.678], [139.4429, 34.6812], [139.4402, 34.6816], [139.4364, 34.6875], [139.4379, 34.6887], [139.4394, 34.6854], [139.4448, 34.6845], [139.4444, 34.6889], [139.45, 34.6966], [139.4435, 34.7047], [139.4445, 34.7101], [139.4495, 34.7155], [139.4439, 34.7319], [139.4491, 34.7415], [139.4406, 34.7529], [139.4411, 34.7569], [139.4357, 34.7701], [139.4233, 34.781], [139.4152, 34.7834], [139.413, 34.787], [139.3977, 34.788], [139.3887, 34.7928], [139.3917, 34.7897], [139.3899, 34.7886], [139.383, 34.7907], [139.3809, 34.7942], [139.3767, 34.7943], [139.3728, 34.7983], [139.3675, 34.7963], [139.3607, 34.799], [139.36, 34.795], [139.3543, 34.7904], [139.3526, 34.7845], [139.3496, 34.7826], [139.3495, 34.7743], [139.3521, 34.7691], [139.3489, 34.766], [139.3487, 34.7624], [139.3524, 34.7528], [139.3486, 34.7518], [139.3532, 34.7502]]], [[[139.2804, 34.5319], [139.2804, 34.534], [139.2794, 34.5319], [139.2734, 34.5317], [139.2674, 34.5238], [139.2686, 34.5165], [139.2758, 34.5111], [139.2814, 34.512], [139.2929, 34.524], [139.2881, 34.5304], [139.2804, 34.5319]]], [[[139.2524, 34.3764], [139.249, 34.3713], [139.2457, 34.3704], [139.2482, 34.3708], [139.2458, 34.3679], [139.2416, 34.3699], [139.2439, 34.3674], [139.2416, 34.3623], [139.244, 34.3614], [139.2458, 34.3555], [139.2445, 34.3482], [139.2584, 34.3355], [139.2695, 34.332], [139.2759, 34.3436], [139.2783, 34.3898], [139.2821, 34.3959], [139.2839, 34.3946], [139.2852, 34.396], [139.2821, 34.3961], [139.2895, 34.4017], [139.2893, 34.4063], [139.2916, 34.4075], [139.2866, 34.4117], [139.2924, 34.4189], [139.291, 34.4241], [139.2816, 34.4312], [139.2785, 34.4313], [139.2818, 34.4239], [139.2791, 34.417], [139.2747, 34.4153], [139.2759, 34.4182], [139.2736, 34.4163], [139.2694, 34.4164], [139.2669, 34.4135], [139.2671, 34.4082], [139.2553, 34.4011], [139.2567, 34.3901], [139.2524, 34.3764]]], [[[139.213, 34.3368], [139.2061, 34.3347], [139.2086, 34.3309], [139.2065, 34.3305], [139.2062, 34.3279], [139.2051, 34.3293], [139.205, 34.3269], [139.2003, 34.3292], [139.2015, 34.3257], [139.1939, 34.3203], [139.1979, 34.3177], [139.1961, 34.3164], [139.2013, 34.3163], [139.2041, 34.322], [139.2074, 34.3211], [139.2072, 34.3175], [139.2113, 34.318], [139.2121, 34.3157], [139.2139, 34.3178], [139.2179, 34.3164], [139.2185, 34.3207], [139.2187, 34.3198], [139.2211, 34.32], [139.2194, 34.3204], [139.2202, 34.3219], [139.2211, 34.3213], [139.2203, 34.3222], [139.2229, 34.321], [139.2224, 34.3236], [139.2254, 34.3233], [139.2265, 34.3301], [139.2229, 34.33], [139.2234, 34.3315], [139.2166, 34.3339], [139.2142, 34.3323], [139.2165, 34.3342], [139.213, 34.3368]]], [[[139.2889, 34.4766], [139.2923, 34.4696], [139.2991, 34.4697], [139.2959, 34.4747], [139.2889, 34.4766]]], [[[139.2244, 34.3755], [139.2243, 34.3733], [139.2279, 34.3712], [139.2259, 34.3678], [139.2288, 34.3672], [139.2294, 34.3727], [139.2244, 34.3755]]], [[[139.2749, 34.3262], [139.2773, 34.3241], [139.2804, 34.3252], [139.2772, 34.3273], [139.2749, 34.3262]]], [[[139.1319, 34.2012], [139.122, 34.1993], [139.1198, 34.1916], [139.1217, 34.1894], [139.1193, 34.1908], [139.1228, 34.1882], [139.1252, 34.1898], [139.1254, 34.1871], [139.1284, 34.1873], [139.1291, 34.1844], [139.1329, 34.1872], [139.1377, 34.1868], [139.1382, 34.1851], [139.1414, 34.1881], [139.1422, 34.1857], [139.1435, 34.1897], [139.1453, 34.1878], [139.1474, 34.1967], [139.1516, 34.1927], [139.1536, 34.1936], [139.1523, 34.1951], [139.1547, 34.1944], [139.1566, 34.1972], [139.1534, 34.2015], [139.1573, 34.2006], [139.1548, 34.2018], [139.1576, 34.2052], [139.1683, 34.2087], [139.1704, 34.2045], [139.1718, 34.2059], [139.1753, 34.2044], [139.1762, 34.2077], [139.1732, 34.2135], [139.1756, 34.2168], [139.1718, 34.2193], [139.1709, 34.2292], [139.1677, 34.2341], [139.1561, 34.2395], [139.1493, 34.2393], [139.1436, 34.2434], [139.1377, 34.2421], [139.1375, 34.2374], [139.1342, 34.2351], [139.1372, 34.2283], [139.1364, 34.2247], [139.1284, 34.2228], [139.1284, 34.2203], [139.1338, 34.218], [139.1305, 34.2158], [139.1328, 34.2083], [139.1312, 34.2103], [139.1273, 34.2093], [139.1331, 34.2073], [139.1319, 34.2012]]], [[[139.0755, 34.185], [139.0741, 34.1859], [139.0721, 34.1839], [139.0755, 34.185]]], [[[139.077, 34.1881], [139.0751, 34.1863], [139.0774, 34.1859], [139.077, 34.1881]]], [[[139.193, 34.2087], [139.1893, 34.2087], [139.1922, 34.2059], [139.193, 34.2087]]], [[[139.1894, 34.2125], [139.1867, 34.2117], [139.1887, 34.2092], [139.1885, 34.2111], [139.191, 34.2119], [139.1894, 34.2125]]], [[[139.5631, 34.1059], [139.5597, 34.1119], [139.5474, 34.117], [139.5467, 34.1199], [139.5397, 34.1243], [139.5215, 34.1248], [139.5135, 34.1204], [139.5065, 34.1227], [139.4928, 34.1194], [139.4892, 34.1129], [139.4944, 34.1039], [139.4911, 34.1009], [139.4885, 34.1005], [139.489, 34.1026], [139.4876, 34.0984], [139.4885, 34.0957], [139.4833, 34.0919], [139.4806, 34.0863], [139.4818, 34.0835], [139.4729, 34.0766], [139.4803, 34.0706], [139.4802, 34.0686], [139.4774, 34.0679], [139.4797, 34.0682], [139.4789, 34.0662], [139.4819, 34.0675], [139.478, 34.0653], [139.4775, 34.0618], [139.4785, 34.0578], [139.4811, 34.0568], [139.4814, 34.052], [139.488, 34.0523], [139.4926, 34.0482], [139.4955, 34.0487], [139.5017, 34.0452], [139.5123, 34.0487], [139.5222, 34.0469], [139.5251, 34.0493], [139.53, 34.0465], [139.5339, 34.0492], [139.5339, 34.0527], [139.5386, 34.0533], [139.5415, 34.0566], [139.5462, 34.0561], [139.5428, 34.0566], [139.5536, 34.0602], [139.5632, 34.069], [139.5631, 34.0785], [139.5671, 34.0796], [139.5633, 34.08], [139.5611, 34.0842], [139.5632, 34.0911], [139.5665, 34.0935], [139.5635, 34.1], [139.5657, 34.1023], [139.5636, 34.1025], [139.5631, 34.1059]]], [[[139.6036, 33.901], [139.5903, 33.8987], [139.589, 33.8957], [139.5866, 33.8973], [139.5888, 33.8951], [139.577, 33.8796], [139.577, 33.8647], [139.5804, 33.8592], [139.5916, 33.8547], [139.6201, 33.852], [139.6283, 33.862], [139.6318, 33.8714], [139.6183, 33.8923], [139.6036, 33.901]]], [[[139.7463, 33.1557], [139.7386, 33.1459], [139.7383, 33.1386], [139.7445, 33.1212], [139.7514, 33.1152], [139.7541, 33.1051], [139.7575, 33.1029], [139.7679, 33.1016], [139.7695, 33.0991], [139.7713, 33.1003], [139.7702, 33.0972], [139.771, 33.0989], [139.7759, 33.0976], [139.7756, 33.0999], [139.7795, 33.1009], [139.7761, 33.0994], [139.7803, 33.0908], [139.7795, 33.0753], [139.7841, 33.0693], [139.7939, 33.0655], [139.7955, 33.0627], [139.8015, 33.064], [139.8102, 33.0583], [139.8182, 33.059], [139.8326, 33.0453], [139.8316, 33.0467], [139.837, 33.0496], [139.8334, 33.0548], [139.8333, 33.0665], [139.8389, 33.075], [139.8585, 33.0792], [139.8594, 33.084], [139.8544, 33.0913], [139.8574, 33.0991], [139.8514, 33.1046], [139.8466, 33.116], [139.8367, 33.1179], [139.8276, 33.1173], [139.8171, 33.1202], [139.8168, 33.1219], [139.82, 33.123], [139.8171, 33.1231], [139.8166, 33.1262], [139.8077, 33.1302], [139.8064, 33.1329], [139.8072, 33.1302], [139.805, 33.1293], [139.802, 33.1317], [139.8054, 33.1303], [139.8058, 33.1323], [139.7981, 33.1335], [139.796, 33.1425], [139.7833, 33.1488], [139.7721, 33.1586], [139.7682, 33.1576], [139.759, 33.1596], [139.7463, 33.1557]]], [[[139.686, 33.1365], [139.6791, 33.1343], [139.6768, 33.1365], [139.6751, 33.1309], [139.6849, 33.1177], [139.6887, 33.1162], [139.6944, 33.1176], [139.6989, 33.1156], [139.7011, 33.1184], [139.6979, 33.1267], [139.6899, 33.1314], [139.686, 33.1365]]], [[[139.7695, 32.4691], [139.7582, 32.4735], [139.7551, 32.4717], [139.7543, 32.4672], [139.755, 32.4504], [139.7597, 32.4461], [139.7685, 32.4429], [139.7794, 32.4475], [139.7814, 32.4522], [139.7812, 32.4574], [139.7695, 32.4691]]], [[[140.2864, 30.4835], [140.2958, 30.4743], [140.2999, 30.4728], [140.3102, 30.4755], [140.3147, 30.487], [140.3076, 30.4947], [140.3023, 30.4958], [140.2929, 30.4927], [140.2864, 30.4835]]], [[[142.1935, 27.0937], [142.1987, 27.0964], [142.1981, 27.0987], [142.2033, 27.0987], [142.2013, 27.0958], [142.1992, 27.096], [142.2035, 27.0943], [142.2019, 27.0874], [142.204, 27.0847], [142.2069, 27.086], [142.2084, 27.0832], [142.2068, 27.0779], [142.2049, 27.0774], [142.2058, 27.0749], [142.2033, 27.073], [142.1938, 27.0758], [142.1872, 27.0727], [142.1838, 27.0753], [142.1818, 27.0743], [142.1824, 27.0709], [142.1873, 27.0716], [142.1901, 27.069], [142.1887, 27.0678], [142.1925, 27.0678], [142.1911, 27.0639], [142.1934, 27.0643], [142.1953, 27.0614], [142.1926, 27.0592], [142.1873, 27.0612], [142.1862, 27.0548], [142.1896, 27.0556], [142.1898, 27.0505], [142.184, 27.0455], [142.1858, 27.0402], [142.187, 27.0447], [142.1937, 27.0413], [142.1992, 27.0456], [142.2063, 27.0441], [142.2082, 27.0403], [142.2108, 27.0407], [142.2113, 27.0382], [142.2123, 27.0406], [142.2141, 27.0392], [142.218, 27.0416], [142.2206, 27.0402], [142.2199, 27.0363], [142.2293, 27.036], [142.2283, 27.0391], [142.2251, 27.0391], [142.227, 27.0411], [142.224, 27.0426], [142.2252, 27.0439], [142.2227, 27.0443], [142.2235, 27.046], [142.2258, 27.0454], [142.2263, 27.0499], [142.222, 27.0536], [142.2252, 27.0535], [142.2286, 27.0568], [142.2345, 27.0495], [142.2368, 27.0495], [142.2354, 27.0507], [142.238, 27.0522], [142.2302, 27.0595], [142.2329, 27.0628], [142.2308, 27.069], [142.2329, 27.0776], [142.2297, 27.0814], [142.2244, 27.0817], [142.2231, 27.0855], [142.225, 27.0899], [142.2175, 27.0985], [142.219, 27.1008], [142.2149, 27.1003], [142.2127, 27.1033], [142.2057, 27.1034], [142.2046, 27.1055], [142.1965, 27.1057], [142.1942, 27.1035], [142.1932, 27.1058], [142.1907, 27.1043], [142.1874, 27.1056], [142.1832, 27.1033], [142.1814, 27.1002], [142.1831, 27.0973], [142.1819, 27.0946], [142.1861, 27.0911], [142.1866, 27.088], [142.1934, 27.0893], [142.1911, 27.0909], [142.1935, 27.0937]]], [[[142.1834, 27.0877], [142.1827, 27.0861], [142.1847, 27.0866], [142.1834, 27.0877]]], [[[142.2417, 27.0959], [142.2458, 27.0904], [142.2489, 27.0915], [142.2474, 27.0951], [142.2417, 27.0959]]], [[[142.2394, 27.0476], [142.2394, 27.0453], [142.2417, 27.0455], [142.2394, 27.0476]]], [[[142.1739, 27.0444], [142.1726, 27.0453], [142.1716, 27.0437], [142.1743, 27.0415], [142.1742, 27.0349], [142.1764, 27.0317], [142.1753, 27.0367], [142.1774, 27.0347], [142.1776, 27.0369], [142.1739, 27.0444]]], [[[142.1923, 27.1429], [142.1906, 27.1435], [142.1915, 27.1412], [142.1892, 27.1368], [142.1934, 27.1334], [142.187, 27.1304], [142.191, 27.1247], [142.1873, 27.1214], [142.1902, 27.1205], [142.193, 27.1229], [142.1979, 27.1233], [142.2059, 27.1187], [142.2059, 27.1162], [142.2016, 27.1142], [142.2029, 27.112], [142.2009, 27.1098], [142.2171, 27.1084], [142.22, 27.1087], [142.2204, 27.1108], [142.2264, 27.1111], [142.2357, 27.1096], [142.2358, 27.1139], [142.2261, 27.1162], [142.227, 27.1235], [142.2241, 27.1229], [142.2217, 27.1274], [142.2184, 27.1285], [142.2198, 27.1325], [142.2168, 27.1334], [142.2052, 27.1277], [142.207, 27.134], [142.2004, 27.1325], [142.1947, 27.1378], [142.1962, 27.1401], [142.194, 27.1408], [142.1943, 27.1434], [142.1923, 27.1429]]], [[[142.1893, 27.1872], [142.1892, 27.1901], [142.1844, 27.1873], [142.1879, 27.1844], [142.1847, 27.1784], [142.1863, 27.1789], [142.1877, 27.1765], [142.1879, 27.172], [142.1841, 27.1718], [142.1847, 27.1594], [142.1811, 27.1577], [142.1865, 27.1549], [142.1859, 27.1505], [142.1809, 27.1506], [142.1798, 27.1482], [142.1809, 27.1463], [142.1881, 27.1443], [142.1881, 27.15], [142.1925, 27.1504], [142.1995, 27.1581], [142.1977, 27.1595], [142.2024, 27.1689], [142.1984, 27.1686], [142.1947, 27.1763], [142.196, 27.1797], [142.2, 27.1812], [142.1999, 27.1836], [142.1949, 27.1826], [142.1956, 27.1852], [142.1929, 27.1848], [142.1893, 27.1872]]], [[[142.1799, 27.1291], [142.177, 27.1284], [142.1821, 27.1269], [142.1799, 27.1291]]], [[[142.1696, 27.1202], [142.1633, 27.1213], [142.1659, 27.117], [142.1619, 27.1151], [142.1617, 27.1131], [142.1658, 27.1129], [142.1673, 27.1151], [142.1722, 27.1162], [142.1696, 27.1202]]], [[[142.1988, 27.1954], [142.1988, 27.1967], [142.1954, 27.1964], [142.1937, 27.1938], [142.1953, 27.1928], [142.1988, 27.1954]]], [[[142.1857, 27.1188], [142.1842, 27.1181], [142.1885, 27.1161], [142.1857, 27.1188]]], [[[140.8724, 27.2462], [140.8759, 27.244], [140.8799, 27.247], [140.8752, 27.2502], [140.8724, 27.2462]]], [[[142.1614, 26.639], [142.1617, 26.6305], [142.1698, 26.6322], [142.174, 26.6248], [142.1764, 26.6242], [142.1742, 26.6222], [142.1767, 26.6211], [142.1763, 26.6161], [142.1783, 26.6153], [142.1735, 26.6082], [142.1764, 26.6096], [142.1784, 26.6076], [142.1834, 26.6116], [142.1809, 26.6143], [142.1822, 26.6226], [142.1803, 26.6244], [142.1805, 26.631], [142.1729, 26.6362], [142.1715, 26.6432], [142.1747, 26.6478], [142.1745, 26.6544], [142.1802, 26.6531], [142.1838, 26.6549], [142.185, 26.6534], [142.1847, 26.6561], [142.1882, 26.6552], [142.1892, 26.6593], [142.1822, 26.6598], [142.1822, 26.6569], [142.1787, 26.6555], [142.1668, 26.6581], [142.1643, 26.6602], [142.1613, 26.6742], [142.1671, 26.6807], [142.1659, 26.6843], [142.1686, 26.6899], [142.1652, 26.6869], [142.1593, 26.6869], [142.1521, 26.6837], [142.1466, 26.6853], [142.1462, 26.6939], [142.1507, 26.6941], [142.1531, 26.6985], [142.1603, 26.7017], [142.1636, 26.7002], [142.1651, 26.7026], [142.1621, 26.7043], [142.1586, 26.7037], [142.1548, 26.7089], [142.1504, 26.7056], [142.1479, 26.7077], [142.1435, 26.7063], [142.1421, 26.7088], [142.1406, 26.708], [142.1429, 26.6982], [142.1396, 26.7008], [142.135, 26.6993], [142.129, 26.708], [142.1306, 26.7089], [142.1273, 26.7096], [142.1286, 26.711], [142.126, 26.7144], [142.1231, 26.7141], [142.1227, 26.7066], [142.1285, 26.7008], [142.1307, 26.6892], [142.1366, 26.6843], [142.1365, 26.6815], [142.1448, 26.6765], [142.1437, 26.6682], [142.1421, 26.6689], [142.1417, 26.6664], [142.1466, 26.668], [142.1491, 26.6663], [142.1492, 26.6623], [142.145, 26.6569], [142.1489, 26.6542], [142.1463, 26.6531], [142.1486, 26.6492], [142.1528, 26.6468], [142.1516, 26.645], [142.1539, 26.636], [142.1584, 26.6349], [142.1567, 26.6358], [142.1576, 26.638], [142.1614, 26.639]]], [[[142.1619, 26.588], [142.1494, 26.5859], [142.1471, 26.5824], [142.1511, 26.5819], [142.1546, 26.5843], [142.1584, 26.5833], [142.1603, 26.5863], [142.1621, 26.5855], [142.1619, 26.588]]], [[[142.2306, 26.5757], [142.2266, 26.5709], [142.2285, 26.5689], [142.2259, 26.5666], [142.2269, 26.5637], [142.236, 26.5678], [142.24, 26.5676], [142.2306, 26.5757]]], [[[142.2124, 26.5643], [142.203, 26.5618], [142.2042, 26.5601], [142.2015, 26.5566], [142.2017, 26.553], [142.2152, 26.5566], [142.2183, 26.5631], [142.2124, 26.5643]]], [[[142.1549, 26.5644], [142.1515, 26.5621], [142.155, 26.5503], [142.1507, 26.5473], [142.1566, 26.5431], [142.1577, 26.5468], [142.1608, 26.5481], [142.1605, 26.5541], [142.1589, 26.5547], [142.1613, 26.5595], [142.1549, 26.5644]]], [[[142.1307, 26.6106], [142.1297, 26.6086], [142.1265, 26.6101], [142.1262, 26.6076], [142.1233, 26.607], [142.1227, 26.6035], [142.125, 26.6035], [142.1253, 26.6003], [142.1274, 26.5995], [142.1252, 26.5955], [142.1278, 26.5981], [142.1288, 26.5949], [142.132, 26.5957], [142.1358, 26.6008], [142.1339, 26.6081], [142.1307, 26.6106]]], [[[142.1641, 26.5928], [142.1651, 26.5886], [142.1663, 26.5908], [142.1641, 26.5928]]], [[[142.1767, 26.6022], [142.1774, 26.6054], [142.1754, 26.6022], [142.1767, 26.6022]]], [[[142.1106, 27.7174], [142.1063, 27.7177], [142.1089, 27.7159], [142.1106, 27.7174]]], [[[142.1271, 27.6807], [142.1236, 27.679], [142.1258, 27.6774], [142.1271, 27.6807]]], [[[142.158, 27.6596], [142.159, 27.6626], [142.1569, 27.6643], [142.1563, 27.6586], [142.1589, 27.657], [142.1583, 27.6546], [142.1594, 27.657], [142.158, 27.6596]]], [[[142.0971, 27.7199], [142.103, 27.7161], [142.1021, 27.7187], [142.0971, 27.7199]]], [[[142.1314, 27.6887], [142.1254, 27.6868], [142.1241, 27.6832], [142.1265, 27.6838], [142.1313, 27.6781], [142.1348, 27.6814], [142.1392, 27.6781], [142.1388, 27.6723], [142.147, 27.6709], [142.1488, 27.6731], [142.1482, 27.6834], [142.1434, 27.6861], [142.1426, 27.6886], [142.1403, 27.6884], [142.1388, 27.6854], [142.1365, 27.6871], [142.1329, 27.6853], [142.1331, 27.6886], [142.1314, 27.6887]]], [[[142.1752, 27.6355], [142.173, 27.6327], [142.1698, 27.6339], [142.173, 27.629], [142.1721, 27.6256], [142.1732, 27.6264], [142.1755, 27.6216], [142.1778, 27.6263], [142.1855, 27.6192], [142.1876, 27.6219], [142.186, 27.626], [142.183, 27.6302], [142.1786, 27.6305], [142.1783, 27.6335], [142.1752, 27.6355]]], [[[142.2123, 27.5011], [142.2041, 27.4984], [142.206, 27.4982], [142.2056, 27.4963], [142.2113, 27.4949], [142.2118, 27.49], [142.2147, 27.4892], [142.2163, 27.4913], [142.2122, 27.496], [142.2123, 27.5011]]], [[[142.2089, 27.4879], [142.2072, 27.4893], [142.2049, 27.4878], [142.2077, 27.4875], [142.2071, 27.4863], [142.2089, 27.4879]]], [[[141.2719, 25.4312], [141.276, 25.4194], [141.2822, 25.4192], [141.2901, 25.4224], [141.2932, 25.4264], [141.2929, 25.4366], [141.2881, 25.4473], [141.2829, 25.4491], [141.2783, 25.4469], [141.273, 25.4409], [141.2719, 25.4312]]], [[[141.2863, 24.8066], [141.2854, 24.7981], [141.2878, 24.8051], [141.2863, 24.8066]]], [[[141.3291, 24.8128], [141.322, 24.8124], [141.3213, 24.8085], [141.3135, 24.8055], [141.3047, 24.7963], [141.286, 24.7888], [141.2859, 24.7857], [141.289, 24.7874], [141.2924, 24.7843], [141.2937, 24.7715], [141.2856, 24.7541], [141.2848, 24.7456], [141.2868, 24.745], [141.2946, 24.7532], [141.3094, 24.7605], [141.3232, 24.7705], [141.3363, 24.7707], [141.3463, 24.7788], [141.3472, 24.7832], [141.3409, 24.7997], [141.3291, 24.8128]]], [[[141.4533, 24.2294], [141.4551, 24.2254], [141.4588, 24.2247], [141.4689, 24.2272], [141.472, 24.2332], [141.4727, 24.2414], [141.4584, 24.2447], [141.4549, 24.2415], [141.4533, 24.2294]]], [[[153.9668, 24.2899], [153.9822, 24.2866], [153.981, 24.3025], [153.9668, 24.2899]]]]}, "properties": {"name": "東京都"}}]}