{"type": "FeatureCollection", "features": [{"type": "Feature", "geometry": {"type": "MultiPolygon", "coordinates": [[[[133.6013, 33.5194], [133.6658, 33.5321], [133.6888, 33.5354], [133.6933, 33.5342], [133.6934, 33.5363], [133.6902, 33.5367], [133.6935, 33.5374], [133.6942, 33.5375], [133.6939, 33.5355], [133.6948, 33.5355], [133.6948, 33.5346], [133.6932, 33.5335], [133.6949, 33.5345], [133.6958, 33.5362], [133.703, 33.5373], [133.7209, 33.5371], [133.72, 33.5398], [133.7222, 33.5388], [133.7205, 33.539], [133.7213, 33.537], [133.7239, 33.5387], [133.722, 33.5369], [133.7246, 33.5379], [133.7241, 33.5362], [133.7246, 33.5371], [133.7246, 33.5384], [133.7312, 33.5387], [133.7484, 33.5363], [133.7533, 33.5314], [133.7554, 33.5338], [133.7563, 33.5306], [133.7535, 33.5298], [133.7516, 33.5279], [133.7553, 33.5302], [133.7572, 33.5272], [133.7544, 33.529], [133.7525, 33.5264], [133.75, 33.528], [133.7547, 33.525], [133.7539, 33.5206], [133.7613, 33.5197], [133.7704, 33.5144], [133.7702, 33.5156], [133.7718, 33.5146], [133.7798, 33.5166], [133.8222, 33.5151], [133.8349, 33.5128], [133.8372, 33.5078], [133.8433, 33.5061], [133.8572, 33.5064], [133.8682, 33.503], [133.8806, 33.5023], [133.8802, 33.5006], [133.8851, 33.4992], [133.8862, 33.5001], [133.8816, 33.5006], [133.882, 33.5021], [133.8882, 33.5], [133.8867, 33.5016], [133.8896, 33.5012], [133.8922, 33.4995], [133.8893, 33.5005], [133.8861, 33.4987], [133.8925, 33.4993], [133.9115, 33.4945], [133.9105, 33.4949], [133.911, 33.4964], [133.9135, 33.4991], [133.915, 33.4987], [133.9111, 33.4949], [133.9151, 33.4937], [133.921, 33.4964], [133.9186, 33.4942], [133.9217, 33.4957], [133.9193, 33.4939], [133.9219, 33.4929], [133.9235, 33.4941], [133.922, 33.4928], [133.9155, 33.4937], [133.9339, 33.4873], [133.9427, 33.477], [133.9445, 33.4732], [133.9418, 33.4697], [133.9414, 33.4633], [133.9478, 33.4559], [133.9492, 33.4506], [133.9568, 33.4462], [133.9585, 33.4432], [133.9544, 33.4451], [133.9582, 33.4425], [133.9817, 33.4351], [133.9909, 33.4284], [134.0103, 33.4225], [134.0159, 33.428], [134.0124, 33.4218], [134.0154, 33.4212], [134.0156, 33.4238], [134.0196, 33.422], [134.0196, 33.4197], [134.0172, 33.4217], [134.0158, 33.4204], [134.0296, 33.4135], [134.0362, 33.3997], [134.0378, 33.393], [134.0355, 33.3861], [134.0371, 33.3832], [134.0347, 33.3807], [134.0346, 33.3839], [134.0337, 33.3783], [134.0372, 33.3737], [134.0364, 33.3712], [134.0375, 33.3717], [134.0391, 33.3707], [134.037, 33.3701], [134.0384, 33.3699], [134.0414, 33.3717], [134.0482, 33.3706], [134.0594, 33.3632], [134.0615, 33.3646], [134.0598, 33.363], [134.0684, 33.3564], [134.0694, 33.352], [134.0803, 33.3369], [134.0916, 33.3329], [134.0927, 33.3339], [134.0925, 33.3325], [134.1019, 33.3287], [134.106, 33.321], [134.1068, 33.3136], [134.1089, 33.3123], [134.1098, 33.3056], [134.107, 33.2968], [134.1106, 33.2938], [134.1177, 33.2951], [134.1211, 33.2994], [134.1276, 33.2988], [134.1281, 33.3003], [134.1277, 33.2988], [134.1349, 33.2982], [134.1422, 33.2948], [134.14, 33.293], [134.1462, 33.2877], [134.1445, 33.2861], [134.1483, 33.287], [134.1497, 33.2862], [134.1467, 33.2861], [134.1534, 33.2827], [134.1526, 33.2815], [134.1476, 33.2851], [134.1429, 33.2856], [134.1478, 33.2848], [134.1535, 33.2796], [134.1547, 33.2771], [134.1531, 33.2774], [134.1604, 33.2698], [134.1584, 33.2689], [134.1601, 33.2629], [134.1613, 33.2648], [134.1593, 33.2679], [134.1614, 33.2684], [134.1632, 33.2636], [134.1628, 33.2669], [134.1648, 33.2673], [134.1675, 33.2604], [134.1646, 33.2638], [134.1625, 33.2624], [134.1648, 33.2626], [134.1725, 33.2463], [134.1756, 33.244], [134.1816, 33.2492], [134.1862, 33.262], [134.1839, 33.2604], [134.185, 33.264], [134.1862, 33.2629], [134.1861, 33.2744], [134.1843, 33.2756], [134.1859, 33.2752], [134.1872, 33.2795], [134.1863, 33.2931], [134.1868, 33.2953], [134.1878, 33.2928], [134.1891, 33.2977], [134.1874, 33.3007], [134.1889, 33.3004], [134.1927, 33.3071], [134.1938, 33.3202], [134.1962, 33.3218], [134.1966, 33.3256], [134.1991, 33.3251], [134.1967, 33.3257], [134.1981, 33.3292], [134.1986, 33.3276], [134.1988, 33.3427], [134.2003, 33.3501], [134.2035, 33.353], [134.2019, 33.3556], [134.2053, 33.3613], [134.2048, 33.3695], [134.2107, 33.3754], [134.2129, 33.3833], [134.2135, 33.3889], [134.2121, 33.3923], [134.2107, 33.3918], [134.2093, 33.3931], [134.2089, 33.3957], [134.2107, 33.3922], [134.2109, 33.3957], [134.2127, 33.3953], [134.2095, 33.3964], [134.2086, 33.3975], [134.2101, 33.3964], [134.2098, 33.3976], [134.2217, 33.4176], [134.2229, 33.4219], [134.2262, 33.4256], [134.2235, 33.4245], [134.2312, 33.4321], [134.2412, 33.4499], [134.2406, 33.459], [134.2455, 33.4691], [134.2677, 33.4975], [134.269, 33.4956], [134.269, 33.4999], [134.2724, 33.5052], [134.2897, 33.5198], [134.2837, 33.5215], [134.2851, 33.5305], [134.2917, 33.5335], [134.2904, 33.535], [134.2942, 33.5379], [134.2907, 33.5388], [134.2923, 33.5418], [134.3042, 33.5418], [134.3004, 33.5434], [134.3008, 33.5468], [134.2966, 33.5477], [134.301, 33.5475], [134.3015, 33.5504], [134.303, 33.5477], [134.3015, 33.5468], [134.3045, 33.5457], [134.3047, 33.5525], [134.3068, 33.5534], [134.3007, 33.5552], [134.2964, 33.5532], [134.2957, 33.5578], [134.2815, 33.5611], [134.2784, 33.5595], [134.2736, 33.5606], [134.2705, 33.555], [134.2623, 33.5568], [134.2581, 33.5533], [134.2494, 33.5529], [134.2417, 33.556], [134.2378, 33.5521], [134.2297, 33.5578], [134.2271, 33.5628], [134.2183, 33.5677], [134.2072, 33.5655], [134.1961, 33.5607], [134.1933, 33.5617], [134.1953, 33.5688], [134.1925, 33.574], [134.1877, 33.5757], [134.1886, 33.5816], [134.1847, 33.5887], [134.1787, 33.5942], [134.1706, 33.5971], [134.1704, 33.6023], [134.1758, 33.6075], [134.1605, 33.6129], [134.1559, 33.6113], [134.152, 33.6179], [134.1544, 33.6233], [134.1491, 33.6282], [134.1522, 33.6319], [134.1593, 33.6333], [134.1716, 33.6429], [134.1787, 33.6448], [134.1833, 33.6493], [134.1718, 33.6576], [134.1753, 33.6617], [134.1692, 33.671], [134.1758, 33.677], [134.1748, 33.6846], [134.1645, 33.6883], [134.1479, 33.6855], [134.1335, 33.6937], [134.1224, 33.6963], [134.1134, 33.6963], [134.1063, 33.6939], [134.0998, 33.6948], [134.0676, 33.689], [134.0573, 33.6906], [134.0567, 33.6942], [134.0649, 33.6983], [134.0652, 33.7092], [134.0704, 33.7123], [134.0651, 33.7197], [134.0684, 33.7292], [134.0663, 33.734], [134.0618, 33.7352], [134.0615, 33.7403], [134.0561, 33.7519], [134.0592, 33.7622], [134.058, 33.7812], [134.0458, 33.7896], [134.0469, 33.7985], [134.0335, 33.8089], [134.037, 33.815], [134.0369, 33.8202], [134.0329, 33.8283], [134.0131, 33.822], [133.9973, 33.8212], [133.9903, 33.8277], [133.9874, 33.8394], [133.9852, 33.8408], [133.9749, 33.8364], [133.9581, 33.8341], [133.9574, 33.8315], [133.9512, 33.8291], [133.9527, 33.8155], [133.9474, 33.8037], [133.941, 33.7991], [133.9249, 33.8006], [133.9135, 33.7912], [133.908, 33.7952], [133.901, 33.7943], [133.8934, 33.8049], [133.8874, 33.8029], [133.8829, 33.8053], [133.8724, 33.8061], [133.8725, 33.8101], [133.8663, 33.8193], [133.8565, 33.8283], [133.8538, 33.8345], [133.8443, 33.8377], [133.8384, 33.8453], [133.8286, 33.8448], [133.8186, 33.8375], [133.7884, 33.8363], [133.7856, 33.8422], [133.7833, 33.8409], [133.776, 33.8423], [133.7728, 33.8397], [133.7655, 33.8403], [133.7562, 33.8364], [133.7481, 33.8368], [133.7408, 33.8426], [133.7406, 33.8468], [133.7377, 33.8499], [133.7296, 33.8511], [133.7189, 33.8494], [133.7072, 33.8516], [133.7021, 33.8497], [133.6946, 33.8564], [133.687, 33.8567], [133.6806, 33.8595], [133.6773, 33.8587], [133.6734, 33.8643], [133.6667, 33.8661], [133.6629, 33.8705], [133.6608, 33.8817], [133.6431, 33.8832], [133.6354, 33.8802], [133.6275, 33.8721], [133.6109, 33.8808], [133.598, 33.8804], [133.5831, 33.8676], [133.5713, 33.8696], [133.5691, 33.8736], [133.5611, 33.876], [133.5571, 33.8821], [133.5516, 33.8823], [133.5399, 33.8783], [133.5399, 33.8754], [133.5359, 33.8715], [133.5356, 33.8653], [133.5254, 33.8611], [133.5263, 33.8536], [133.5181, 33.8474], [133.5094, 33.8482], [133.5065, 33.8394], [133.508, 33.8358], [133.4991, 33.8291], [133.4924, 33.8324], [133.4865, 33.8296], [133.4834, 33.833], [133.4733, 33.8338], [133.4701, 33.8368], [133.4639, 33.8344], [133.4545, 33.8369], [133.449, 33.8332], [133.4321, 33.835], [133.4249, 33.8392], [133.4145, 33.8397], [133.4067, 33.8365], [133.4011, 33.8363], [133.3914, 33.8244], [133.3687, 33.8294], [133.3555, 33.8343], [133.3458, 33.8249], [133.3335, 33.8215], [133.3257, 33.8146], [133.3104, 33.8159], [133.2933, 33.8289], [133.2827, 33.8319], [133.2773, 33.8309], [133.2675, 33.8238], [133.2677, 33.8212], [133.2607, 33.8107], [133.2624, 33.8046], [133.2571, 33.7937], [133.251, 33.7889], [133.2457, 33.7888], [133.237, 33.7828], [133.2308, 33.7838], [133.2199, 33.7803], [133.206, 33.7945], [133.1932, 33.794], [133.1904, 33.7836], [133.1825, 33.7714], [133.1836, 33.768], [133.1799, 33.7641], [133.177, 33.7639], [133.1727, 33.7583], [133.1649, 33.7566], [133.1578, 33.7503], [133.1612, 33.7315], [133.1463, 33.7225], [133.1458, 33.7196], [133.14, 33.7158], [133.1449, 33.7052], [133.1339, 33.6998], [133.1255, 33.6984], [133.1199, 33.6898], [133.1213, 33.6861], [133.1193, 33.6794], [133.1213, 33.674], [133.1166, 33.6603], [133.1062, 33.6565], [133.0906, 33.6577], [133.084, 33.6541], [133.0774, 33.6535], [133.075, 33.6506], [133.0672, 33.6221], [133.0731, 33.6144], [133.0781, 33.6126], [133.0797, 33.6087], [133.0769, 33.6083], [133.0699, 33.6011], [133.0642, 33.5997], [133.0635, 33.5974], [133.056, 33.5951], [133.0552, 33.5898], [133.048, 33.5832], [133.0466, 33.5758], [133.0622, 33.5618], [133.0603, 33.5541], [133.0643, 33.5427], [133.0381, 33.5265], [133.0382, 33.5193], [133.0344, 33.512], [133.0263, 33.5053], [133.0207, 33.496], [133.0134, 33.4905], [133.0158, 33.4812], [132.9991, 33.4758], [132.9784, 33.4729], [132.9584, 33.4663], [132.9518, 33.4666], [132.944, 33.4719], [132.9155, 33.4676], [132.8892, 33.4734], [132.8813, 33.4711], [132.8725, 33.4712], [132.8649, 33.4723], [132.86, 33.4758], [132.8471, 33.4794], [132.8399, 33.4747], [132.834, 33.4743], [132.8322, 33.4761], [132.827, 33.4723], [132.8206, 33.4725], [132.819, 33.4663], [132.8151, 33.4642], [132.8111, 33.466], [132.807, 33.4607], [132.8084, 33.4534], [132.8266, 33.4456], [132.8279, 33.4382], [132.8246, 33.4346], [132.8248, 33.423], [132.8293, 33.422], [132.833, 33.4182], [132.8322, 33.4071], [132.8356, 33.4007], [132.8407, 33.398], [132.8546, 33.3983], [132.8562, 33.392], [132.8531, 33.3882], [132.8601, 33.3683], [132.8699, 33.3673], [132.8743, 33.3639], [132.8838, 33.3622], [132.8897, 33.3578], [132.9006, 33.3431], [132.9033, 33.3307], [132.8986, 33.3247], [132.9004, 33.3191], [132.8975, 33.3138], [132.8848, 33.3072], [132.8724, 33.3049], [132.8576, 33.2931], [132.8536, 33.2928], [132.8496, 33.2896], [132.8403, 33.2878], [132.8371, 33.2895], [132.8295, 33.2838], [132.8244, 33.2822], [132.8172, 33.2838], [132.8141, 33.2805], [132.7971, 33.2743], [132.7925, 33.2744], [132.7876, 33.2681], [132.7875, 33.2627], [132.7795, 33.2558], [132.7774, 33.2459], [132.7719, 33.241], [132.7751, 33.2325], [132.7745, 33.2283], [132.7711, 33.2259], [132.7708, 33.2212], [132.7736, 33.2187], [132.7754, 33.2059], [132.7587, 33.2015], [132.7485, 33.2035], [132.7408, 33.2014], [132.7383, 33.1958], [132.7418, 33.1897], [132.7371, 33.1863], [132.7378, 33.182], [132.7323, 33.1774], [132.7285, 33.1701], [132.7194, 33.1667], [132.7174, 33.1599], [132.7102, 33.1528], [132.6986, 33.1463], [132.6952, 33.1403], [132.696, 33.1375], [132.6865, 33.135], [132.6732, 33.151], [132.6623, 33.1544], [132.6594, 33.1604], [132.6486, 33.168], [132.6471, 33.1718], [132.6398, 33.1729], [132.6345, 33.1784], [132.6372, 33.1834], [132.6356, 33.1865], [132.6196, 33.181], [132.6195, 33.1737], [132.6149, 33.1688], [132.6322, 33.1492], [132.6283, 33.1341], [132.6305, 33.1322], [132.6374, 33.1325], [132.6462, 33.1162], [132.6534, 33.1108], [132.6634, 33.1092], [132.6689, 33.0939], [132.6704, 33.0871], [132.6666, 33.0806], [132.6694, 33.0709], [132.658, 33.0573], [132.6784, 33.0376], [132.6785, 33.0294], [132.6753, 33.0221], [132.6767, 33.0219], [132.6758, 33.0164], [132.6788, 33.0131], [132.6769, 33.0105], [132.6802, 33.0089], [132.6869, 32.9982], [132.6814, 32.9938], [132.6842, 32.9893], [132.6844, 32.9826], [132.6871, 32.9821], [132.6872, 32.976], [132.6915, 32.9739], [132.6863, 32.9681], [132.6865, 32.9631], [132.6816, 32.9646], [132.6835, 32.963], [132.6818, 32.9577], [132.6836, 32.9474], [132.6781, 32.9429], [132.6757, 32.9442], [132.6713, 32.9422], [132.6606, 32.9425], [132.6594, 32.9401], [132.6551, 32.9409], [132.6525, 32.9394], [132.6564, 32.9319], [132.6555, 32.9243], [132.6647, 32.9219], [132.6656, 32.9246], [132.6668, 32.919], [132.672, 32.9192], [132.6721, 32.8879], [132.7047, 32.8881], [132.6684, 32.8864], [132.6675, 32.8694], [132.6749, 32.8656], [132.6677, 32.8645], [132.6697, 32.8621], [132.6668, 32.8619], [132.6641, 32.8571], [132.6582, 32.8556], [132.6566, 32.853], [132.661, 32.8534], [132.6612, 32.8488], [132.6666, 32.8469], [132.6678, 32.8432], [132.6714, 32.8444], [132.6714, 32.8416], [132.6742, 32.842], [132.6741, 32.8407], [132.6627, 32.8411], [132.6596, 32.8395], [132.6589, 32.8378], [132.665, 32.8336], [132.6638, 32.8313], [132.6604, 32.832], [132.6581, 32.824], [132.6551, 32.8252], [132.6542, 32.8296], [132.6504, 32.8259], [132.6504, 32.8193], [132.644, 32.8197], [132.6443, 32.8134], [132.6469, 32.8098], [132.6402, 32.8089], [132.6555, 32.8062], [132.6571, 32.8017], [132.6491, 32.8046], [132.6486, 32.8005], [132.6399, 32.802], [132.6378, 32.7989], [132.6321, 32.8015], [132.629, 32.8009], [132.6296, 32.7969], [132.627, 32.7957], [132.631, 32.7961], [132.6348, 32.7898], [132.6439, 32.7878], [132.6446, 32.7861], [132.6423, 32.7828], [132.6338, 32.7845], [132.6403, 32.7695], [132.6313, 32.7678], [132.6286, 32.7658], [132.6287, 32.7628], [132.6322, 32.7621], [132.6375, 32.7669], [132.64, 32.7644], [132.651, 32.7662], [132.6514, 32.7684], [132.6482, 32.7705], [132.6482, 32.7756], [132.6505, 32.7782], [132.6545, 32.7784], [132.6544, 32.781], [132.6632, 32.7805], [132.6697, 32.7843], [132.6839, 32.781], [132.6846, 32.7844], [132.6907, 32.7881], [132.6979, 32.7849], [132.6989, 32.7875], [132.6956, 32.7897], [132.6907, 32.7907], [132.6864, 32.7887], [132.6834, 32.7957], [132.6875, 32.7916], [132.6967, 32.7939], [132.699, 32.7963], [132.707, 32.7951], [132.7107, 32.799], [132.7161, 32.7938], [132.7163, 32.7971], [132.7184, 32.7978], [132.7226, 32.7913], [132.7214, 32.7861], [132.7271, 32.7855], [132.7278, 32.78], [132.7296, 32.778], [132.7328, 32.7789], [132.7325, 32.7765], [132.7354, 32.7763], [132.7391, 32.7722], [132.7433, 32.7729], [132.7499, 32.7602], [132.7573, 32.7533], [132.7656, 32.7559], [132.7652, 32.7597], [132.7704, 32.7619], [132.7796, 32.754], [132.7842, 32.7573], [132.7866, 32.7569], [132.791, 32.7477], [132.8003, 32.7486], [132.8016, 32.746], [132.8043, 32.7489], [132.8038, 32.7526], [132.8154, 32.753], [132.8175, 32.7571], [132.814, 32.7602], [132.8161, 32.762], [132.8132, 32.7623], [132.8165, 32.7624], [132.8218, 32.7599], [132.8268, 32.7617], [132.8279, 32.7664], [132.8304, 32.7639], [132.8356, 32.7691], [132.8347, 32.7747], [132.8396, 32.7813], [132.8441, 32.7812], [132.8428, 32.7796], [132.8449, 32.7815], [132.8449, 32.7775], [132.8475, 32.7824], [132.8496, 32.7812], [132.852, 32.7867], [132.8583, 32.7873], [132.86, 32.7859], [132.8596, 32.7901], [132.8637, 32.7906], [132.8632, 32.7866], [132.865, 32.7873], [132.8655, 32.7855], [132.8674, 32.7863], [132.8661, 32.7886], [132.8678, 32.7865], [132.8691, 32.7884], [132.8715, 32.7857], [132.8714, 32.7769], [132.8681, 32.776], [132.8702, 32.7743], [132.8671, 32.7745], [132.865, 32.7713], [132.869, 32.7709], [132.8679, 32.7652], [132.8709, 32.7652], [132.8724, 32.7681], [132.8772, 32.7679], [132.8793, 32.7703], [132.8762, 32.7741], [132.8774, 32.7759], [132.8753, 32.78], [132.8768, 32.7771], [132.8784, 32.7778], [132.8806, 32.783], [132.875, 32.7881], [132.8771, 32.7866], [132.8774, 32.7891], [132.8798, 32.7901], [132.8819, 32.7896], [132.881, 32.7908], [132.8828, 32.789], [132.8832, 32.7873], [132.8871, 32.7906], [132.8893, 32.7901], [132.8882, 32.7926], [132.8891, 32.7911], [132.8897, 32.793], [132.8899, 32.7899], [132.896, 32.7892], [132.8979, 32.7872], [132.9127, 32.7883], [132.9185, 32.7862], [132.9206, 32.7844], [132.9199, 32.7778], [132.9234, 32.7825], [132.929, 32.7814], [132.9306, 32.7836], [132.9301, 32.7813], [132.9347, 32.7786], [132.9323, 32.7836], [132.935, 32.7869], [132.9436, 32.783], [132.9465, 32.7834], [132.9464, 32.7852], [132.9468, 32.7826], [132.9422, 32.7804], [132.9475, 32.7801], [132.9472, 32.7789], [132.9408, 32.7804], [132.9412, 32.7767], [132.9394, 32.7755], [132.9409, 32.7706], [132.9449, 32.7694], [132.9451, 32.7645], [132.9483, 32.7658], [132.9519, 32.771], [132.9552, 32.7699], [132.9556, 32.7789], [132.961, 32.779], [132.9588, 32.7766], [132.9647, 32.7751], [132.9679, 32.7769], [132.9684, 32.7746], [132.9619, 32.7743], [132.9575, 32.7718], [132.9572, 32.768], [132.9529, 32.7657], [132.954, 32.7638], [132.9521, 32.7629], [132.9541, 32.7567], [132.9639, 32.7585], [132.9609, 32.7507], [132.9649, 32.7499], [132.9679, 32.7525], [132.9718, 32.7478], [132.9654, 32.738], [132.9656, 32.7294], [132.9693, 32.729], [132.9704, 32.7326], [132.9704, 32.7307], [132.9724, 32.7314], [132.9721, 32.7359], [132.9743, 32.7311], [132.9775, 32.7325], [132.979, 32.7313], [132.9793, 32.7344], [132.9794, 32.7301], [132.9807, 32.7319], [132.9845, 32.7304], [132.9859, 32.734], [132.9893, 32.7289], [132.9935, 32.7313], [132.9999, 32.7227], [133.0036, 32.7235], [133.0028, 32.7216], [133.0072, 32.7213], [133.0083, 32.7239], [133.0097, 32.7226], [133.0122, 32.7241], [133.0208, 32.7234], [133.0219, 32.7314], [133.0197, 32.7355], [133.0179, 32.735], [133.0196, 32.7356], [133.0181, 32.7421], [133.0195, 32.7444], [133.0149, 32.7502], [133.0141, 32.7547], [133.0111, 32.754], [133.0141, 32.7547], [133.018, 32.7612], [133.0163, 32.7646], [133.0103, 32.7673], [133.0096, 32.7711], [133.007, 32.7704], [133.009, 32.7728], [133.0073, 32.7746], [133.0053, 32.7736], [133.0073, 32.7747], [133.0016, 32.7826], [133.0027, 32.7874], [132.9988, 32.7887], [132.9975, 32.7863], [132.995, 32.7904], [132.9794, 32.7935], [132.9773, 32.7966], [132.973, 32.7958], [132.9754, 32.7965], [132.9747, 32.7984], [132.967, 32.7987], [132.9656, 32.8003], [132.9654, 32.7991], [132.9631, 32.8023], [132.9656, 32.8023], [132.9631, 32.8051], [132.9578, 32.805], [132.9537, 32.8128], [132.9495, 32.812], [132.9521, 32.813], [132.9502, 32.8212], [132.9515, 32.8255], [132.9497, 32.825], [132.9493, 32.8237], [132.9476, 32.8224], [132.9454, 32.8218], [132.949, 32.8239], [132.9469, 32.8247], [132.9492, 32.824], [132.9491, 32.825], [132.951, 32.8257], [132.9571, 32.8263], [132.9604, 32.8295], [132.958, 32.8345], [132.9539, 32.8343], [132.9536, 32.8364], [132.9582, 32.8395], [132.9524, 32.8454], [132.9549, 32.8458], [132.9553, 32.8501], [132.9573, 32.8503], [132.9484, 32.8557], [132.9508, 32.8598], [132.9558, 32.8605], [132.9512, 32.8655], [132.9523, 32.8666], [132.9565, 32.8618], [132.9573, 32.863], [132.9569, 32.8587], [132.9614, 32.8618], [132.9597, 32.8626], [132.9609, 32.8646], [132.9725, 32.8659], [132.9818, 32.8645], [132.9867, 32.8684], [132.9932, 32.8624], [132.9968, 32.8645], [132.9937, 32.8682], [132.9999, 32.8734], [132.9983, 32.8772], [133.0015, 32.879], [132.9999, 32.8798], [133.0029, 32.8807], [133.0049, 32.879], [133.0094, 32.8811], [133.0078, 32.8945], [133.0068, 32.8945], [133.0048, 32.8961], [133.0035, 32.8958], [133.0028, 32.8951], [133.0005, 32.895], [133.0047, 32.8962], [133.0051, 32.8961], [133.0066, 32.8947], [133.0064, 32.896], [133.0086, 32.897], [133.0059, 32.9006], [133.0082, 32.9087], [133.0069, 32.9101], [133.0097, 32.9118], [133.0029, 32.9211], [132.9976, 32.9235], [132.9969, 32.9283], [133.0008, 32.9305], [132.9937, 32.9321], [132.9954, 32.9365], [132.9998, 32.9362], [132.9954, 32.9368], [132.9971, 32.9419], [133.0004, 32.9435], [132.9997, 32.9464], [132.9947, 32.9482], [132.993, 32.9529], [132.9938, 32.9611], [133.0001, 32.9655], [132.9965, 32.9694], [132.9988, 32.9689], [133.0023, 32.9746], [133.0056, 32.9743], [132.9984, 32.9803], [133.0031, 32.9929], [133.007, 32.9946], [133.009, 32.9982], [133.0052, 32.997], [133.0055, 33.0015], [133.0102, 33.0075], [133.0095, 33.0112], [133.0123, 33.0105], [133.01, 33.0116], [133.0112, 33.0143], [133.0128, 33.0139], [133.0111, 33.0127], [133.0113, 33.0114], [133.0124, 33.0119], [133.0125, 33.0099], [133.0132, 33.0138], [133.0157, 33.0126], [133.0115, 33.015], [133.0156, 33.0206], [133.0332, 33.0354], [133.0389, 33.0372], [133.0418, 33.0355], [133.0445, 33.0386], [133.0552, 33.0394], [133.0578, 33.0374], [133.0595, 33.0386], [133.0576, 33.0363], [133.0592, 33.0359], [133.0649, 33.0377], [133.0721, 33.0373], [133.0747, 33.0354], [133.0749, 33.0324], [133.0793, 33.0319], [133.0813, 33.0272], [133.0957, 33.0241], [133.097, 33.0287], [133.0932, 33.0341], [133.099, 33.0577], [133.1034, 33.061], [133.1087, 33.0619], [133.1084, 33.0672], [133.1114, 33.0696], [133.1082, 33.0682], [133.105, 33.071], [133.1072, 33.0752], [133.111, 33.0756], [133.1067, 33.0763], [133.1099, 33.078], [133.1127, 33.074], [133.1138, 33.0745], [133.1127, 33.0762], [133.1142, 33.0769], [133.1152, 33.0743], [133.1143, 33.0776], [133.1131, 33.0784], [133.1129, 33.0797], [133.1162, 33.0795], [133.1157, 33.083], [133.1185, 33.0859], [133.1276, 33.0911], [133.1297, 33.0899], [133.135, 33.0919], [133.1397, 33.0971], [133.1435, 33.0981], [133.1442, 33.1035], [133.1478, 33.1051], [133.1478, 33.1114], [133.1539, 33.1181], [133.1546, 33.1251], [133.159, 33.1253], [133.1592, 33.1298], [133.1658, 33.1373], [133.168, 33.1473], [133.1733, 33.1531], [133.1819, 33.1593], [133.185, 33.1639], [133.1871, 33.1644], [133.1889, 33.1621], [133.1907, 33.167], [133.1962, 33.1677], [133.2082, 33.1643], [133.2079, 33.1608], [133.2065, 33.1617], [133.2054, 33.1593], [133.211, 33.1531], [133.2078, 33.1493], [133.2121, 33.1486], [133.2156, 33.1522], [133.2233, 33.1535], [133.2232, 33.1551], [133.2205, 33.1552], [133.2209, 33.1598], [133.2199, 33.1589], [133.2178, 33.1617], [133.2197, 33.1617], [133.22, 33.1691], [133.2245, 33.1704], [133.2189, 33.176], [133.2158, 33.1758], [133.2153, 33.1798], [133.2112, 33.1803], [133.2106, 33.1841], [133.2178, 33.1935], [133.2264, 33.1943], [133.2336, 33.1982], [133.2415, 33.1968], [133.2399, 33.2002], [133.2345, 33.2034], [133.2402, 33.2132], [133.2383, 33.2154], [133.2568, 33.2264], [133.252, 33.2315], [133.2505, 33.2298], [133.2505, 33.2348], [133.2562, 33.238], [133.2531, 33.2409], [133.2476, 33.2421], [133.2477, 33.2496], [133.2496, 33.2509], [133.2552, 33.2497], [133.2571, 33.2542], [133.2643, 33.2574], [133.2586, 33.261], [133.2585, 33.2651], [133.2554, 33.2673], [133.2567, 33.2738], [133.2605, 33.2767], [133.2593, 33.28], [133.2482, 33.2795], [133.2519, 33.2793], [133.252, 33.2768], [133.2499, 33.2786], [133.2486, 33.2748], [133.2438, 33.2741], [133.2424, 33.2755], [133.2415, 33.2796], [133.2431, 33.2794], [133.244, 33.2836], [133.2428, 33.2896], [133.2458, 33.2924], [133.2392, 33.2945], [133.2386, 33.2966], [133.2444, 33.3012], [133.2515, 33.2998], [133.2488, 33.3025], [133.2492, 33.3063], [133.2608, 33.3103], [133.2568, 33.3134], [133.2463, 33.3155], [133.2447, 33.3185], [133.2393, 33.3202], [133.2372, 33.3245], [133.2345, 33.3245], [133.237, 33.3243], [133.2359, 33.3222], [133.2359, 33.3238], [133.233, 33.3227], [133.2313, 33.3249], [133.2333, 33.3298], [133.2342, 33.3265], [133.2346, 33.3293], [133.2383, 33.3293], [133.2385, 33.3327], [133.2434, 33.3346], [133.2435, 33.3325], [133.2486, 33.3307], [133.2493, 33.3276], [133.2497, 33.3338], [133.2558, 33.3326], [133.2584, 33.3406], [133.2638, 33.3405], [133.2649, 33.3431], [133.2602, 33.3476], [133.2648, 33.3502], [133.2619, 33.3533], [133.2646, 33.3592], [133.2636, 33.3613], [133.2602, 33.3613], [133.2592, 33.3664], [133.2644, 33.3699], [133.268, 33.3675], [133.2678, 33.3716], [133.2726, 33.3701], [133.2728, 33.3743], [133.2814, 33.3774], [133.3001, 33.3739], [133.3007, 33.3754], [133.3038, 33.3753], [133.3028, 33.3791], [133.3073, 33.3804], [133.3107, 33.3782], [133.3096, 33.3759], [133.314, 33.3759], [133.3125, 33.3763], [133.3158, 33.3785], [133.3146, 33.3809], [133.3203, 33.3833], [133.3215, 33.381], [133.3199, 33.3808], [133.3246, 33.3791], [133.3245, 33.3767], [133.3208, 33.3761], [133.3239, 33.3697], [133.3216, 33.3687], [133.3186, 33.3706], [133.3239, 33.3652], [133.3196, 33.3628], [133.3153, 33.3668], [133.3119, 33.3671], [133.3126, 33.3631], [133.3158, 33.3623], [133.3172, 33.3583], [133.3042, 33.3575], [133.3077, 33.3558], [133.3128, 33.3573], [133.3191, 33.3549], [133.3194, 33.3594], [133.322, 33.362], [133.3273, 33.3643], [133.3314, 33.3623], [133.3267, 33.3683], [133.3282, 33.3716], [133.3324, 33.3716], [133.3333, 33.3762], [133.3309, 33.3782], [133.3293, 33.3869], [133.3324, 33.3907], [133.3425, 33.3924], [133.3402, 33.3959], [133.3458, 33.4009], [133.3522, 33.3997], [133.3594, 33.4027], [133.3657, 33.4007], [133.3715, 33.4022], [133.3755, 33.3929], [133.3784, 33.3927], [133.3758, 33.4001], [133.3799, 33.4038], [133.3835, 33.4027], [133.3904, 33.4061], [133.395, 33.4013], [133.3973, 33.4042], [133.4011, 33.4048], [133.406, 33.3975], [133.4094, 33.3984], [133.4071, 33.4035], [133.4122, 33.4062], [133.4121, 33.4111], [133.4178, 33.4107], [133.42, 33.4071], [133.4204, 33.4128], [133.4252, 33.413], [133.4286, 33.4076], [133.429, 33.4154], [133.436, 33.4156], [133.44, 33.4124], [133.4428, 33.4195], [133.4458, 33.4213], [133.4574, 33.42], [133.4579, 33.4274], [133.463, 33.4305], [133.4575, 33.4336], [133.4542, 33.4314], [133.4514, 33.434], [133.4488, 33.4337], [133.4452, 33.4389], [133.4376, 33.4396], [133.4384, 33.4451], [133.4422, 33.4501], [133.4495, 33.4497], [133.4472, 33.4517], [133.452, 33.4517], [133.4511, 33.4487], [133.4559, 33.4487], [133.4544, 33.4481], [133.4567, 33.4469], [133.4569, 33.4433], [133.457, 33.446], [133.4623, 33.4513], [133.4824, 33.4619], [133.4816, 33.4606], [133.5071, 33.4685], [133.51, 33.4737], [133.5353, 33.4839], [133.5749, 33.4955], [133.5775, 33.5009], [133.5832, 33.5011], [133.578, 33.5012], [133.5683, 33.499], [133.5678, 33.5016], [133.5707, 33.502], [133.5726, 33.5054], [133.5746, 33.5046], [133.581, 33.5128], [133.5841, 33.513], [133.5859, 33.5085], [133.5877, 33.5084], [133.5941, 33.5141], [133.5931, 33.5172], [133.6013, 33.5194]]], [[[133.302, 33.3641], [133.2976, 33.3617], [133.2977, 33.3583], [133.3037, 33.3584], [133.3018, 33.3607], [133.3052, 33.3624], [133.302, 33.3641]]], [[[133.3203, 33.3526], [133.323, 33.3469], [133.3246, 33.3499], [133.3203, 33.3526]]], [[[132.6637, 32.921], [132.6621, 32.9203], [132.6629, 32.9176], [132.6665, 32.9172], [132.6637, 32.921]]], [[[132.6574, 32.9188], [132.653, 32.9147], [132.6561, 32.9136], [132.6592, 32.9149], [132.6606, 32.9167], [132.6574, 32.9188]]], [[[132.4851, 32.8055], [132.4858, 32.8033], [132.4799, 32.7998], [132.4818, 32.7963], [132.4912, 32.798], [132.4959, 32.7968], [132.4972, 32.7988], [132.4942, 32.799], [132.4942, 32.8013], [132.5003, 32.8044], [132.487, 32.8077], [132.4851, 32.8055]]], [[[132.491, 32.7429], [132.4895, 32.7436], [132.4834, 32.7342], [132.4889, 32.7368], [132.4907, 32.7357], [132.4944, 32.739], [132.491, 32.7429]]], [[[132.535, 32.73], [132.5359, 32.7274], [132.5417, 32.7251], [132.5504, 32.7165], [132.5496, 32.7121], [132.5451, 32.7115], [132.5403, 32.7068], [132.5414, 32.7026], [132.5481, 32.7042], [132.5498, 32.7072], [132.5721, 32.7132], [132.5737, 32.717], [132.5668, 32.7276], [132.5699, 32.7338], [132.5731, 32.7352], [132.5694, 32.7374], [132.5684, 32.7411], [132.5579, 32.7428], [132.5583, 32.7484], [132.5525, 32.7472], [132.5501, 32.7526], [132.5458, 32.7553], [132.5435, 32.7508], [132.5471, 32.7462], [132.5441, 32.7424], [132.5453, 32.7395], [132.5481, 32.7388], [132.5433, 32.737], [132.542, 32.7311], [132.5351, 32.7316], [132.535, 32.73]]], [[[134.2999, 33.5386], [134.2991, 33.5403], [134.2962, 33.5392], [134.2975, 33.5375], [134.2999, 33.5386]]], [[[134.3122, 33.5387], [134.3084, 33.5391], [134.3139, 33.538], [134.3122, 33.5387]]], [[[132.6018, 32.7484], [132.5982, 32.7466], [132.5989, 32.7447], [132.6041, 32.745], [132.6018, 32.7484]]], [[[132.6292, 32.7725], [132.6209, 32.7717], [132.6175, 32.7656], [132.6298, 32.7671], [132.6263, 32.7695], [132.6292, 32.7725]]]]}, "properties": {"name": "高知県"}}]}