{"type": "FeatureCollection", "features": [{"type": "Feature", "geometry": {"type": "MultiPolygon", "coordinates": [[[[136.5571, 36.5678], [136.5465, 36.5576], [136.5468, 36.5561], [136.5417, 36.5527], [136.5436, 36.5528], [136.54, 36.5514], [136.5392, 36.5485], [136.5297, 36.5403], [136.5262, 36.5339], [136.521, 36.5305], [136.5136, 36.521], [136.4925, 36.5008], [136.4871, 36.4978], [136.48, 36.4901], [136.4787, 36.4906], [136.4801, 36.4889], [136.4736, 36.4833], [136.4484, 36.4524], [136.4483, 36.4535], [136.4282, 36.4313], [136.4177, 36.4233], [136.4158, 36.4193], [136.4037, 36.4087], [136.3651, 36.3779], [136.3464, 36.367], [136.3454, 36.3647], [136.3261, 36.3561], [136.3227, 36.3568], [136.3209, 36.3542], [136.3184, 36.3539], [136.3182, 36.3549], [136.3154, 36.3548], [136.3181, 36.3548], [136.3183, 36.3534], [136.3065, 36.3532], [136.304, 36.3511], [136.2993, 36.3524], [136.297, 36.3485], [136.2917, 36.3455], [136.2892, 36.3379], [136.2794, 36.3295], [136.2776, 36.3261], [136.2797, 36.323], [136.2615, 36.3067], [136.246, 36.2969], [136.2428, 36.2966], [136.2498, 36.2911], [136.2586, 36.2882], [136.2567, 36.2866], [136.2558, 36.2797], [136.2643, 36.2781], [136.2619, 36.2762], [136.2643, 36.275], [136.261, 36.2731], [136.264, 36.271], [136.263, 36.2688], [136.2684, 36.2697], [136.2658, 36.2654], [136.268, 36.2647], [136.2687, 36.2663], [136.2721, 36.2666], [136.2798, 36.2644], [136.2829, 36.2658], [136.2856, 36.2616], [136.2935, 36.2609], [136.3014, 36.258], [136.3043, 36.2513], [136.3085, 36.2469], [136.3151, 36.246], [136.3172, 36.243], [136.3153, 36.238], [136.3169, 36.2347], [136.3227, 36.2318], [136.3265, 36.2323], [136.3282, 36.2304], [136.3321, 36.2299], [136.3289, 36.2245], [136.3286, 36.2214], [136.3314, 36.2173], [136.3277, 36.2089], [136.3322, 36.1964], [136.3361, 36.1947], [136.3356, 36.1849], [136.3422, 36.1747], [136.3546, 36.1692], [136.3578, 36.1654], [136.3658, 36.166], [136.3687, 36.1699], [136.3868, 36.1673], [136.3975, 36.1707], [136.4051, 36.1702], [136.4093, 36.1721], [136.4132, 36.1669], [136.4113, 36.1603], [136.4142, 36.1566], [136.4243, 36.1546], [136.4278, 36.1473], [136.4317, 36.1435], [136.4384, 36.1421], [136.4403, 36.1373], [136.4487, 36.1406], [136.4566, 36.1363], [136.4642, 36.1375], [136.4662, 36.1418], [136.4714, 36.1463], [136.4741, 36.1466], [136.4837, 36.1573], [136.4925, 36.161], [136.4923, 36.1572], [136.4963, 36.1502], [136.5034, 36.1497], [136.5058, 36.1465], [136.5114, 36.1463], [136.5216, 36.1514], [136.5319, 36.1473], [136.5401, 36.1532], [136.546, 36.1528], [136.5523, 36.1544], [136.5601, 36.153], [136.5632, 36.1446], [136.5754, 36.1429], [136.5875, 36.1324], [136.5986, 36.1309], [136.6027, 36.1285], [136.6042, 36.1222], [136.6121, 36.1169], [136.6174, 36.1067], [136.6223, 36.1063], [136.6322, 36.0993], [136.6423, 36.0982], [136.651, 36.0926], [136.6532, 36.0864], [136.6568, 36.0844], [136.6547, 36.0777], [136.6575, 36.0746], [136.6587, 36.0692], [136.6635, 36.0675], [136.6708, 36.0693], [136.6742, 36.0672], [136.6808, 36.0713], [136.6896, 36.0732], [136.6923, 36.0717], [136.6956, 36.0743], [136.6994, 36.074], [136.7067, 36.0793], [136.7149, 36.0819], [136.7248, 36.0822], [136.7375, 36.0802], [136.7462, 36.0853], [136.7552, 36.0857], [136.7563, 36.0983], [136.766, 36.1055], [136.7704, 36.1149], [136.7707, 36.1233], [136.7782, 36.1294], [136.7772, 36.1316], [136.7801, 36.1338], [136.7799, 36.1398], [136.782, 36.1446], [136.7804, 36.1471], [136.7726, 36.1506], [136.7724, 36.1577], [136.768, 36.1591], [136.7663, 36.1617], [136.7677, 36.165], [136.7698, 36.1638], [136.7773, 36.1665], [136.7861, 36.166], [136.7985, 36.1726], [136.8023, 36.1877], [136.8056, 36.1892], [136.8154, 36.1997], [136.8186, 36.2012], [136.8217, 36.2001], [136.8227, 36.2028], [136.8194, 36.2064], [136.8209, 36.2105], [136.8317, 36.2175], [136.8323, 36.2237], [136.84, 36.2307], [136.8392, 36.2327], [136.844, 36.2372], [136.848, 36.246], [136.8521, 36.2469], [136.8511, 36.2515], [136.8446, 36.2545], [136.8447, 36.2587], [136.8364, 36.2616], [136.8336, 36.2658], [136.8147, 36.2664], [136.8144, 36.2703], [136.8061, 36.2759], [136.8056, 36.2843], [136.8007, 36.2903], [136.7953, 36.2923], [136.791, 36.3009], [136.7884, 36.3123], [136.7906, 36.3159], [136.7903, 36.3226], [136.7836, 36.3297], [136.7869, 36.3336], [136.7846, 36.3439], [136.7875, 36.3487], [136.7933, 36.3487], [136.7967, 36.3522], [136.8058, 36.3554], [136.808, 36.3587], [136.8065, 36.3633], [136.8001, 36.3705], [136.8005, 36.3808], [136.7966, 36.3844], [136.7978, 36.387], [136.7951, 36.4013], [136.7789, 36.4144], [136.7699, 36.4149], [136.7713, 36.4223], [136.7683, 36.4235], [136.7696, 36.4308], [136.774, 36.4328], [136.7783, 36.4309], [136.7868, 36.4395], [136.7966, 36.4444], [136.7899, 36.4477], [136.7882, 36.4528], [136.7983, 36.4616], [136.7949, 36.4639], [136.7983, 36.4684], [136.7956, 36.4749], [136.7998, 36.4829], [136.8028, 36.4852], [136.8025, 36.4903], [136.799, 36.4903], [136.7939, 36.497], [136.796, 36.4978], [136.7969, 36.5017], [136.795, 36.5106], [136.7992, 36.5156], [136.7998, 36.521], [136.8039, 36.5225], [136.8127, 36.5379], [136.8172, 36.5524], [136.8118, 36.5606], [136.8076, 36.5623], [136.8024, 36.5688], [136.7991, 36.5699], [136.7927, 36.5683], [136.7911, 36.5695], [136.7953, 36.5851], [136.7941, 36.59], [136.7884, 36.5927], [136.7885, 36.6023], [136.7909, 36.6038], [136.7862, 36.6087], [136.7858, 36.6134], [136.7831, 36.6168], [136.785, 36.6286], [136.7947, 36.6313], [136.7999, 36.6364], [136.8008, 36.6468], [136.8073, 36.6476], [136.8095, 36.6514], [136.8074, 36.6536], [136.8106, 36.6582], [136.8163, 36.6617], [136.8187, 36.6678], [136.8237, 36.6696], [136.8231, 36.6738], [136.8206, 36.6754], [136.8228, 36.6811], [136.8176, 36.6856], [136.8118, 36.6846], [136.81, 36.6866], [136.8124, 36.6919], [136.8115, 36.6946], [136.8157, 36.7005], [136.8129, 36.7033], [136.807, 36.7049], [136.8036, 36.7086], [136.7988, 36.71], [136.7892, 36.719], [136.7933, 36.7213], [136.7938, 36.7267], [136.7961, 36.7298], [136.8072, 36.7283], [136.8081, 36.7301], [136.8159, 36.7296], [136.82, 36.731], [136.8219, 36.7403], [136.8251, 36.7422], [136.8279, 36.7411], [136.8328, 36.7421], [136.8391, 36.7451], [136.845, 36.7557], [136.8492, 36.7593], [136.8527, 36.7702], [136.8432, 36.7824], [136.8509, 36.7868], [136.854, 36.7945], [136.8503, 36.8014], [136.8486, 36.8131], [136.8548, 36.8182], [136.8543, 36.8216], [136.86, 36.829], [136.8563, 36.8363], [136.8564, 36.8399], [136.8631, 36.842], [136.8618, 36.8476], [136.8671, 36.8512], [136.862, 36.855], [136.8637, 36.8571], [136.8622, 36.8604], [136.8713, 36.8623], [136.8733, 36.8677], [136.8773, 36.8686], [136.8831, 36.8766], [136.8822, 36.8823], [136.8857, 36.8852], [136.8807, 36.889], [136.8787, 36.893], [136.8791, 36.9064], [136.8829, 36.9089], [136.8877, 36.9169], [136.8928, 36.9188], [136.8957, 36.9248], [136.9061, 36.9265], [136.9087, 36.9293], [136.9157, 36.9308], [136.9164, 36.9336], [136.9194, 36.9347], [136.9193, 36.9374], [136.9231, 36.938], [136.9233, 36.9409], [136.9275, 36.9442], [136.9272, 36.9476], [136.9316, 36.9503], [136.9359, 36.9498], [136.9449, 36.9546], [136.9539, 36.9559], [136.955, 36.9506], [136.9593, 36.9511], [136.964, 36.9485], [136.9666, 36.9492], [136.9708, 36.9477], [136.9737, 36.9445], [136.9834, 36.9553], [136.984, 36.9634], [136.9859, 36.9652], [136.9845, 36.9679], [136.9962, 36.9671], [136.9995, 36.9635], [137.0068, 36.9611], [137.0109, 36.9631], [137.0212, 36.9639], [137.0273, 36.9625], [137.0377, 36.9672], [137.0517, 36.9593], [137.0519, 36.9624], [137.0547, 36.9637], [137.0566, 36.9677], [137.0499, 36.977], [137.0519, 36.9772], [137.0501, 36.9771], [137.0508, 36.9786], [137.0526, 36.9775], [137.0519, 36.9783], [137.0502, 36.9789], [137.0487, 36.9869], [137.0526, 36.9904], [137.0538, 36.9948], [137.0472, 37.003], [137.0461, 37.0119], [137.0476, 37.0114], [137.0465, 37.0123], [137.0483, 37.0143], [137.049, 37.0125], [137.0519, 37.0217], [137.0456, 37.0377], [137.0474, 37.0383], [137.0467, 37.0434], [137.0501, 37.0539], [137.0488, 37.0594], [137.0523, 37.0633], [137.0545, 37.0759], [137.0501, 37.0824], [137.053, 37.0949], [137.0492, 37.0975], [137.0493, 37.1011], [137.05, 37.1026], [137.0528, 37.1024], [137.0522, 37.1038], [137.0551, 37.103], [137.0548, 37.1019], [137.0585, 37.1071], [137.05, 37.1233], [137.0479, 37.1244], [137.0479, 37.1263], [137.0495, 37.1256], [137.0476, 37.1266], [137.0497, 37.1258], [137.051, 37.1278], [137.0503, 37.1302], [137.0445, 37.1309], [137.0407, 37.138], [137.0447, 37.144], [137.043, 37.1456], [137.0507, 37.1492], [137.053, 37.1491], [137.0525, 37.1479], [137.0548, 37.1488], [137.0516, 37.1532], [137.0508, 37.1524], [137.0491, 37.1539], [137.0507, 37.1565], [137.0505, 37.1543], [137.0525, 37.1535], [137.0507, 37.1574], [137.0445, 37.1601], [137.0464, 37.1634], [137.0436, 37.1638], [137.0406, 37.1681], [137.0341, 37.168], [137.0355, 37.1669], [137.0342, 37.1676], [137.0324, 37.164], [137.0256, 37.159], [137.0252, 37.1525], [137.0226, 37.1497], [137.0242, 37.1451], [137.0219, 37.1424], [137.0163, 37.1444], [137.0141, 37.1436], [137.0143, 37.1413], [137.012, 37.1409], [137.0086, 37.1431], [137.007, 37.1361], [137.0007, 37.1349], [137.0006, 37.138], [137.0027, 37.1378], [136.9966, 37.1397], [136.994, 37.139], [136.9892, 37.1421], [136.9893, 37.1433], [136.9908, 37.1424], [136.9865, 37.151], [136.9795, 37.1506], [136.9819, 37.1497], [136.979, 37.1468], [136.9731, 37.1531], [136.9674, 37.1555], [136.9686, 37.1517], [136.9668, 37.1485], [136.9759, 37.1434], [136.9774, 37.1401], [136.9635, 37.147], [136.9637, 37.144], [136.9616, 37.1425], [136.952, 37.1444], [136.9525, 37.1425], [136.9491, 37.1387], [136.9444, 37.1406], [136.9438, 37.1461], [136.9408, 37.1463], [136.9384, 37.1438], [136.9391, 37.14], [136.9349, 37.1371], [136.9326, 37.1404], [136.9309, 37.1374], [136.9318, 37.1336], [136.928, 37.1318], [136.9261, 37.1339], [136.9256, 37.1303], [136.9234, 37.1303], [136.922, 37.1325], [136.923, 37.1417], [136.9267, 37.1436], [136.9243, 37.1471], [136.9225, 37.1461], [136.9174, 37.1483], [136.9165, 37.153], [136.9115, 37.1549], [136.9113, 37.152], [136.9077, 37.1514], [136.9085, 37.1486], [136.9058, 37.1518], [136.9071, 37.1539], [136.9046, 37.1514], [136.9016, 37.1522], [136.9027, 37.1458], [136.9057, 37.1468], [136.9064, 37.1456], [136.9017, 37.1413], [136.9067, 37.1385], [136.9064, 37.1335], [136.9096, 37.1321], [136.915, 37.1337], [136.9181, 37.1315], [136.9187, 37.1264], [136.9207, 37.1246], [136.9313, 37.1227], [136.9372, 37.1155], [136.9397, 37.1163], [136.94, 37.1115], [136.9439, 37.1061], [136.9424, 37.1043], [136.9448, 37.1035], [136.9466, 37.099], [136.9466, 37.0941], [136.9446, 37.0928], [136.9625, 37.0673], [136.9588, 37.0668], [136.9549, 37.0689], [136.9517, 37.0674], [136.94, 37.0681], [136.9362, 37.072], [136.9353, 37.0789], [136.9378, 37.0794], [136.9383, 37.0776], [136.9383, 37.0797], [136.9437, 37.0838], [136.9416, 37.0834], [136.934, 37.0872], [136.9281, 37.0856], [136.9255, 37.0881], [136.9178, 37.0896], [136.9158, 37.0915], [136.9154, 37.0903], [136.9113, 37.0907], [136.9065, 37.0889], [136.9035, 37.0834], [136.9061, 37.0792], [136.9059, 37.0771], [136.9037, 37.0778], [136.9038, 37.0725], [136.9037, 37.0749], [136.897, 37.0716], [136.89, 37.0738], [136.895, 37.0676], [136.8897, 37.0734], [136.8881, 37.0683], [136.8745, 37.07], [136.8667, 37.0744], [136.8645, 37.0744], [136.8629, 37.0711], [136.8657, 37.0694], [136.8611, 37.0719], [136.859, 37.0715], [136.8583, 37.0741], [136.8608, 37.0754], [136.8588, 37.0772], [136.8596, 37.0809], [136.865, 37.0852], [136.8713, 37.0861], [136.872, 37.0876], [136.8718, 37.0892], [136.8684, 37.0904], [136.8653, 37.0977], [136.8674, 37.0995], [136.8675, 37.1113], [136.8737, 37.114], [136.8803, 37.1097], [136.882, 37.1106], [136.8822, 37.1144], [136.8839, 37.115], [136.8828, 37.1137], [136.8844, 37.114], [136.888, 37.1112], [136.8929, 37.1107], [136.8929, 37.1184], [136.8948, 37.1201], [136.8959, 37.1283], [136.9006, 37.1358], [136.9001, 37.1372], [136.8963, 37.1369], [136.8932, 37.1389], [136.8908, 37.1442], [136.8862, 37.1443], [136.8837, 37.1428], [136.8863, 37.1397], [136.881, 37.1399], [136.881, 37.1356], [136.8796, 37.1353], [136.8738, 37.1414], [136.8754, 37.1406], [136.8761, 37.1444], [136.8738, 37.1439], [136.8724, 37.1453], [136.8798, 37.1481], [136.8782, 37.1505], [136.8845, 37.1646], [136.8898, 37.1658], [136.8895, 37.1701], [136.8924, 37.1713], [136.8967, 37.1782], [136.9026, 37.1824], [136.9029, 37.1836], [136.9005, 37.1841], [136.9047, 37.1853], [136.9056, 37.1908], [136.9128, 37.1942], [136.9064, 37.2032], [136.911, 37.2033], [136.9153, 37.2001], [136.9165, 37.2034], [136.9245, 37.2058], [136.9257, 37.1986], [136.9286, 37.2025], [136.9302, 37.2063], [136.9233, 37.2098], [136.9219, 37.2119], [136.9233, 37.2144], [136.9204, 37.2151], [136.9155, 37.2128], [136.9164, 37.2181], [136.9113, 37.2193], [136.9063, 37.218], [136.9146, 37.2248], [136.9159, 37.2278], [136.917, 37.2227], [136.9195, 37.2205], [136.9251, 37.2194], [136.9271, 37.2219], [136.9323, 37.2205], [136.9341, 37.2234], [136.9233, 37.2295], [136.9243, 37.2338], [136.9261, 37.2335], [136.9276, 37.2297], [136.9311, 37.2307], [136.9315, 37.2331], [136.9321, 37.2314], [136.9339, 37.2328], [136.9329, 37.2296], [136.9353, 37.2289], [136.9374, 37.2302], [136.9379, 37.2256], [136.9415, 37.229], [136.9425, 37.2241], [136.9494, 37.2303], [136.9458, 37.2313], [136.9479, 37.2335], [136.9516, 37.2332], [136.9543, 37.2353], [136.9617, 37.2367], [136.9639, 37.2339], [136.9675, 37.2341], [136.9684, 37.2333], [136.9666, 37.2339], [136.9558, 37.2282], [136.9455, 37.2175], [136.9459, 37.2159], [136.9508, 37.2199], [136.9541, 37.2198], [136.9528, 37.2159], [136.9551, 37.2155], [136.9555, 37.2168], [136.9589, 37.2131], [136.9572, 37.2085], [136.96, 37.2083], [136.9655, 37.2035], [136.9669, 37.2043], [136.9665, 37.2097], [136.9678, 37.2059], [136.9703, 37.2065], [136.969, 37.2037], [136.9709, 37.201], [136.9756, 37.2023], [136.9813, 37.2008], [136.9827, 37.2056], [136.984, 37.2025], [136.9867, 37.2016], [136.9866, 37.1989], [136.991, 37.1999], [136.9974, 37.1946], [136.9994, 37.1898], [137.0031, 37.1891], [137.0058, 37.1838], [137.009, 37.1845], [137.0107, 37.1833], [137.0166, 37.1878], [137.0173, 37.1916], [137.0185, 37.1889], [137.0262, 37.1877], [137.0282, 37.1908], [137.0276, 37.1941], [137.0335, 37.1955], [137.0338, 37.1978], [137.0287, 37.1996], [137.0296, 37.2019], [137.0323, 37.2025], [137.0242, 37.2048], [137.0402, 37.2061], [137.0419, 37.2076], [137.0431, 37.2067], [137.0447, 37.2093], [137.0517, 37.2111], [137.0575, 37.2081], [137.0599, 37.2133], [137.0666, 37.2145], [137.0657, 37.2164], [137.0693, 37.2183], [137.0677, 37.2196], [137.0697, 37.2191], [137.0668, 37.2235], [137.0671, 37.2307], [137.0737, 37.238], [137.0724, 37.2389], [137.0753, 37.2451], [137.0861, 37.2493], [137.0874, 37.2526], [137.0862, 37.2547], [137.088, 37.2525], [137.0896, 37.2539], [137.088, 37.2526], [137.0876, 37.2542], [137.0943, 37.2565], [137.0914, 37.2579], [137.092, 37.2616], [137.0903, 37.2622], [137.0942, 37.2638], [137.0953, 37.2714], [137.0984, 37.274], [137.0969, 37.2753], [137.0981, 37.2783], [137.107, 37.2803], [137.1166, 37.2886], [137.1293, 37.2921], [137.1306, 37.2911], [137.144, 37.2992], [137.1447, 37.2962], [137.1545, 37.2951], [137.1501, 37.2963], [137.1507, 37.2985], [137.1536, 37.2981], [137.1546, 37.3004], [137.1501, 37.3056], [137.151, 37.3069], [137.1532, 37.3067], [137.1546, 37.3031], [137.1583, 37.3023], [137.1563, 37.2975], [137.1578, 37.2998], [137.165, 37.2989], [137.1617, 37.3005], [137.1637, 37.305], [137.1691, 37.3027], [137.1699, 37.2998], [137.1783, 37.3011], [137.1792, 37.2986], [137.184, 37.2988], [137.1868, 37.301], [137.1898, 37.2994], [137.1902, 37.3011], [137.1951, 37.2971], [137.2032, 37.3009], [137.2032, 37.3022], [137.2064, 37.3], [137.2078, 37.302], [137.2093, 37.2997], [137.2043, 37.2954], [137.2085, 37.2957], [137.209, 37.2952], [137.2113, 37.2937], [137.2139, 37.2934], [137.209, 37.2952], [137.21, 37.2962], [137.2135, 37.2946], [137.2155, 37.2957], [137.2148, 37.2979], [137.2171, 37.2959], [137.2217, 37.2971], [137.2229, 37.2955], [137.2214, 37.2936], [137.2257, 37.2944], [137.2288, 37.2973], [137.2342, 37.2968], [137.2351, 37.2986], [137.2291, 37.2994], [137.2283, 37.3009], [137.2334, 37.2994], [137.2366, 37.3016], [137.2343, 37.304], [137.2291, 37.3036], [137.2278, 37.3056], [137.2352, 37.3057], [137.2315, 37.3069], [137.2304, 37.3122], [137.2325, 37.3094], [137.2329, 37.3111], [137.2352, 37.3108], [137.2344, 37.3091], [137.2397, 37.3067], [137.2389, 37.3028], [137.2482, 37.3083], [137.2508, 37.3173], [137.259, 37.3216], [137.2605, 37.3251], [137.2643, 37.3254], [137.2649, 37.327], [137.2615, 37.3301], [137.2677, 37.3368], [137.2649, 37.3411], [137.259, 37.338], [137.25, 37.3396], [137.2526, 37.3404], [137.2546, 37.3438], [137.2616, 37.3451], [137.2623, 37.3501], [137.2674, 37.3554], [137.2662, 37.358], [137.2542, 37.3527], [137.2482, 37.3543], [137.2453, 37.3584], [137.2469, 37.3592], [137.2477, 37.3574], [137.2493, 37.3579], [137.2469, 37.3593], [137.2451, 37.3587], [137.2425, 37.3642], [137.2455, 37.3682], [137.2393, 37.3717], [137.2377, 37.3786], [137.2376, 37.3899], [137.2422, 37.3958], [137.2465, 37.3966], [137.244, 37.3997], [137.2437, 37.4034], [137.2456, 37.4036], [137.2461, 37.4019], [137.2456, 37.4037], [137.2438, 37.4042], [137.2442, 37.4094], [137.2531, 37.4282], [137.2593, 37.4329], [137.2605, 37.4315], [137.2644, 37.4342], [137.2653, 37.4331], [137.2642, 37.4347], [137.266, 37.4344], [137.2652, 37.4351], [137.2662, 37.4356], [137.2665, 37.4331], [137.2668, 37.4347], [137.266, 37.436], [137.274, 37.4398], [137.2969, 37.4429], [137.3017, 37.4422], [137.3012, 37.4411], [137.3058, 37.4384], [137.3062, 37.4403], [137.3088, 37.4395], [137.3083, 37.4384], [137.311, 37.4379], [137.3098, 37.4367], [137.3127, 37.4382], [137.3325, 37.4393], [137.352, 37.4443], [137.3606, 37.4507], [137.3593, 37.4578], [137.3571, 37.46], [137.3557, 37.4595], [137.3572, 37.4605], [137.3567, 37.4664], [137.3535, 37.4675], [137.3389, 37.4828], [137.3407, 37.4824], [137.3398, 37.487], [137.3439, 37.4944], [137.3496, 37.497], [137.3497, 37.502], [137.3512, 37.5005], [137.3517, 37.5015], [137.3472, 37.5067], [137.3483, 37.508], [137.3459, 37.5078], [137.3488, 37.5104], [137.3433, 37.5107], [137.3463, 37.5158], [137.3388, 37.5162], [137.3363, 37.5181], [137.3336, 37.5169], [137.3282, 37.5203], [137.3264, 37.5227], [137.3286, 37.5234], [137.3259, 37.5249], [137.3276, 37.5248], [137.3262, 37.5249], [137.3274, 37.5268], [137.3285, 37.5262], [137.3284, 37.5252], [137.3293, 37.5239], [137.3308, 37.523], [137.3285, 37.5252], [137.3286, 37.5262], [137.3271, 37.5271], [137.3282, 37.5298], [137.3262, 37.5306], [137.3231, 37.5287], [137.3105, 37.5264], [137.308, 37.5286], [137.2951, 37.526], [137.2933, 37.5289], [137.2866, 37.5297], [137.2882, 37.5311], [137.2864, 37.5297], [137.2876, 37.5289], [137.2867, 37.528], [137.2825, 37.5266], [137.2771, 37.53], [137.2764, 37.5316], [137.2781, 37.5326], [137.2759, 37.5335], [137.2662, 37.5281], [137.2638, 37.5313], [137.2615, 37.5295], [137.2609, 37.5305], [137.2565, 37.5291], [137.2566, 37.5277], [137.2501, 37.5247], [137.2467, 37.526], [137.2455, 37.5242], [137.2472, 37.5221], [137.2443, 37.5193], [137.2422, 37.5192], [137.242, 37.5212], [137.2392, 37.522], [137.242, 37.5198], [137.237, 37.5204], [137.2389, 37.5235], [137.2374, 37.5214], [137.2341, 37.5209], [137.2364, 37.5194], [137.2334, 37.5165], [137.2297, 37.5158], [137.2266, 37.5182], [137.2227, 37.5144], [137.2194, 37.515], [137.2206, 37.5164], [137.2175, 37.5144], [137.2194, 37.5127], [137.2185, 37.51], [137.212, 37.5062], [137.2033, 37.506], [137.2008, 37.5078], [137.2009, 37.5101], [137.1972, 37.5047], [137.1823, 37.4993], [137.1746, 37.5007], [137.1745, 37.5021], [137.1711, 37.503], [137.1451, 37.4994], [137.1429, 37.4968], [137.1382, 37.4969], [137.132, 37.4936], [137.1209, 37.4915], [137.1174, 37.4866], [137.1108, 37.4868], [137.1068, 37.4839], [137.1059, 37.48], [137.099, 37.4781], [137.094, 37.4791], [137.0951, 37.477], [137.0909, 37.4763], [137.093, 37.4741], [137.0924, 37.4721], [137.0892, 37.4713], [137.0867, 37.4669], [137.0818, 37.4644], [137.0805, 37.4616], [137.0739, 37.4588], [137.0725, 37.4551], [137.0577, 37.4496], [137.0514, 37.4487], [137.046, 37.4504], [137.0469, 37.4464], [137.0447, 37.4433], [137.0292, 37.4326], [137.0177, 37.433], [137.0021, 37.4269], [136.9995, 37.4271], [136.9969, 37.4247], [136.9814, 37.4193], [136.9741, 37.413], [136.9699, 37.4117], [136.9667, 37.4127], [136.9674, 37.4109], [136.9657, 37.4123], [136.9556, 37.4087], [136.9415, 37.4013], [136.9246, 37.395], [136.9142, 37.3943], [136.9093, 37.3974], [136.9033, 37.3975], [136.9027, 37.3983], [136.9033, 37.3989], [136.9052, 37.3984], [136.9037, 37.3989], [136.9023, 37.399], [136.9019, 37.3986], [136.9019, 37.3992], [136.9016, 37.3988], [136.9011, 37.3991], [136.9039, 37.4016], [136.9021, 37.4018], [136.9009, 37.3996], [136.8989, 37.4019], [136.9025, 37.4028], [136.9001, 37.4028], [136.9009, 37.4043], [136.9049, 37.4023], [136.8986, 37.4072], [136.8957, 37.407], [136.896, 37.4032], [136.8919, 37.4011], [136.8814, 37.4039], [136.8803, 37.4064], [136.8752, 37.4072], [136.8706, 37.4057], [136.8685, 37.407], [136.8677, 37.4051], [136.8591, 37.402], [136.8526, 37.4026], [136.8522, 37.4003], [136.85, 37.4021], [136.8457, 37.401], [136.8455, 37.3995], [136.8432, 37.4007], [136.8415, 37.3975], [136.8386, 37.3972], [136.8352, 37.3932], [136.8328, 37.3937], [136.8333, 37.3918], [136.8289, 37.3888], [136.812, 37.3866], [136.8094, 37.3844], [136.8098, 37.3821], [136.8063, 37.3823], [136.803, 37.3795], [136.8018, 37.3759], [136.799, 37.378], [136.7954, 37.3769], [136.791, 37.3779], [136.7918, 37.3743], [136.7834, 37.3727], [136.7837, 37.3671], [136.7781, 37.3709], [136.7757, 37.3689], [136.7761, 37.367], [136.7738, 37.3675], [136.7733, 37.3662], [136.7718, 37.3676], [136.7658, 37.3652], [136.7565, 37.3649], [136.754, 37.3582], [136.7507, 37.3572], [136.7574, 37.3515], [136.7503, 37.3439], [136.7449, 37.3428], [136.7439, 37.3455], [136.7393, 37.3482], [136.7374, 37.3477], [136.7391, 37.3374], [136.7245, 37.3276], [136.721, 37.3206], [136.7244, 37.3174], [136.7237, 37.3075], [136.7277, 37.3056], [136.7242, 37.3029], [136.7269, 37.3012], [136.725, 37.2996], [136.7246, 37.2931], [136.726, 37.2914], [136.7253, 37.2935], [136.7276, 37.2945], [136.7274, 37.2917], [136.7316, 37.2929], [136.7352, 37.2874], [136.7375, 37.2883], [136.7352, 37.2872], [136.7344, 37.2826], [136.7326, 37.2828], [136.7337, 37.2826], [136.7328, 37.2817], [136.732, 37.2829], [136.7318, 37.2822], [136.7337, 37.2805], [136.7332, 37.2764], [136.7212, 37.2563], [136.7176, 37.2546], [136.7167, 37.2509], [136.7126, 37.2479], [136.7065, 37.2485], [136.702, 37.2422], [136.6996, 37.2421], [136.7014, 37.2398], [136.6986, 37.2375], [136.7058, 37.2304], [136.7034, 37.2254], [136.6991, 37.2222], [136.6958, 37.2234], [136.696, 37.2181], [136.694, 37.2151], [136.6886, 37.215], [136.6892, 37.2117], [136.6853, 37.2111], [136.6797, 37.207], [136.6811, 37.2062], [136.6791, 37.204], [136.6814, 37.2041], [136.6835, 37.2019], [136.6775, 37.1996], [136.6808, 37.1983], [136.6823, 37.195], [136.6808, 37.1916], [136.6758, 37.1893], [136.6748, 37.1842], [136.677, 37.1765], [136.6746, 37.1744], [136.6755, 37.1721], [136.6728, 37.1704], [136.6766, 37.165], [136.6695, 37.1472], [136.6721, 37.1416], [136.6761, 37.1382], [136.6856, 37.1408], [136.6837, 37.1369], [136.685, 37.136], [136.6881, 37.1365], [136.687, 37.1381], [136.6885, 37.1371], [136.6934, 37.1401], [136.695, 37.1404], [136.6951, 37.139], [136.7002, 37.1473], [136.6995, 37.15], [136.7067, 37.15], [136.7176, 37.1452], [136.7278, 37.1349], [136.7267, 37.1287], [136.7292, 37.1263], [136.7267, 37.1248], [136.7254, 37.1157], [136.7271, 37.106], [136.7294, 37.1036], [136.7259, 37.1018], [136.7285, 37.1009], [136.7292, 37.0976], [136.7258, 37.0955], [136.7271, 37.0929], [136.7259, 37.0913], [136.7237, 37.0916], [136.7233, 37.0881], [136.7209, 37.0865], [136.7234, 37.0853], [136.7271, 37.0859], [136.7245, 37.0846], [136.7279, 37.0827], [136.7232, 37.0841], [136.7225, 37.0819], [136.718, 37.0795], [136.7173, 37.0753], [136.7203, 37.0748], [136.7185, 37.072], [136.7213, 37.0685], [136.7223, 37.0627], [136.7221, 37.0607], [136.719, 37.0601], [136.7221, 37.0606], [136.7232, 37.0563], [136.7216, 37.0556], [136.7266, 37.0506], [136.7293, 37.0516], [136.7308, 37.0478], [136.7331, 37.0485], [136.7323, 37.0501], [136.7339, 37.0495], [136.7334, 37.0464], [136.7356, 37.0451], [136.7332, 37.0415], [136.7369, 37.0412], [136.737, 37.0391], [136.7387, 37.0392], [136.7426, 37.0345], [136.7383, 37.0325], [136.7402, 37.0299], [136.7466, 37.0302], [136.7421, 37.0214], [136.7437, 37.0202], [136.7419, 37.0168], [136.7417, 37.0146], [136.7435, 37.0171], [136.743, 37.0124], [136.7529, 37.0096], [136.7533, 37.0064], [136.7562, 37.0069], [136.7546, 37.0041], [136.7566, 37.007], [136.7653, 37.0033], [136.769, 37.0066], [136.7676, 37.0038], [136.7617, 37.0017], [136.7633, 37.0006], [136.7646, 37.0025], [136.7656, 37.0017], [136.7637, 37.0008], [136.7677, 37.001], [136.7701, 36.9962], [136.7699, 36.9921], [136.7655, 36.9875], [136.7704, 36.9813], [136.7682, 36.9613], [136.7681, 36.9627], [136.7625, 36.9522], [136.7594, 36.9511], [136.757, 36.9527], [136.7591, 36.951], [136.756, 36.9522], [136.7565, 36.9533], [136.7535, 36.9508], [136.7591, 36.9504], [136.7619, 36.9444], [136.7514, 36.9347], [136.7492, 36.9292], [136.7549, 36.9204], [136.7536, 36.9236], [136.7579, 36.9246], [136.7556, 36.9233], [136.7569, 36.9233], [136.7556, 36.9211], [136.7596, 36.9239], [136.7619, 36.9226], [136.7617, 36.9246], [136.7626, 36.9221], [136.7637, 36.9232], [136.7641, 36.9201], [136.7655, 36.9212], [136.7669, 36.9141], [136.7699, 36.916], [136.7669, 36.914], [136.767, 36.9044], [136.7687, 36.9028], [136.7671, 36.9022], [136.7597, 36.8695], [136.7458, 36.8318], [136.7132, 36.7687], [136.6796, 36.7146], [136.6427, 36.6653], [136.6419, 36.6672], [136.6421, 36.6643], [136.6282, 36.647], [136.6185, 36.6382], [136.6129, 36.6422], [136.5504, 36.5728], [136.5571, 36.5678]]], [[[136.8908, 37.1085], [136.8895, 37.1089], [136.8898, 37.1046], [136.8921, 37.1029], [136.8927, 37.1083], [136.8908, 37.1085]]], [[[136.988, 37.1635], [136.9871, 37.1649], [136.9879, 37.1609], [136.9892, 37.1618], [136.988, 37.1635]]], [[[136.9241, 37.8551], [136.9195, 37.8549], [136.9145, 37.8519], [136.9159, 37.8507], [136.9132, 37.8505], [136.9115, 37.8483], [136.9136, 37.8438], [136.9157, 37.8467], [136.9216, 37.8481], [136.9197, 37.8477], [136.9186, 37.8497], [136.9199, 37.849], [136.9225, 37.8512], [136.9237, 37.8498], [136.9225, 37.8515], [136.9241, 37.8551]]], [[[136.8869, 37.6158], [136.8854, 37.6148], [136.8881, 37.615], [136.8869, 37.6158]]], [[[136.9001, 37.6121], [136.897, 37.6117], [136.8952, 37.6094], [136.898, 37.6109], [136.8976, 37.6094], [136.8997, 37.6101], [136.9021, 37.6087], [136.9001, 37.6121]]], [[[136.8756, 37.59], [136.8769, 37.5863], [136.8774, 37.589], [136.8756, 37.59]]], [[[136.8548, 37.5888], [136.8533, 37.5882], [136.855, 37.5867], [136.8548, 37.5888]]]]}, "properties": {"name": "石川県"}}]}