{"type": "FeatureCollection", "features": [{"type": "Feature", "geometry": {"type": "Polygon", "coordinates": [[[135.8432, 35.1796], [135.8434, 35.1788], [135.8427, 35.1777], [135.8432, 35.1766], [135.8424, 35.1743], [135.844, 35.1721], [135.8439, 35.1696], [135.8458, 35.1669], [135.8456, 35.1655], [135.8466, 35.1642], [135.8468, 35.1627], [135.8502, 35.1605], [135.8557, 35.1596], [135.8568, 35.1569], [135.8565, 35.1538], [135.8546, 35.153], [135.8535, 35.1515], [135.8537, 35.15], [135.8524, 35.147], [135.8526, 35.146], [135.851, 35.145], [135.8488, 35.1421], [135.8496, 35.1405], [135.8495, 35.1388], [135.8505, 35.1382], [135.8501, 35.1355], [135.8523, 35.1339], [135.8507, 35.1295], [135.8508, 35.1283], [135.8496, 35.1266], [135.8496, 35.1246], [135.8502, 35.1239], [135.8493, 35.1221], [135.8498, 35.1204], [135.8478, 35.1186], [135.8471, 35.1141], [135.8463, 35.1138], [135.8451, 35.1143], [135.8443, 35.1137], [135.845, 35.1118], [135.8442, 35.1116], [135.8433, 35.1101], [135.8436, 35.1075], [135.8429, 35.1063], [135.843, 35.1025], [135.8391, 35.0996], [135.8372, 35.0958], [135.8374, 35.0944], [135.8348, 35.0912], [135.8374, 35.0901], [135.8401, 35.0859], [135.8388, 35.0835], [135.8383, 35.0792], [135.8368, 35.079], [135.8365, 35.0777], [135.8341, 35.0758], [135.8346, 35.0751], [135.8337, 35.0745], [135.8322, 35.0716], [135.8344, 35.068], [135.8342, 35.0655], [135.8359, 35.0622], [135.8358, 35.0591], [135.8344, 35.0574], [135.8347, 35.0555], [135.8316, 35.0528], [135.8287, 35.0532], [135.8266, 35.0543], [135.8252, 35.0522], [135.8232, 35.051], [135.822, 35.0509], [135.8214, 35.0495], [135.819, 35.0492], [135.8164, 35.048], [135.8148, 35.0454], [135.8163, 35.0437], [135.8157, 35.0423], [135.8159, 35.0408], [135.8192, 35.0388], [135.8214, 35.0363], [135.8239, 35.0362], [135.8247, 35.0356], [135.8257, 35.0321], [135.8283, 35.0297], [135.8277, 35.0261], [135.8264, 35.0254], [135.8269, 35.0252], [135.8267, 35.0221], [135.8285, 35.0222], [135.831, 35.0213], [135.834, 35.0223], [135.8349, 35.0218], [135.8344, 35.0216], [135.8351, 35.0187], [135.8347, 35.0175], [135.8357, 35.0137], [135.8348, 35.0122], [135.8297, 35.0117], [135.8246, 35.0124], [135.8239, 35.0134], [135.8212, 35.0141], [135.8209, 35.0157], [135.8201, 35.0151], [135.82, 35.0131], [135.8222, 35.0123], [135.8242, 35.0089], [135.8283, 35.0088], [135.829, 35.0095], [135.8304, 35.01], [135.8329, 35.0095], [135.8341, 35.0043], [135.836, 35.0021], [135.8367, 35.0019], [135.8364, 35.0002], [135.8353, 34.9994], [135.8339, 34.9991], [135.8336, 35.0004], [135.8325, 35.0005], [135.8327, 34.9991], [135.8315, 34.9985], [135.8308, 34.9964], [135.8294, 34.995], [135.8296, 34.9936], [135.8279, 34.9931], [135.8268, 34.9913], [135.8322, 34.9908], [135.8364, 34.991], [135.8384, 34.9907], [135.8395, 34.9898], [135.8425, 34.9899], [135.849, 34.992], [135.85, 34.9898], [135.8491, 34.9864], [135.8492, 34.9846], [135.8499, 34.985], [135.8509, 34.9843], [135.8537, 34.9842], [135.8552, 34.9846], [135.8568, 34.9824], [135.8567, 34.9793], [135.8555, 34.9778], [135.8535, 34.9769], [135.8548, 34.9758], [135.8548, 34.9749], [135.8533, 34.974], [135.8525, 34.9717], [135.8527, 34.9708], [135.8541, 34.9709], [135.856, 34.9695], [135.8563, 34.967], [135.8635, 34.9605], [135.8643, 34.9577], [135.8692, 34.9566], [135.8746, 34.9544], [135.8753, 34.9535], [135.8756, 34.9506], [135.8788, 34.9475], [135.8787, 34.9465], [135.8773, 34.9454], [135.8762, 34.9432], [135.8775, 34.9414], [135.8768, 34.9404], [135.8783, 34.9375], [135.8781, 34.9369], [135.8798, 34.9343], [135.8777, 34.9327], [135.8768, 34.9327], [135.8759, 34.9308], [135.8745, 34.9302], [135.8727, 34.9279], [135.8704, 34.9269], [135.8717, 34.9236], [135.8705, 34.9228], [135.8702, 34.9215], [135.8682, 34.9201], [135.8685, 34.9165], [135.8713, 34.9151], [135.8713, 34.9106], [135.8697, 34.9078], [135.8667, 34.9066], [135.8631, 34.9037], [135.8629, 34.9029], [135.8673, 34.8968], [135.8677, 34.8944], [135.8668, 34.8923], [135.87, 34.8906], [135.8736, 34.8877], [135.8756, 34.8879], [135.8764, 34.8863], [135.88, 34.8847], [135.8841, 34.8819], [135.8885, 34.8806], [135.8884, 34.8798], [135.886, 34.8788], [135.885, 34.8756], [135.8885, 34.8755], [135.893, 34.8742], [135.8959, 34.873], [135.8975, 34.8712], [135.9002, 34.8715], [135.9049, 34.874], [135.9074, 34.874], [135.9069, 34.8759], [135.9094, 34.8772], [135.9091, 34.8783], [135.9099, 34.8792], [135.9097, 34.8804], [135.9112, 34.8815], [135.9128, 34.8839], [135.9158, 34.8835], [135.9187, 34.8847], [135.9234, 34.8836], [135.924, 34.8848], [135.9263, 34.8859], [135.9288, 34.8882], [135.9304, 34.8886], [135.9334, 34.8878], [135.9362, 34.8918], [135.9402, 34.8934], [135.9398, 34.8886], [135.9412, 34.8849], [135.9408, 34.8827], [135.9397, 34.8812], [135.9406, 34.8798], [135.9433, 34.878], [135.9429, 34.8768], [135.944, 34.8738], [135.9409, 34.8651], [135.9411, 34.8634], [135.9436, 34.8593], [135.945, 34.8586], [135.9453, 34.8567], [135.9466, 34.8548], [135.9468, 34.8527], [135.9461, 34.8517], [135.9475, 34.8513], [135.9496, 34.8518], [135.9509, 34.8525], [135.9593, 34.8547], [135.96, 34.8543], [135.9614, 34.8545], [135.9627, 34.8528], [135.9627, 34.8506], [135.9682, 34.8485], [135.9691, 34.8472], [135.97, 34.8473], [135.9718, 34.8461], [135.9709, 34.8438], [135.9715, 34.8428], [135.9712, 34.8405], [135.9701, 34.838], [135.9714, 34.8384], [135.9729, 34.8379], [135.9746, 34.8387], [135.9771, 34.8385], [135.981, 34.839], [135.9846, 34.8413], [135.9887, 34.8411], [135.9915, 34.8427], [135.9941, 34.842], [135.9986, 34.8448], [136.003, 34.8447], [136.0047, 34.8438], [136.0051, 34.8429], [136.0037, 34.8411], [136.0039, 34.8388], [136.0025, 34.8375], [136.0023, 34.8343], [136.0028, 34.8336], [136.0022, 34.8326], [136.004, 34.8304], [136.0043, 34.8287], [136.0054, 34.8275], [136.0053, 34.8264], [136.0064, 34.8258], [136.0086, 34.8262], [136.0127, 34.8251], [136.0157, 34.8264], [136.0166, 34.829], [136.0171, 34.8282], [136.0181, 34.828], [136.0183, 34.8269], [136.0214, 34.8247], [136.0264, 34.8218], [136.0273, 34.8217], [136.0287, 34.8186], [136.0288, 34.8165], [136.0274, 34.8153], [136.0257, 34.8146], [136.025, 34.815], [136.0211, 34.8125], [136.019, 34.8129], [136.0168, 34.8113], [136.015, 34.8073], [136.0115, 34.8026], [136.0103, 34.7996], [136.0101, 34.7988], [136.0112, 34.7975], [136.0112, 34.7957], [136.0124, 34.7955], [136.0134, 34.7969], [136.016, 34.7976], [136.0165, 34.7969], [136.0162, 34.7947], [136.0194, 34.7924], [136.0221, 34.7918], [136.0247, 34.7922], [136.0267, 34.7909], [136.0283, 34.7909], [136.0332, 34.7943], [136.0387, 34.7943], [136.0393, 34.7946], [136.0391, 34.796], [136.0406, 34.7968], [136.0408, 34.7983], [136.0429, 34.7994], [136.045, 34.7994], [136.0467, 34.8016], [136.0482, 34.8013], [136.0489, 34.7998], [136.0512, 34.7993], [136.0542, 34.8005], [136.055, 34.802], [136.0573, 34.804], [136.0577, 34.8028], [136.0597, 34.802], [136.0605, 34.8003], [136.0622, 34.7999], [136.0631, 34.8003], [136.0643, 34.7998], [136.0645, 34.802], [136.0664, 34.8024], [136.0688, 34.804], [136.0697, 34.8034], [136.0727, 34.8041], [136.0762, 34.8076], [136.0776, 34.808], [136.0793, 34.8075], [136.0823, 34.8079], [136.0835, 34.8094], [136.0861, 34.811], [136.0875, 34.8109], [136.0899, 34.8117], [136.091, 34.8137], [136.0903, 34.8144], [136.0907, 34.8161], [136.0926, 34.817], [136.0951, 34.8191], [136.0938, 34.8206], [136.0925, 34.8205], [136.0933, 34.8219], [136.0909, 34.8245], [136.0911, 34.8262], [136.0899, 34.8267], [136.0878, 34.8296], [136.0875, 34.8304], [136.0897, 34.8312], [136.0901, 34.8333], [136.0863, 34.8366], [136.0861, 34.8376], [136.0879, 34.8379], [136.0907, 34.8364], [136.0926, 34.8372], [136.0951, 34.8402], [136.1002, 34.8391], [136.1015, 34.8406], [136.1045, 34.8407], [136.1053, 34.843], [136.1066, 34.8438], [136.1077, 34.847], [136.1083, 34.8502], [136.108, 34.8518], [136.1071, 34.852], [136.1071, 34.8526], [136.1083, 34.8529], [136.1108, 34.8555], [136.1129, 34.8562], [136.1154, 34.8564], [136.1164, 34.8556], [136.1171, 34.8557], [136.118, 34.8574], [136.1196, 34.858], [136.1209, 34.8598], [136.1265, 34.8619], [136.1228, 34.8664], [136.1249, 34.8684], [136.1258, 34.87], [136.1256, 34.8711], [136.1239, 34.8725], [136.1221, 34.8729], [136.1207, 34.8718], [136.1198, 34.8719], [136.1187, 34.8707], [136.1155, 34.8719], [136.1151, 34.871], [136.1144, 34.8708], [136.1143, 34.8696], [136.1135, 34.8694], [136.1105, 34.8701], [136.109, 34.8695], [136.1079, 34.8704], [136.107, 34.8698], [136.105, 34.8702], [136.1029, 34.8698], [136.1008, 34.8706], [136.0989, 34.8706], [136.0984, 34.8721], [136.0967, 34.8726], [136.0958, 34.8736], [136.0934, 34.8735], [136.0895, 34.876], [136.0857, 34.8762], [136.085, 34.8792], [136.0872, 34.8808], [136.0879, 34.8803], [136.0888, 34.8806], [136.0895, 34.8825], [136.087, 34.8858], [136.0858, 34.8859], [136.0853, 34.8871], [136.0862, 34.8879], [136.0862, 34.8893], [136.0874, 34.8905], [136.0886, 34.8904], [136.0893, 34.889], [136.0902, 34.8891], [136.0933, 34.8877], [136.0948, 34.8878], [136.0958, 34.8887], [136.0981, 34.8894], [136.1017, 34.8962], [136.1027, 34.8961], [136.1055, 34.8985], [136.1053, 34.8994], [136.1062, 34.9001], [136.1104, 34.9011], [136.1108, 34.9019], [136.1122, 34.9019], [136.1135, 34.9012], [136.1132, 34.9], [136.1151, 34.8988], [136.1145, 34.898], [136.1156, 34.8966], [136.1145, 34.8948], [136.1151, 34.8931], [136.1165, 34.8921], [136.1182, 34.8925], [136.1218, 34.8883], [136.1225, 34.8882], [136.1234, 34.8888], [136.1255, 34.8884], [136.1258, 34.8875], [136.1273, 34.8866], [136.1275, 34.8852], [136.1295, 34.8844], [136.1312, 34.883], [136.1352, 34.8851], [136.1352, 34.8866], [136.1369, 34.8887], [136.1389, 34.8872], [136.1406, 34.8871], [136.144, 34.8855], [136.1444, 34.8839], [136.147, 34.883], [136.148, 34.8819], [136.1499, 34.8829], [136.1512, 34.8829], [136.1536, 34.8844], [136.1594, 34.8848], [136.1597, 34.8864], [136.1618, 34.8872], [136.1648, 34.8871], [136.1656, 34.8879], [136.1672, 34.888], [136.168, 34.8872], [136.1695, 34.8869], [136.1721, 34.8873], [136.1776, 34.887], [136.1785, 34.8875], [136.1807, 34.8859], [136.1802, 34.8843], [136.1782, 34.8827], [136.1791, 34.8808], [136.1784, 34.8796], [136.1806, 34.8797], [136.1809, 34.8787], [136.182, 34.8782], [136.1851, 34.8786], [136.1889, 34.8777], [136.1888, 34.8759], [136.1905, 34.8756], [136.1903, 34.8732], [136.1926, 34.8726], [136.1947, 34.8728], [136.1967, 34.8716], [136.1981, 34.8697], [136.2019, 34.8694], [136.2039, 34.8675], [136.2046, 34.8686], [136.2074, 34.8687], [136.2134, 34.8655], [136.2169, 34.8652], [136.2185, 34.8657], [136.22, 34.863], [136.2207, 34.8635], [136.2233, 34.8633], [136.2246, 34.8627], [136.2254, 34.8616], [136.227, 34.8611], [136.2281, 34.8609], [136.2288, 34.8617], [136.2317, 34.8614], [136.2331, 34.8608], [136.2354, 34.8614], [136.2371, 34.8606], [136.2371, 34.8597], [136.238, 34.8594], [136.2395, 34.8601], [136.2406, 34.8593], [136.2429, 34.8597], [136.2432, 34.8587], [136.2459, 34.8593], [136.249, 34.8584], [136.2537, 34.8588], [136.2571, 34.8602], [136.2603, 34.8608], [136.2623, 34.8615], [136.2656, 34.8639], [136.2679, 34.8645], [136.2687, 34.8653], [136.2688, 34.8679], [136.2695, 34.8687], [136.2737, 34.8697], [136.276, 34.8717], [136.2773, 34.8741], [136.2806, 34.8733], [136.2815, 34.8724], [136.2817, 34.871], [136.2827, 34.8711], [136.2838, 34.8703], [136.2874, 34.8703], [136.2894, 34.8696], [136.2918, 34.8707], [136.2928, 34.8703], [136.2946, 34.8719], [136.2969, 34.8726], [136.2995, 34.8758], [136.3018, 34.8764], [136.3035, 34.8748], [136.3048, 34.8748], [136.3061, 34.8755], [136.3064, 34.8765], [136.3081, 34.8775], [136.3083, 34.8782], [136.3101, 34.8788], [136.3103, 34.8799], [136.313, 34.8805], [136.3138, 34.8832], [136.3133, 34.887], [136.3159, 34.8874], [136.3195, 34.8896], [136.3225, 34.8892], [136.3245, 34.8898], [136.3263, 34.8884], [136.3304, 34.8923], [136.3336, 34.8926], [136.3396, 34.8954], [136.3437, 34.8959], [136.3454, 34.8954], [136.3461, 34.8946], [136.3492, 34.8967], [136.3503, 34.8992], [136.3564, 34.9002], [136.3584, 34.9014], [136.3601, 34.9043], [136.362, 34.9051], [136.366, 34.905], [136.3656, 34.9068], [136.366, 34.908], [136.3648, 34.909], [136.3646, 34.9118], [136.3653, 34.9131], [136.367, 34.9136], [136.3686, 34.9149], [136.3672, 34.9168], [136.3682, 34.9191], [136.367, 34.9204], [136.3679, 34.9222], [136.369, 34.9229], [136.3753, 34.9245], [136.3724, 34.9272], [136.3727, 34.9295], [136.3716, 34.9307], [136.3722, 34.9319], [136.3718, 34.9341], [136.3742, 34.9363], [136.3755, 34.94], [136.3738, 34.9409], [136.3727, 34.9422], [136.3772, 34.9455], [136.379, 34.9459], [136.3803, 34.9477], [136.3846, 34.9509], [136.3857, 34.9526], [136.3876, 34.9531], [136.3885, 34.9524], [136.3899, 34.9524], [136.3904, 34.9515], [136.3923, 34.9511], [136.3949, 34.9514], [136.3964, 34.9542], [136.3967, 34.9575], [136.3998, 34.9611], [136.399, 34.9637], [136.4002, 34.9638], [136.402, 34.9648], [136.4021, 34.9658], [136.4034, 34.9664], [136.4032, 34.9692], [136.4048, 34.9707], [136.4057, 34.9707], [136.407, 34.9717], [136.4078, 34.9739], [136.4137, 34.978], [136.4158, 34.9806], [136.4146, 34.9818], [136.4151, 34.9822], [136.4152, 34.9858], [136.4159, 34.988], [136.4154, 34.9905], [136.4164, 34.9924], [136.4159, 34.9931], [136.4148, 34.9932], [136.4133, 34.9955], [136.4142, 34.9967], [136.4204, 34.9991], [136.4212, 35.0002], [136.421, 35.0019], [136.4198, 35.003], [136.42, 35.0049], [136.4189, 35.006], [136.4187, 35.0077], [136.4172, 35.0111], [136.417, 35.015], [136.418, 35.0167], [136.4188, 35.017], [136.4183, 35.0181], [136.4174, 35.0182], [136.4175, 35.0198], [136.4178, 35.0204], [136.4214, 35.0212], [136.4219, 35.0227], [136.4216, 35.025], [136.4232, 35.0257], [136.4221, 35.0268], [136.4228, 35.0281], [136.4246, 35.0292], [136.4243, 35.0299], [136.4187, 35.03], [136.418, 35.031], [136.4185, 35.0319], [136.4169, 35.0339], [136.4165, 35.0372], [136.4172, 35.0399], [136.4159, 35.0413], [136.4163, 35.0422], [136.4176, 35.0421], [136.418, 35.0425], [136.4174, 35.044], [136.4186, 35.0484], [136.418, 35.0492], [136.4198, 35.0496], [136.42, 35.0503], [136.4222, 35.0513], [136.4229, 35.0545], [136.4245, 35.0556], [136.4245, 35.0568], [136.4271, 35.0569], [136.4289, 35.0562], [136.4303, 35.0586], [136.4318, 35.0593], [136.4333, 35.0592], [136.4338, 35.0598], [136.4334, 35.0613], [136.4338, 35.0618], [136.4354, 35.0622], [136.4364, 35.0634], [136.4376, 35.0638], [136.4385, 35.0654], [136.4411, 35.0644], [136.4418, 35.0665], [136.4412, 35.0702], [136.4397, 35.0726], [136.4406, 35.0745], [136.4386, 35.0765], [136.4372, 35.0769], [136.4375, 35.0778], [136.4359, 35.0798], [136.4362, 35.0813], [136.4354, 35.0824], [136.4382, 35.0831], [136.4383, 35.0838], [136.4403, 35.0852], [136.4424, 35.0858], [136.4398, 35.0907], [136.4383, 35.0917], [136.4398, 35.0934], [136.4388, 35.0968], [136.4402, 35.0996], [136.4423, 35.1015], [136.4414, 35.1033], [136.442, 35.1053], [136.4409, 35.1077], [136.4418, 35.1081], [136.4416, 35.109], [136.4425, 35.1105], [136.4413, 35.1116], [136.4414, 35.1133], [136.4399, 35.1159], [136.4404, 35.1168], [136.4451, 35.1192], [136.4459, 35.1224], [136.4475, 35.1228], [136.4478, 35.1237], [136.4465, 35.1252], [136.4431, 35.1276], [136.4386, 35.1288], [136.4354, 35.1307], [136.4375, 35.1323], [136.438, 35.1365], [136.4406, 35.1383], [136.443, 35.1388], [136.4442, 35.1424], [136.4432, 35.145], [136.4449, 35.1477], [136.4443, 35.1493], [136.4463, 35.1498], [136.4509, 35.1495], [136.4518, 35.151], [136.4549, 35.1525], [136.4542, 35.1573], [136.4528, 35.1587], [136.4545, 35.1614], [136.4545, 35.1624], [136.452, 35.1662], [136.4489, 35.1667], [136.4473, 35.1658], [136.4451, 35.1662], [136.4448, 35.1679], [136.4461, 35.1685], [136.4446, 35.1714], [136.4439, 35.1717], [136.443, 35.1713], [136.4404, 35.1714], [136.4388, 35.1719], [136.4368, 35.1736], [136.4361, 35.1759], [136.4341, 35.1769], [136.4335, 35.1782], [136.4299, 35.181], [136.4257, 35.183], [136.4247, 35.1843], [136.4195, 35.1827], [136.4165, 35.185], [136.4131, 35.1862], [136.4107, 35.1862], [136.4086, 35.1872], [136.4098, 35.1878], [136.4114, 35.1905], [136.413, 35.1917], [136.4132, 35.1943], [136.4128, 35.1957], [136.414, 35.1975], [136.4142, 35.1996], [136.4153, 35.2018], [136.4173, 35.2028], [136.4179, 35.2037], [136.4159, 35.2061], [136.4165, 35.2085], [136.4161, 35.2115], [136.4167, 35.2145], [136.4158, 35.2171], [136.4118, 35.2184], [136.4121, 35.219], [136.4107, 35.2215], [136.4085, 35.2236], [136.4049, 35.2241], [136.4032, 35.2254], [136.402, 35.225], [136.4009, 35.2259], [136.3992, 35.2258], [136.3988, 35.2279], [136.3925, 35.2297], [136.3938, 35.231], [136.3921, 35.2342], [136.3889, 35.2343], [136.3859, 35.2351], [136.384, 35.2392], [136.3825, 35.2403], [136.3801, 35.2409], [136.3773, 35.2432], [136.3789, 35.2443], [136.3793, 35.2474], [136.3805, 35.2484], [136.3852, 35.2483], [136.3871, 35.2493], [136.3889, 35.2495], [136.3936, 35.2533], [136.3968, 35.2575], [136.3942, 35.2591], [136.3935, 35.2622], [136.3945, 35.2642], [136.394, 35.2652], [136.3948, 35.267], [136.3944, 35.2709], [136.3958, 35.2747], [136.3959, 35.2808], [136.3946, 35.2824], [136.3947, 35.2835], [136.3933, 35.2861], [136.3911, 35.2878], [136.3911, 35.2896], [136.3927, 35.2915], [136.3945, 35.2923], [136.3947, 35.294], [136.3959, 35.2941], [136.3976, 35.2961], [136.3979, 35.2973], [136.3995, 35.2983], [136.3993, 35.2993], [136.4029, 35.3004], [136.4031, 35.3035], [136.4056, 35.3042], [136.4065, 35.3052], [136.4074, 35.3082], [136.4065, 35.3098], [136.4118, 35.3147], [136.4119, 35.3221], [136.4133, 35.3243], [136.4128, 35.3261], [136.4114, 35.3273], [136.4113, 35.329], [136.4124, 35.3297], [136.4126, 35.3318], [136.4143, 35.3325], [136.4153, 35.3338], [136.4156, 35.3371], [136.4174, 35.3399], [136.4191, 35.3411], [136.4186, 35.3427], [136.4195, 35.3437], [136.419, 35.3445], [136.4221, 35.348], [136.4209, 35.351], [136.4216, 35.3539], [136.4188, 35.3542], [136.4176, 35.3538], [136.4164, 35.3548], [136.4138, 35.3537], [136.4134, 35.3522], [136.4105, 35.3527], [136.4107, 35.3542], [136.4096, 35.3553], [136.41, 35.358], [136.4126, 35.3589], [136.4137, 35.3601], [136.4132, 35.3616], [136.4136, 35.3645], [136.412, 35.3655], [136.4129, 35.3681], [136.4118, 35.3702], [136.414, 35.3715], [136.4155, 35.3735], [136.4206, 35.3727], [136.4242, 35.3736], [136.4264, 35.3734], [136.4369, 35.3792], [136.4397, 35.3829], [136.4415, 35.3842], [136.4444, 35.3895], [136.4417, 35.3907], [136.4411, 35.3915], [136.441, 35.3938], [136.4373, 35.3951], [136.4366, 35.3972], [136.4335, 35.3979], [136.4312, 35.3997], [136.4278, 35.401], [136.4276, 35.4018], [136.4257, 35.403], [136.4245, 35.4047], [136.4245, 35.4074], [136.4222, 35.4092], [136.4201, 35.4131], [136.4144, 35.4173], [136.4118, 35.4186], [136.4118, 35.4223], [136.4148, 35.4249], [136.4182, 35.4266], [136.4188, 35.4277], [136.4163, 35.4303], [136.4155, 35.4317], [136.4156, 35.4332], [136.4202, 35.4361], [136.4231, 35.4399], [136.4221, 35.4411], [136.4221, 35.4424], [136.4236, 35.4452], [136.4262, 35.4483], [136.4245, 35.4535], [136.4224, 35.4545], [136.4214, 35.4558], [136.4207, 35.4591], [136.4211, 35.4631], [136.4206, 35.4656], [136.419, 35.4674], [136.4145, 35.4665], [136.4112, 35.4683], [136.4066, 35.4692], [136.4044, 35.4691], [136.4016, 35.4701], [136.4019, 35.4736], [136.4, 35.4756], [136.3979, 35.4811], [136.3962, 35.4817], [136.394, 35.4835], [136.3926, 35.4856], [136.3911, 35.4853], [136.3879, 35.4875], [136.3867, 35.4889], [136.387, 35.4927], [136.3883, 35.4939], [136.3879, 35.497], [136.3893, 35.4979], [136.3923, 35.504], [136.3937, 35.5047], [136.3941, 35.5063], [136.3965, 35.507], [136.3969, 35.5094], [136.3994, 35.5106], [136.3997, 35.5115], [136.4004, 35.5116], [136.4001, 35.5136], [136.4023, 35.5133], [136.4038, 35.5115], [136.4046, 35.5133], [136.4056, 35.5135], [136.4051, 35.5154], [136.403, 35.5175], [136.4025, 35.519], [136.3991, 35.5212], [136.3995, 35.5222], [136.401, 35.5234], [136.4018, 35.5257], [136.4, 35.5272], [136.4003, 35.5301], [136.3994, 35.5312], [136.3976, 35.5319], [136.3953, 35.5312], [136.3903, 35.532], [136.3893, 35.5329], [136.3845, 35.533], [136.3835, 35.5348], [136.3824, 35.5356], [136.3826, 35.5372], [136.3811, 35.5377], [136.3801, 35.5412], [136.3804, 35.5459], [136.3753, 35.5522], [136.3755, 35.5539], [136.3741, 35.5586], [136.3729, 35.5598], [136.3701, 35.5589], [136.3655, 35.5599], [136.3628, 35.5588], [136.3622, 35.554], [136.3611, 35.5523], [136.361, 35.5505], [136.3591, 35.5488], [136.3586, 35.5444], [136.3569, 35.5428], [136.3566, 35.5399], [136.3546, 35.5385], [136.3518, 35.5383], [136.3495, 35.5373], [136.3483, 35.538], [136.3471, 35.5376], [136.346, 35.5361], [136.3431, 35.5376], [136.3407, 35.5375], [136.3394, 35.5407], [136.3413, 35.5425], [136.3396, 35.5444], [136.3387, 35.5489], [136.3371, 35.5504], [136.3338, 35.55], [136.3296, 35.5509], [136.3267, 35.5499], [136.3255, 35.549], [136.3259, 35.5474], [136.3254, 35.5461], [136.3222, 35.5441], [136.3177, 35.5471], [136.3165, 35.5496], [136.3173, 35.5524], [136.3163, 35.5573], [136.3174, 35.5595], [136.3188, 35.5654], [136.3227, 35.5695], [136.3219, 35.5717], [136.3231, 35.5749], [136.3227, 35.5773], [136.3231, 35.5787], [136.3221, 35.5813], [136.3228, 35.5831], [136.3241, 35.5836], [136.3244, 35.5843], [136.3222, 35.588], [136.3226, 35.5927], [136.3214, 35.5939], [136.3216, 35.5982], [136.3201, 35.6017], [136.3189, 35.6039], [136.315, 35.6058], [136.3203, 35.6105], [136.3236, 35.6163], [136.3187, 35.6214], [136.3161, 35.6219], [136.3158, 35.6234], [136.3118, 35.6228], [136.3104, 35.6232], [136.3075, 35.6226], [136.3052, 35.6212], [136.3051, 35.62], [136.3038, 35.6204], [136.3033, 35.6194], [136.2982, 35.6176], [136.2939, 35.6181], [136.2904, 35.6205], [136.2886, 35.6205], [136.2871, 35.625], [136.2874, 35.6278], [136.2859, 35.6297], [136.2838, 35.6311], [136.2829, 35.6341], [136.2794, 35.6364], [136.2791, 35.6373], [136.2798, 35.6399], [136.2815, 35.6402], [136.2823, 35.6411], [136.2831, 35.6433], [136.2815, 35.6475], [136.277, 35.651], [136.2762, 35.6533], [136.2767, 35.655], [136.2795, 35.658], [136.2809, 35.6586], [136.2802, 35.66], [136.2807, 35.6611], [136.2739, 35.6653], [136.2717, 35.6653], [136.2696, 35.6684], [136.263, 35.6714], [136.2604, 35.6717], [136.2575, 35.6712], [136.2544, 35.6738], [136.2519, 35.6747], [136.2505, 35.6762], [136.2469, 35.6753], [136.2447, 35.6737], [136.2429, 35.6757], [136.2406, 35.6768], [136.2349, 35.6814], [136.2342, 35.6825], [136.2311, 35.6826], [136.2276, 35.6804], [136.2258, 35.6804], [136.2235, 35.6813], [136.2221, 35.6831], [136.2202, 35.6834], [136.2192, 35.6844], [136.2178, 35.6845], [136.2139, 35.6834], [136.2127, 35.6816], [136.2104, 35.6844], [136.2103, 35.6861], [136.2083, 35.6875], [136.2041, 35.6867], [136.2021, 35.6876], [136.2013, 35.6896], [136.2, 35.6899], [136.1992, 35.6893], [136.1983, 35.6897], [136.1966, 35.6921], [136.1968, 35.693], [136.1937, 35.7], [136.1928, 35.7006], [136.1918, 35.7006], [136.1911, 35.7023], [136.1903, 35.7026], [136.1895, 35.7022], [136.1873, 35.7032], [136.184, 35.7036], [136.1824, 35.703], [136.181, 35.7015], [136.1784, 35.7016], [136.1746, 35.7037], [136.1718, 35.7018], [136.1704, 35.7014], [136.168, 35.7034], [136.1669, 35.7022], [136.1662, 35.697], [136.1648, 35.6963], [136.1618, 35.6964], [136.1613, 35.6978], [136.157, 35.7003], [136.1556, 35.7001], [136.1539, 35.6988], [136.1507, 35.6981], [136.1496, 35.6951], [136.1502, 35.6913], [136.149, 35.6899], [136.1488, 35.6883], [136.148, 35.6874], [136.1462, 35.687], [136.1452, 35.6847], [136.1435, 35.6831], [136.1426, 35.6794], [136.1397, 35.678], [136.1398, 35.677], [136.138, 35.6749], [136.1377, 35.673], [136.1363, 35.6725], [136.1345, 35.6694], [136.1347, 35.6679], [136.1367, 35.6655], [136.1393, 35.665], [136.1404, 35.664], [136.1432, 35.6639], [136.1475, 35.6627], [136.1488, 35.6616], [136.1505, 35.6587], [136.1512, 35.6555], [136.15, 35.6547], [136.1512, 35.653], [136.1509, 35.6518], [136.1511, 35.6512], [136.1525, 35.6508], [136.1513, 35.6496], [136.1513, 35.6487], [136.153, 35.6462], [136.1542, 35.6463], [136.1541, 35.6438], [136.155, 35.6422], [136.1573, 35.6412], [136.1585, 35.6382], [136.1583, 35.6356], [136.1598, 35.6349], [136.1596, 35.6317], [136.1585, 35.6299], [136.1595, 35.6291], [136.1602, 35.6274], [136.1598, 35.6252], [136.1624, 35.624], [136.165, 35.6191], [136.1669, 35.6186], [136.1684, 35.6145], [136.1702, 35.6126], [136.1709, 35.6085], [136.1743, 35.6036], [136.1751, 35.6008], [136.1768, 35.5982], [136.1767, 35.5966], [136.1775, 35.5951], [136.1758, 35.5937], [136.1753, 35.5922], [136.1727, 35.5902], [136.1726, 35.5888], [136.1717, 35.5876], [136.1682, 35.5848], [136.1664, 35.5824], [136.1677, 35.5805], [136.1684, 35.5776], [136.1706, 35.5758], [136.1695, 35.5743], [136.1703, 35.5713], [136.1692, 35.5679], [136.1698, 35.5659], [136.167, 35.5652], [136.1638, 35.5694], [136.1634, 35.5709], [136.1625, 35.5713], [136.1599, 35.5718], [136.1576, 35.5712], [136.1555, 35.5714], [136.1545, 35.5716], [136.1539, 35.5725], [136.1506, 35.5729], [136.1494, 35.5714], [136.1475, 35.5721], [136.1464, 35.5708], [136.1452, 35.5706], [136.1434, 35.5712], [136.1417, 35.574], [136.139, 35.5756], [136.1376, 35.5753], [136.1356, 35.5758], [136.1328, 35.5747], [136.1282, 35.5759], [136.1265, 35.5755], [136.1211, 35.5762], [136.1187, 35.577], [136.1171, 35.5783], [136.1167, 35.5794], [136.1174, 35.5809], [136.117, 35.5816], [136.1155, 35.5828], [136.1138, 35.5829], [136.1121, 35.5798], [136.112, 35.5769], [136.1129, 35.5752], [136.1128, 35.5738], [136.1113, 35.5729], [136.1115, 35.5719], [136.1099, 35.5691], [136.1079, 35.5684], [136.1106, 35.5634], [136.1103, 35.5597], [136.1089, 35.559], [136.1086, 35.5577], [136.1066, 35.5568], [136.1054, 35.5556], [136.1062, 35.5535], [136.109, 35.5497], [136.1078, 35.5468], [136.1093, 35.5452], [136.1091, 35.5425], [136.1078, 35.54], [136.1059, 35.5382], [136.1067, 35.5346], [136.1061, 35.5325], [136.1072, 35.5302], [136.1065, 35.529], [136.1053, 35.5285], [136.1041, 35.5302], [136.1003, 35.532], [136.0996, 35.5337], [136.0976, 35.5337], [136.0946, 35.5358], [136.0932, 35.5374], [136.0906, 35.5375], [136.0884, 35.539], [136.0861, 35.5392], [136.0829, 35.5407], [136.0805, 35.5389], [136.0793, 35.5358], [136.0768, 35.5344], [136.0776, 35.5317], [136.0771, 35.5307], [136.0741, 35.5297], [136.0707, 35.5267], [136.0694, 35.5262], [136.0669, 35.5269], [136.0652, 35.5283], [136.0622, 35.5282], [136.061, 35.5316], [136.0595, 35.5321], [136.058, 35.5319], [136.0557, 35.5334], [136.0536, 35.533], [136.0514, 35.5341], [136.0485, 35.5344], [136.0464, 35.5302], [136.0421, 35.5308], [136.041, 35.5321], [136.0366, 35.5307], [136.0282, 35.529], [136.0264, 35.5295], [136.0261, 35.5268], [136.0276, 35.5262], [136.0273, 35.5249], [136.0287, 35.5237], [136.0284, 35.523], [136.0234, 35.5198], [136.0203, 35.5121], [136.0195, 35.5118], [136.016, 35.5122], [136.0152, 35.5115], [136.0158, 35.5106], [136.0149, 35.5083], [136.0134, 35.5074], [136.0117, 35.5045], [136.0124, 35.5035], [136.0118, 35.5029], [136.0117, 35.5005], [136.0108, 35.4998], [136.0116, 35.4978], [136.0112, 35.4968], [136.0088, 35.4938], [136.0071, 35.4935], [136.0066, 35.4919], [136.0042, 35.4909], [136.002, 35.492], [135.9979, 35.4915], [135.9966, 35.4926], [135.9943, 35.4916], [135.9893, 35.4926], [135.9869, 35.4904], [135.9809, 35.4866], [135.9792, 35.4886], [135.9787, 35.4909], [135.9762, 35.4937], [135.9744, 35.4975], [135.9731, 35.4982], [135.9724, 35.5002], [135.97, 35.501], [135.9688, 35.5023], [135.9669, 35.5029], [135.9627, 35.5011], [135.9607, 35.5021], [135.9574, 35.5059], [135.9544, 35.5056], [135.9524, 35.5062], [135.9518, 35.5075], [135.9522, 35.5092], [135.9517, 35.512], [135.9469, 35.5206], [135.9446, 35.5212], [135.9395, 35.5204], [135.9375, 35.5141], [135.9379, 35.5112], [135.9374, 35.511], [135.9355, 35.5038], [135.9332, 35.5019], [135.9331, 35.5004], [135.9318, 35.4977], [135.9302, 35.4918], [135.9287, 35.4918], [135.9275, 35.4903], [135.9245, 35.4895], [135.9237, 35.4867], [135.9224, 35.4859], [135.9238, 35.4816], [135.9216, 35.478], [135.9218, 35.4759], [135.9197, 35.4752], [135.9181, 35.4738], [135.9173, 35.4716], [135.916, 35.4711], [135.9173, 35.4674], [135.9149, 35.4591], [135.9155, 35.456], [135.9144, 35.4516], [135.9125, 35.4489], [135.9097, 35.4472], [135.9104, 35.4457], [135.913, 35.4452], [135.9131, 35.4432], [135.9123, 35.4411], [135.9146, 35.4377], [135.9148, 35.4343], [135.9141, 35.4322], [135.9121, 35.4305], [135.9085, 35.4296], [135.9058, 35.4301], [135.9028, 35.4295], [135.901, 35.4259], [135.8981, 35.4244], [135.8977, 35.4234], [135.8968, 35.4231], [135.896, 35.4219], [135.8946, 35.4215], [135.893, 35.4199], [135.8938, 35.4147], [135.8934, 35.4106], [135.8906, 35.4031], [135.8859, 35.4025], [135.8824, 35.4007], [135.8806, 35.4007], [135.8749, 35.3972], [135.8722, 35.3968], [135.8716, 35.396], [135.8695, 35.396], [135.8674, 35.3947], [135.8646, 35.3944], [135.8632, 35.395], [135.8604, 35.3952], [135.859, 35.3969], [135.8569, 35.3979], [135.8559, 35.3998], [135.8546, 35.4003], [135.8544, 35.4022], [135.8552, 35.403], [135.8546, 35.4063], [135.8553, 35.4071], [135.8556, 35.4092], [135.8531, 35.4116], [135.8521, 35.4106], [135.8461, 35.4113], [135.8439, 35.4131], [135.8412, 35.4132], [135.8388, 35.4144], [135.8364, 35.412], [135.8317, 35.4123], [135.8257, 35.4151], [135.8192, 35.4126], [135.8132, 35.4131], [135.8105, 35.4088], [135.8106, 35.4031], [135.808, 35.3942], [135.8085, 35.393], [135.8101, 35.3915], [135.8074, 35.3853], [135.8048, 35.3844], [135.8022, 35.3851], [135.7991, 35.3849], [135.7975, 35.3866], [135.7942, 35.3875], [135.7908, 35.3866], [135.7906, 35.3841], [135.792, 35.3814], [135.7906, 35.3788], [135.7836, 35.3765], [135.783, 35.3754], [135.7788, 35.3732], [135.7798, 35.3719], [135.7777, 35.3659], [135.7745, 35.3652], [135.7737, 35.3634], [135.77, 35.3599], [135.7687, 35.356], [135.7697, 35.355], [135.7696, 35.3542], [135.7692, 35.3535], [135.7675, 35.353], [135.7673, 35.3508], [135.7659, 35.3498], [135.7662, 35.3485], [135.7637, 35.3455], [135.7641, 35.3444], [135.7649, 35.344], [135.769, 35.3439], [135.7698, 35.3434], [135.7741, 35.3429], [135.7778, 35.3411], [135.7787, 35.34], [135.7808, 35.3406], [135.7824, 35.3386], [135.7823, 35.3361], [135.7858, 35.3315], [135.7858, 35.3305], [135.7899, 35.3283], [135.7912, 35.3234], [135.7941, 35.3224], [135.7952, 35.3212], [135.8033, 35.3174], [135.8091, 35.3165], [135.8092, 35.3153], [135.8103, 35.315], [135.8111, 35.3138], [135.8113, 35.3101], [135.8102, 35.3091], [135.8108, 35.3082], [135.8144, 35.307], [135.8157, 35.3032], [135.8152, 35.3008], [135.8168, 35.2998], [135.8197, 35.2992], [135.8213, 35.2971], [135.8213, 35.2948], [135.8205, 35.2943], [135.8202, 35.2906], [135.8251, 35.285], [135.8255, 35.2831], [135.8251, 35.2819], [135.8272, 35.2801], [135.8296, 35.2767], [135.8312, 35.2763], [135.8344, 35.274], [135.838, 35.2751], [135.8384, 35.2756], [135.8399, 35.2755], [135.8403, 35.2771], [135.8415, 35.278], [135.8448, 35.2783], [135.8466, 35.2793], [135.8479, 35.2791], [135.8491, 35.2797], [135.8516, 35.2859], [135.8537, 35.2869], [135.8547, 35.2882], [135.8583, 35.2892], [135.8585, 35.2871], [135.8605, 35.283], [135.8585, 35.2808], [135.8585, 35.2782], [135.8549, 35.2756], [135.8547, 35.2714], [135.8523, 35.269], [135.8472, 35.2662], [135.8459, 35.2633], [135.8446, 35.262], [135.8458, 35.2574], [135.843, 35.255], [135.8423, 35.2536], [135.8437, 35.2515], [135.8423, 35.2495], [135.8403, 35.248], [135.8394, 35.2438], [135.837, 35.2414], [135.8343, 35.241], [135.8351, 35.2395], [135.8367, 35.2388], [135.8377, 35.2368], [135.8368, 35.2317], [135.8377, 35.2264], [135.8351, 35.2245], [135.8304, 35.2226], [135.8293, 35.2204], [135.8308, 35.2188], [135.8299, 35.217], [135.8302, 35.2155], [135.8326, 35.2142], [135.8313, 35.2105], [135.8353, 35.2071], [135.836, 35.2035], [135.8354, 35.2029], [135.8356, 35.2013], [135.8369, 35.1998], [135.8371, 35.1972], [135.84, 35.1916], [135.8422, 35.1893], [135.8423, 35.1876], [135.8411, 35.1865], [135.8402, 35.182], [135.8406, 35.1797], [135.8416, 35.1794], [135.8432, 35.1796]]]}, "properties": {"name": "滋賀県"}}]}