{"type": "FeatureCollection", "features": [{"type": "Feature", "geometry": {"type": "MultiPolygon", "coordinates": [[[[140.5216, 38.3498], [140.5293, 38.36], [140.5457, 38.3643], [140.5525, 38.3765], [140.5639, 38.3772], [140.5677, 38.3853], [140.5781, 38.3928], [140.5712, 38.413], [140.5794, 38.4233], [140.5803, 38.4373], [140.5923, 38.4418], [140.5977, 38.437], [140.6131, 38.4534], [140.6198, 38.4554], [140.6083, 38.4582], [140.6042, 38.4824], [140.5738, 38.4948], [140.5673, 38.5014], [140.5692, 38.5054], [140.5634, 38.5107], [140.5703, 38.5154], [140.5677, 38.5204], [140.5718, 38.5256], [140.5557, 38.5299], [140.5541, 38.541], [140.5646, 38.5458], [140.5698, 38.5557], [140.5663, 38.5603], [140.5783, 38.5702], [140.5682, 38.5895], [140.5693, 38.5942], [140.5586, 38.5978], [140.5621, 38.6072], [140.5522, 38.6134], [140.5374, 38.6357], [140.5465, 38.6498], [140.5626, 38.6481], [140.5694, 38.6381], [140.5758, 38.6393], [140.5878, 38.634], [140.6019, 38.6406], [140.606, 38.6554], [140.6135, 38.6618], [140.6244, 38.6875], [140.6206, 38.6964], [140.6234, 38.7001], [140.6062, 38.7038], [140.607, 38.7215], [140.6202, 38.7305], [140.6205, 38.739], [140.631, 38.7468], [140.6349, 38.761], [140.6461, 38.7697], [140.6397, 38.7767], [140.6274, 38.774], [140.6035, 38.7837], [140.5956, 38.8023], [140.5988, 38.8252], [140.5928, 38.8279], [140.5906, 38.8364], [140.5663, 38.8481], [140.5589, 38.8474], [140.5534, 38.8589], [140.54, 38.8623], [140.5388, 38.8715], [140.5473, 38.8808], [140.5475, 38.891], [140.536, 38.9007], [140.5261, 38.8975], [140.5159, 38.9003], [140.5003, 38.8949], [140.4824, 38.9167], [140.4717, 38.9151], [140.4621, 38.9196], [140.4583, 38.9339], [140.4516, 38.9377], [140.4495, 38.9456], [140.4537, 38.9523], [140.451, 38.9721], [140.4463, 38.9733], [140.4455, 38.9804], [140.4378, 38.982], [140.432, 38.992], [140.4135, 38.9901], [140.4106, 38.9941], [140.3948, 38.9913], [140.3761, 38.9946], [140.3641, 39.0095], [140.362, 39.026], [140.3442, 39.0259], [140.3288, 39.0348], [140.3187, 39.0312], [140.3106, 39.0136], [140.2938, 39.0183], [140.2866, 39.028], [140.2661, 39.0313], [140.2605, 39.0352], [140.251, 39.0278], [140.2452, 39.0309], [140.2268, 39.0273], [140.2179, 39.0332], [140.2006, 39.0356], [140.2047, 39.0535], [140.1981, 39.0613], [140.175, 39.0574], [140.171, 39.0512], [140.1622, 39.0543], [140.1522, 39.0483], [140.1378, 39.0657], [140.1275, 39.0631], [140.1169, 39.0683], [140.1147, 39.0784], [140.0962, 39.0849], [140.0762, 39.0861], [140.0626, 39.0926], [140.0672, 39.0991], [140.0616, 39.1114], [140.0624, 39.1336], [140.0077, 39.1231], [139.9976, 39.1158], [139.9944, 39.1056], [139.9481, 39.1173], [139.9455, 39.1129], [139.9063, 39.1189], [139.8695, 39.1182], [139.8693, 39.1121], [139.8777, 39.1053], [139.8794, 39.096], [139.8711, 39.082], [139.8728, 39.0777], [139.8675, 39.0737], [139.8678, 39.068], [139.8728, 39.0696], [139.8672, 39.0671], [139.8706, 39.0665], [139.8673, 39.053], [139.84, 38.9845], [139.8324, 38.9732], [139.826, 38.9749], [139.8197, 38.9622], [139.8041, 38.96], [139.7921, 38.9537], [139.7805, 38.938], [139.784, 38.9163], [139.8036, 38.9024], [139.7842, 38.8499], [139.7906, 38.8456], [139.7826, 38.8479], [139.7744, 38.8247], [139.7475, 38.7754], [139.7295, 38.7662], [139.7345, 38.7628], [139.7226, 38.7633], [139.7222, 38.758], [139.7075, 38.7505], [139.7089, 38.7442], [139.6986, 38.7369], [139.6986, 38.7305], [139.6903, 38.7231], [139.6852, 38.7225], [139.6822, 38.7261], [139.6849, 38.7209], [139.677, 38.7182], [139.6812, 38.7176], [139.669, 38.7182], [139.662, 38.7124], [139.6606, 38.7043], [139.6524, 38.702], [139.6476, 38.6928], [139.6353, 38.6847], [139.6271, 38.6876], [139.615, 38.6709], [139.6096, 38.6693], [139.6111, 38.6646], [139.6005, 38.6547], [139.5915, 38.6376], [139.5915, 38.6413], [139.5852, 38.6216], [139.564, 38.5955], [139.5574, 38.5753], [139.5526, 38.575], [139.5529, 38.5701], [139.5431, 38.5622], [139.5485, 38.5599], [139.5443, 38.5582], [139.5421, 38.5621], [139.5391, 38.558], [139.543, 38.5583], [139.5607, 38.5429], [139.5711, 38.5385], [139.5772, 38.5397], [139.5817, 38.5329], [139.5998, 38.522], [139.6215, 38.5255], [139.6313, 38.5221], [139.6373, 38.5114], [139.6533, 38.507], [139.6932, 38.5069], [139.7024, 38.4992], [139.7212, 38.4962], [139.7253, 38.4855], [139.7114, 38.4769], [139.7133, 38.4697], [139.719, 38.4663], [139.7152, 38.4594], [139.72, 38.4508], [139.7171, 38.4211], [139.7034, 38.4003], [139.7097, 38.3868], [139.7227, 38.3938], [139.7311, 38.3814], [139.7287, 38.3773], [139.7321, 38.3719], [139.7499, 38.3595], [139.7614, 38.3611], [139.7706, 38.353], [139.7852, 38.3528], [139.7901, 38.3488], [139.8042, 38.3554], [139.8166, 38.356], [139.8259, 38.3505], [139.8277, 38.3447], [139.8486, 38.3429], [139.8473, 38.3367], [139.8622, 38.3289], [139.8748, 38.3166], [139.8795, 38.3032], [139.8988, 38.293], [139.9, 38.2761], [139.8765, 38.2617], [139.8757, 38.2524], [139.8686, 38.248], [139.8603, 38.2312], [139.8108, 38.2114], [139.7862, 38.1926], [139.7759, 38.1982], [139.764, 38.199], [139.7549, 38.1932], [139.7388, 38.202], [139.731, 38.2009], [139.7216, 38.2059], [139.6987, 38.2029], [139.7026, 38.1994], [139.696, 38.1852], [139.6877, 38.1822], [139.6822, 38.1714], [139.6923, 38.1484], [139.6884, 38.1344], [139.6938, 38.1156], [139.6826, 38.1079], [139.68, 38.0953], [139.6718, 38.0843], [139.6729, 38.0771], [139.6906, 38.074], [139.6861, 38.0646], [139.6917, 38.0546], [139.6818, 38.0493], [139.68, 38.0429], [139.6572, 38.0367], [139.6523, 38.0215], [139.6543, 37.9962], [139.6437, 37.9953], [139.6394, 37.9856], [139.6444, 37.9795], [139.6381, 37.9697], [139.6453, 37.9625], [139.6401, 37.9527], [139.643, 37.9467], [139.6403, 37.9369], [139.6241, 37.9187], [139.6323, 37.8992], [139.6296, 37.8937], [139.6385, 37.88], [139.6578, 37.8719], [139.657, 37.8641], [139.6792, 37.8518], [139.681, 37.847], [139.6979, 37.8478], [139.7069, 37.8548], [139.7149, 37.8529], [139.7207, 37.8396], [139.7413, 37.8203], [139.7829, 37.8318], [139.7945, 37.8179], [139.8034, 37.8151], [139.8043, 37.8057], [139.8096, 37.8033], [139.8215, 37.8121], [139.8379, 37.8146], [139.8572, 37.8266], [139.8763, 37.817], [139.8796, 37.81], [139.8866, 37.809], [139.899, 37.8102], [139.907, 37.8153], [139.9247, 37.8134], [139.9302, 37.8224], [139.9283, 37.8277], [139.937, 37.8284], [139.945, 37.8192], [139.9579, 37.8149], [139.9621, 37.806], [139.9601, 37.796], [139.9686, 37.7885], [139.9673, 37.7839], [139.9732, 37.7759], [139.9789, 37.7736], [139.9781, 37.7662], [139.9925, 37.7587], [140.0372, 37.768], [140.0511, 37.7795], [140.0533, 37.7712], [140.0651, 37.7674], [140.0687, 37.758], [140.0858, 37.7579], [140.1037, 37.7369], [140.1276, 37.734], [140.1407, 37.7382], [140.1498, 37.7528], [140.1652, 37.7569], [140.1844, 37.7566], [140.1995, 37.7524], [140.2046, 37.7477], [140.2374, 37.7466], [140.2444, 37.7583], [140.2546, 37.7641], [140.266, 37.779], [140.2763, 37.7818], [140.2822, 37.7982], [140.2989, 37.8079], [140.2911, 37.8151], [140.2871, 37.8139], [140.2689, 37.824], [140.262, 37.8346], [140.2674, 37.8478], [140.2653, 37.8613], [140.2698, 37.8667], [140.2645, 37.8852], [140.2706, 37.8908], [140.2645, 37.9121], [140.2765, 37.9263], [140.281, 37.9416], [140.2753, 37.9473], [140.2781, 37.9527], [140.2721, 37.958], [140.2711, 37.967], [140.2799, 37.9767], [140.2747, 37.9824], [140.2763, 37.993], [140.29, 38.0075], [140.276, 38.0287], [140.2835, 38.0501], [140.277, 38.0562], [140.2885, 38.0593], [140.3026, 38.0536], [140.3156, 38.0584], [140.3197, 38.0553], [140.3346, 38.0563], [140.3446, 38.0533], [140.3556, 38.0585], [140.3735, 38.057], [140.3823, 38.064], [140.3831, 38.0713], [140.4022, 38.0697], [140.4179, 38.0807], [140.4213, 38.0881], [140.4172, 38.1029], [140.4255, 38.115], [140.4247, 38.1214], [140.4301, 38.1269], [140.4457, 38.1298], [140.444, 38.1415], [140.4528, 38.1514], [140.4672, 38.157], [140.4694, 38.1707], [140.4799, 38.1828], [140.4782, 38.1983], [140.471, 38.2133], [140.4743, 38.2242], [140.4675, 38.2325], [140.471, 38.2346], [140.4713, 38.2693], [140.488, 38.2744], [140.4968, 38.2831], [140.4925, 38.3021], [140.5021, 38.3053], [140.504, 38.3145], [140.5199, 38.3097], [140.5295, 38.321], [140.5216, 38.3498]]], [[[139.5482, 39.1885], [139.5647, 39.1985], [139.5465, 39.2107], [139.5452, 39.2047], [139.549, 39.2011], [139.5376, 39.1963], [139.5367, 39.1904], [139.544, 39.1819], [139.5505, 39.1834], [139.5469, 39.1842], [139.5482, 39.1885]]]]}, "properties": {"name": "山形県"}}]}