{"type": "FeatureCollection", "features": [{"type": "Feature", "geometry": {"type": "MultiPolygon", "coordinates": [[[[131.8677, 37.2374], [131.8725, 37.2384], [131.8724, 37.2429], [131.8645, 37.2456], [131.8613, 37.241], [131.8677, 37.2374]]], [[[132.9313, 35.516], [132.9252, 35.516], [132.9203, 35.518], [132.9206, 35.52], [132.9173, 35.5153], [132.9053, 35.5114], [132.8966, 35.5127], [132.8892, 35.5105], [132.8723, 35.5103], [132.8663, 35.5133], [132.8609, 35.5088], [132.8613, 35.5064], [132.8564, 35.5102], [132.8526, 35.5064], [132.8477, 35.5068], [132.8397, 35.5025], [132.8374, 35.5048], [132.8315, 35.5052], [132.8255, 35.4971], [132.8166, 35.4987], [132.8128, 35.4973], [132.8015, 35.4886], [132.8004, 35.4836], [132.7949, 35.4844], [132.7788, 35.4788], [132.7771, 35.4798], [132.779, 35.4805], [132.7754, 35.4808], [132.7714, 35.4779], [132.7583, 35.4753], [132.7531, 35.4772], [132.7521, 35.4739], [132.738, 35.4702], [132.7358, 35.4717], [132.7317, 35.4693], [132.7266, 35.4706], [132.7473, 35.4613], [132.7477, 35.4568], [132.7488, 35.4601], [132.7558, 35.4563], [132.7588, 35.4568], [132.7548, 35.452], [132.7577, 35.4504], [132.7534, 35.4475], [132.7501, 35.4475], [132.749, 35.4507], [132.7463, 35.4476], [132.7405, 35.4466], [132.7235, 35.4471], [132.7106, 35.4426], [132.7109, 35.441], [132.7091, 35.4429], [132.705, 35.4421], [132.7023, 35.4446], [132.7046, 35.447], [132.7015, 35.4463], [132.7013, 35.4487], [132.6932, 35.4507], [132.6919, 35.4484], [132.6847, 35.4513], [132.683, 35.4496], [132.688, 35.443], [132.6866, 35.4406], [132.6835, 35.4443], [132.6774, 35.4436], [132.6788, 35.4473], [132.6749, 35.4478], [132.6712, 35.446], [132.6714, 35.4456], [132.6727, 35.4452], [132.6729, 35.4449], [132.6741, 35.4445], [132.6744, 35.4441], [132.6744, 35.4418], [132.6738, 35.4445], [132.673, 35.4449], [132.6712, 35.445], [132.6711, 35.4433], [132.668, 35.4446], [132.6684, 35.4403], [132.6658, 35.4431], [132.6652, 35.4391], [132.665, 35.4449], [132.6611, 35.4412], [132.6585, 35.4448], [132.6592, 35.4397], [132.6573, 35.4418], [132.6552, 35.4401], [132.6531, 35.4416], [132.6514, 35.4387], [132.6503, 35.4415], [132.6483, 35.4394], [132.6504, 35.4378], [132.6417, 35.4415], [132.6415, 35.4394], [132.6476, 35.4357], [132.6452, 35.4329], [132.6414, 35.4348], [132.6417, 35.4313], [132.6344, 35.4317], [132.634, 35.4339], [132.629, 35.4348], [132.6283, 35.4284], [132.6235, 35.4253], [132.6253, 35.4238], [132.6231, 35.4232], [132.6228, 35.4185], [132.6309, 35.4172], [132.6357, 35.4191], [132.6399, 35.4161], [132.6446, 35.4162], [132.6497, 35.4108], [132.6559, 35.4109], [132.6641, 35.4026], [132.6665, 35.4036], [132.664, 35.401], [132.671, 35.4018], [132.6756, 35.3882], [132.6746, 35.3749], [132.6846, 35.3635], [132.6746, 35.3744], [132.6705, 35.3518], [132.6645, 35.3372], [132.6664, 35.3347], [132.6637, 35.338], [132.6621, 35.3299], [132.6519, 35.3128], [132.6285, 35.2879], [132.616, 35.2831], [132.6154, 35.2809], [132.5997, 35.2773], [132.602, 35.279], [132.5967, 35.2758], [132.5856, 35.2756], [132.5789, 35.2708], [132.5755, 35.2726], [132.5725, 35.2696], [132.5629, 35.2676], [132.5618, 35.2645], [132.5554, 35.2647], [132.5515, 35.2602], [132.5389, 35.2574], [132.5347, 35.2534], [132.5296, 35.2524], [132.527, 35.2443], [132.5298, 35.2443], [132.5265, 35.2414], [132.5087, 35.238], [132.5053, 35.2338], [132.5026, 35.2337], [132.5046, 35.2306], [132.5024, 35.229], [132.5018, 35.2314], [132.5012, 35.2274], [132.4974, 35.2265], [132.4917, 35.2307], [132.4854, 35.2301], [132.488, 35.2251], [132.485, 35.2204], [132.4671, 35.2172], [132.4664, 35.2161], [132.4664, 35.2155], [132.4657, 35.2145], [132.4665, 35.2155], [132.4667, 35.2165], [132.4676, 35.216], [132.4673, 35.215], [132.4677, 35.2158], [132.4685, 35.2147], [132.4659, 35.2136], [132.4677, 35.213], [132.4657, 35.2101], [132.4681, 35.2068], [132.4657, 35.2099], [132.4556, 35.2048], [132.4465, 35.1961], [132.4382, 35.195], [132.4301, 35.1899], [132.422, 35.1886], [132.4177, 35.1907], [132.4184, 35.1857], [132.4224, 35.187], [132.4201, 35.1854], [132.4222, 35.1832], [132.4159, 35.1838], [132.4157, 35.1801], [132.4137, 35.1803], [132.4166, 35.1768], [132.4062, 35.1741], [132.4028, 35.1693], [132.4042, 35.1667], [132.4015, 35.168], [132.4021, 35.1641], [132.4046, 35.164], [132.4042, 35.159], [132.3995, 35.158], [132.4029, 35.1585], [132.3986, 35.1543], [132.3994, 35.1574], [132.3936, 35.1558], [132.3931, 35.1548], [132.3945, 35.1531], [132.3974, 35.1537], [132.395, 35.1529], [132.3937, 35.1535], [132.3907, 35.1463], [132.3868, 35.1479], [132.3814, 35.1464], [132.3911, 35.1398], [132.3902, 35.1314], [132.3854, 35.1271], [132.3731, 35.126], [132.3757, 35.1233], [132.369, 35.1233], [132.3703, 35.1191], [132.3681, 35.1218], [132.3646, 35.1216], [132.3664, 35.1124], [132.365, 35.1141], [132.362, 35.1125], [132.3576, 35.1137], [132.3593, 35.1116], [132.3552, 35.1102], [132.3549, 35.1064], [132.3514, 35.1096], [132.3507, 35.1067], [132.3482, 35.1078], [132.3504, 35.105], [132.3489, 35.1034], [132.346, 35.1059], [132.3467, 35.1029], [132.3399, 35.1024], [132.3398, 35.0997], [132.3429, 35.1004], [132.3374, 35.0988], [132.3408, 35.0978], [132.339, 35.096], [132.3413, 35.0944], [132.3443, 35.0948], [132.3455, 35.0913], [132.3394, 35.0935], [132.3384, 35.0922], [132.3385, 35.0949], [132.3322, 35.0972], [132.3282, 35.0902], [132.3239, 35.0894], [132.3253, 35.0879], [132.3227, 35.0844], [132.3286, 35.0811], [132.328, 35.0778], [132.3257, 35.0752], [132.318, 35.0737], [132.3167, 35.0661], [132.3107, 35.0615], [132.3099, 35.057], [132.2985, 35.0506], [132.2935, 35.0521], [132.2934, 35.0494], [132.2856, 35.0484], [132.2739, 35.0409], [132.2623, 35.0381], [132.2548, 35.0415], [132.2526, 35.0383], [132.2368, 35.0353], [132.2313, 35.0308], [132.2343, 35.0369], [132.2313, 35.0336], [132.2312, 35.0246], [132.2285, 35.0214], [132.2315, 35.0188], [132.231, 35.0159], [132.2273, 35.0147], [132.2255, 35.0255], [132.2022, 35.0059], [132.1934, 35.0017], [132.1941, 34.9993], [132.1879, 34.9935], [132.1694, 34.9829], [132.1698, 34.9808], [132.1689, 34.9827], [132.1553, 34.9764], [132.1519, 34.9774], [132.1455, 34.9623], [132.1447, 34.964], [132.1215, 34.953], [132.122, 34.9514], [132.1212, 34.9529], [132.1156, 34.9508], [132.1124, 34.9531], [132.1102, 34.9477], [132.1045, 34.9454], [132.1062, 34.9459], [132.1091, 34.9385], [132.103, 34.9332], [132.1008, 34.934], [132.1009, 34.9315], [132.0939, 34.9347], [132.093, 34.9325], [132.0899, 34.9328], [132.0907, 34.931], [132.0846, 34.9308], [132.0834, 34.9288], [132.0858, 34.9264], [132.0828, 34.9258], [132.0812, 34.922], [132.0779, 34.9226], [132.0768, 34.9182], [132.0729, 34.9183], [132.0741, 34.9147], [132.0488, 34.9059], [132.0163, 34.8904], [132.0217, 34.872], [132.0067, 34.8672], [132.0069, 34.8632], [132.0155, 34.859], [132.008, 34.8472], [131.9938, 34.8423], [131.994, 34.8352], [131.9905, 34.833], [131.9904, 34.829], [131.9758, 34.8212], [131.9713, 34.8232], [131.9686, 34.8202], [131.9639, 34.8205], [131.9613, 34.8169], [131.9557, 34.816], [131.9415, 34.821], [131.9145, 34.7972], [131.9148, 34.7743], [131.904, 34.7756], [131.8994, 34.7742], [131.8972, 34.7757], [131.8934, 34.7693], [131.8941, 34.7627], [131.8913, 34.7622], [131.889, 34.7646], [131.89, 34.758], [131.8868, 34.7567], [131.8804, 34.7605], [131.8774, 34.7581], [131.8742, 34.7602], [131.8649, 34.7556], [131.8687, 34.7459], [131.8745, 34.7436], [131.8719, 34.7395], [131.8688, 34.7399], [131.8716, 34.7333], [131.862, 34.7232], [131.8544, 34.7224], [131.8561, 34.7194], [131.8489, 34.7113], [131.8212, 34.6968], [131.8283, 34.6932], [131.8299, 34.6857], [131.8272, 34.6864], [131.8252, 34.6922], [131.8194, 34.6931], [131.8199, 34.6965], [131.7977, 34.6883], [131.7385, 34.6744], [131.7249, 34.6735], [131.7229, 34.6772], [131.7154, 34.6731], [131.7094, 34.6758], [131.7034, 34.6724], [131.7021, 34.6749], [131.691, 34.6772], [131.6904, 34.6812], [131.6885, 34.6722], [131.684, 34.6688], [131.6897, 34.6633], [131.6888, 34.6571], [131.6953, 34.6562], [131.6948, 34.6491], [131.7004, 34.6491], [131.6972, 34.6436], [131.6983, 34.6316], [131.6942, 34.6277], [131.6948, 34.6207], [131.7066, 34.6129], [131.7097, 34.6126], [131.7104, 34.6145], [131.7184, 34.6134], [131.7168, 34.6054], [131.7215, 34.6016], [131.718, 34.5989], [131.72, 34.5829], [131.7257, 34.5802], [131.7276, 34.5764], [131.7244, 34.5721], [131.7169, 34.5704], [131.7132, 34.5627], [131.7029, 34.5652], [131.7055, 34.5596], [131.7009, 34.5512], [131.7058, 34.5448], [131.7009, 34.5372], [131.7066, 34.5326], [131.6879, 34.5213], [131.6866, 34.5175], [131.6815, 34.5185], [131.673, 34.5108], [131.6692, 34.5107], [131.6679, 34.5041], [131.6754, 34.501], [131.6798, 34.4933], [131.6822, 34.4931], [131.6823, 34.479], [131.6935, 34.4816], [131.6992, 34.4769], [131.6988, 34.4701], [131.694, 34.4655], [131.6955, 34.4547], [131.6991, 34.4522], [131.6971, 34.446], [131.694, 34.4441], [131.6974, 34.4353], [131.7026, 34.4358], [131.7129, 34.4286], [131.7226, 34.4289], [131.7291, 34.4326], [131.7378, 34.4287], [131.7416, 34.4293], [131.7451, 34.4352], [131.7554, 34.4403], [131.7574, 34.4393], [131.7563, 34.4365], [131.7619, 34.4339], [131.7707, 34.4372], [131.7769, 34.4348], [131.7938, 34.4364], [131.7942, 34.4254], [131.7874, 34.4139], [131.7848, 34.4001], [131.7786, 34.3984], [131.7738, 34.3934], [131.7727, 34.3873], [131.7635, 34.381], [131.7637, 34.3772], [131.7673, 34.3744], [131.7655, 34.3641], [131.7711, 34.356], [131.778, 34.3536], [131.7795, 34.3442], [131.7747, 34.3376], [131.7769, 34.3334], [131.7815, 34.3331], [131.788, 34.3288], [131.7927, 34.3292], [131.796, 34.3267], [131.7975, 34.3178], [131.8023, 34.317], [131.8062, 34.3125], [131.8161, 34.3106], [131.8199, 34.3027], [131.8234, 34.3053], [131.8315, 34.3028], [131.8341, 34.3112], [131.8408, 34.3084], [131.8451, 34.3109], [131.8506, 34.3067], [131.8601, 34.3047], [131.8694, 34.305], [131.8733, 34.3087], [131.8811, 34.3087], [131.8857, 34.311], [131.884, 34.3213], [131.8875, 34.3272], [131.8994, 34.3183], [131.9112, 34.3275], [131.9151, 34.3355], [131.9194, 34.3382], [131.9217, 34.3355], [131.9304, 34.3334], [131.9331, 34.328], [131.9455, 34.3236], [131.945, 34.3206], [131.9592, 34.3064], [131.9635, 34.3136], [131.9609, 34.321], [131.9627, 34.3232], [131.9702, 34.3235], [131.9754, 34.3319], [131.9742, 34.3415], [131.9807, 34.3435], [131.9821, 34.3498], [131.9896, 34.3525], [131.9981, 34.3649], [132.0015, 34.3663], [132.0075, 34.3647], [132.012, 34.3672], [132.0137, 34.3821], [132.0075, 34.3862], [132.0072, 34.3906], [132.0012, 34.396], [131.9976, 34.4071], [131.99, 34.4141], [131.9984, 34.4287], [132.0057, 34.4322], [132.0098, 34.4313], [132.0162, 34.4376], [132.0155, 34.452], [132.0252, 34.4624], [132.0346, 34.4634], [132.0392, 34.4689], [132.0479, 34.4694], [132.0506, 34.4661], [132.0639, 34.4688], [132.0687, 34.4674], [132.0648, 34.4759], [132.0573, 34.4824], [132.0598, 34.4921], [132.0522, 34.4989], [132.039, 34.4995], [132.0366, 34.5022], [132.0488, 34.5154], [132.0477, 34.5215], [132.0525, 34.53], [132.058, 34.5295], [132.0639, 34.5341], [132.0836, 34.5374], [132.1003, 34.5552], [132.1137, 34.5627], [132.1192, 34.5729], [132.1184, 34.5783], [132.1261, 34.5832], [132.1252, 34.5884], [132.13, 34.5966], [132.1179, 34.6018], [132.1166, 34.607], [132.1165, 34.6122], [132.1216, 34.6174], [132.1216, 34.6217], [132.1303, 34.6293], [132.1275, 34.6419], [132.1336, 34.6441], [132.1337, 34.6482], [132.1373, 34.6484], [132.1373, 34.652], [132.1475, 34.662], [132.1472, 34.6663], [132.1553, 34.6764], [132.1547, 34.679], [132.1619, 34.6832], [132.1583, 34.6925], [132.1442, 34.6939], [132.1423, 34.6915], [132.1293, 34.6995], [132.132, 34.7025], [132.1304, 34.708], [132.1358, 34.7072], [132.1415, 34.7101], [132.1431, 34.7161], [132.1513, 34.718], [132.1553, 34.723], [132.1739, 34.7312], [132.1782, 34.7368], [132.1893, 34.7338], [132.1917, 34.7372], [132.1964, 34.7383], [132.1956, 34.7444], [132.2024, 34.7486], [132.2101, 34.7449], [132.2219, 34.7491], [132.2247, 34.7574], [132.2221, 34.7602], [132.2269, 34.7652], [132.2251, 34.77], [132.2287, 34.771], [132.2291, 34.7733], [132.2344, 34.7737], [132.2327, 34.776], [132.2427, 34.7832], [132.2412, 34.7877], [132.2435, 34.799], [132.2396, 34.7993], [132.2382, 34.8017], [132.2421, 34.8063], [132.2596, 34.8068], [132.2667, 34.8029], [132.2695, 34.7984], [132.278, 34.799], [132.2746, 34.7917], [132.2794, 34.79], [132.2801, 34.7837], [132.2981, 34.7766], [132.3007, 34.7846], [132.3066, 34.7895], [132.306, 34.7934], [132.3185, 34.8016], [132.3232, 34.7936], [132.3346, 34.7901], [132.3472, 34.7936], [132.352, 34.7981], [132.3566, 34.797], [132.361, 34.8002], [132.3738, 34.8011], [132.3831, 34.7948], [132.3815, 34.786], [132.3881, 34.7826], [132.3933, 34.7836], [132.3966, 34.7794], [132.4146, 34.7979], [132.4242, 34.7985], [132.4243, 34.807], [132.4209, 34.8136], [132.4276, 34.8132], [132.4367, 34.8209], [132.4458, 34.8152], [132.4454, 34.8128], [132.4566, 34.8074], [132.4566, 34.8044], [132.4532, 34.8028], [132.4543, 34.8007], [132.4577, 34.8024], [132.4716, 34.8023], [132.4838, 34.7971], [132.495, 34.8015], [132.5049, 34.796], [132.5112, 34.8013], [132.5193, 34.804], [132.5381, 34.7949], [132.5433, 34.7964], [132.5464, 34.8025], [132.5541, 34.8082], [132.5674, 34.8062], [132.5686, 34.8112], [132.5823, 34.817], [132.586, 34.8232], [132.5903, 34.8214], [132.5922, 34.8274], [132.5992, 34.8337], [132.6038, 34.8307], [132.6122, 34.8331], [132.6106, 34.8378], [132.6145, 34.8432], [132.6309, 34.8433], [132.6327, 34.8402], [132.6361, 34.8392], [132.6369, 34.8409], [132.6438, 34.8376], [132.6523, 34.8404], [132.6532, 34.8369], [132.6624, 34.8322], [132.6697, 34.8329], [132.6724, 34.8454], [132.6803, 34.8518], [132.6915, 34.8506], [132.693, 34.8444], [132.6986, 34.8431], [132.7108, 34.8507], [132.7014, 34.8815], [132.6805, 34.8846], [132.675, 34.8945], [132.6636, 34.8899], [132.6598, 34.8914], [132.6553, 34.8997], [132.6354, 34.8988], [132.634, 34.9048], [132.6411, 34.9037], [132.6431, 34.9093], [132.6479, 34.9112], [132.6513, 34.9206], [132.6609, 34.9233], [132.6666, 34.9307], [132.6761, 34.933], [132.6852, 34.9507], [132.6984, 34.9536], [132.7023, 34.9515], [132.7071, 34.9553], [132.7142, 34.9535], [132.7204, 34.9481], [132.7274, 34.9528], [132.7275, 34.9563], [132.7376, 34.9599], [132.7387, 34.9623], [132.7408, 34.9567], [132.7496, 34.9602], [132.7495, 34.9659], [132.7533, 34.9667], [132.7453, 34.9768], [132.7487, 34.9789], [132.756, 34.9773], [132.7686, 34.9838], [132.7653, 34.9892], [132.767, 34.9913], [132.7634, 34.9929], [132.7657, 34.9967], [132.7765, 34.9985], [132.7813, 35.0032], [132.7877, 35.0047], [132.7886, 35.0157], [132.8088, 35.0286], [132.8137, 35.0405], [132.8275, 35.0471], [132.8314, 35.0456], [132.8366, 35.047], [132.8377, 35.0515], [132.8279, 35.0624], [132.8388, 35.0707], [132.8485, 35.0835], [132.8587, 35.0893], [132.861, 35.0955], [132.8727, 35.1021], [132.8771, 35.1016], [132.8884, 35.1057], [132.8954, 35.1049], [132.9096, 35.0861], [132.9239, 35.0842], [132.9261, 35.0808], [132.9341, 35.084], [132.9502, 35.0754], [132.9741, 35.0827], [132.9798, 35.0867], [132.9787, 35.0912], [132.9827, 35.0979], [132.9909, 35.1013], [132.9924, 35.0982], [133.0003, 35.0973], [133.0036, 35.0903], [133.0145, 35.0878], [133.0164, 35.0783], [133.0253, 35.0776], [133.0335, 35.068], [133.0437, 35.0675], [133.0523, 35.07], [133.0603, 35.0814], [133.068, 35.0795], [133.0728, 35.0821], [133.0858, 35.078], [133.096, 35.0853], [133.1015, 35.0824], [133.1068, 35.0824], [133.1126, 35.0857], [133.113, 35.0839], [133.119, 35.0848], [133.1255, 35.081], [133.1274, 35.0765], [133.1336, 35.0764], [133.1363, 35.074], [133.1409, 35.0757], [133.1397, 35.0791], [133.143, 35.0807], [133.1374, 35.0851], [133.1365, 35.0907], [133.141, 35.0976], [133.1398, 35.1], [133.1456, 35.1053], [133.14, 35.1179], [133.1466, 35.1236], [133.145, 35.1314], [133.1482, 35.1398], [133.1575, 35.149], [133.166, 35.149], [133.1706, 35.1535], [133.1837, 35.1566], [133.1914, 35.1624], [133.1949, 35.1698], [133.1893, 35.1846], [133.1813, 35.1877], [133.1846, 35.1952], [133.181, 35.2025], [133.1685, 35.2094], [133.1552, 35.203], [133.1526, 35.2041], [133.1524, 35.2189], [133.1722, 35.2272], [133.1719, 35.229], [133.1816, 35.2344], [133.1897, 35.2369], [133.1926, 35.2359], [133.2061, 35.2421], [133.2122, 35.2417], [133.2224, 35.2489], [133.232, 35.2466], [133.2433, 35.2504], [133.2537, 35.2601], [133.2585, 35.2614], [133.2645, 35.2584], [133.2758, 35.2579], [133.2823, 35.2624], [133.2916, 35.2608], [133.2956, 35.2641], [133.3026, 35.2631], [133.3106, 35.2679], [133.3074, 35.2817], [133.2995, 35.2918], [133.3069, 35.3034], [133.3023, 35.3056], [133.2924, 35.3191], [133.2985, 35.325], [133.2956, 35.3279], [133.2972, 35.3382], [133.2952, 35.3467], [133.3077, 35.3658], [133.3161, 35.3656], [133.3193, 35.3692], [133.3185, 35.3734], [133.3244, 35.374], [133.314, 35.3879], [133.3153, 35.3919], [133.3214, 35.3961], [133.3214, 35.4078], [133.3087, 35.4308], [133.3006, 35.4363], [133.272, 35.4462], [133.2224, 35.4803], [133.1982, 35.5292], [133.201, 35.5352], [133.2211, 35.5474], [133.2446, 35.5491], [133.248, 35.5517], [133.2648, 35.5555], [133.3081, 35.5583], [133.3065, 35.5604], [133.3084, 35.5626], [133.3108, 35.5612], [133.3091, 35.5583], [133.3266, 35.5677], [133.3155, 35.5694], [133.3073, 35.576], [133.3048, 35.571], [133.3001, 35.5743], [133.298, 35.5706], [133.2972, 35.5757], [133.2928, 35.5757], [133.2938, 35.5777], [133.291, 35.5775], [133.2925, 35.5757], [133.2903, 35.5737], [133.2866, 35.5743], [133.2847, 35.5773], [133.28, 35.577], [133.2805, 35.5712], [133.277, 35.5747], [133.2735, 35.5734], [133.275, 35.5765], [133.2703, 35.5788], [133.27, 35.577], [133.2664, 35.5774], [133.2655, 35.5721], [133.2642, 35.5746], [133.2591, 35.5751], [133.256, 35.5695], [133.2498, 35.5707], [133.2539, 35.5726], [133.2532, 35.5757], [133.2495, 35.5752], [133.2497, 35.5727], [133.247, 35.5731], [133.2447, 35.5702], [133.2368, 35.5699], [133.2357, 35.5755], [133.2351, 35.5725], [133.2243, 35.5703], [133.2239, 35.5731], [133.2279, 35.5749], [133.2259, 35.5757], [133.2315, 35.576], [133.2349, 35.5796], [133.2281, 35.5776], [133.2264, 35.5806], [133.2202, 35.5777], [133.2181, 35.5815], [133.2156, 35.5796], [133.2169, 35.5756], [133.2134, 35.5755], [133.2164, 35.5704], [133.212, 35.5703], [133.2118, 35.5672], [133.1982, 35.5705], [133.1971, 35.5677], [133.1951, 35.5681], [133.1972, 35.5779], [133.1932, 35.5769], [133.192, 35.5804], [133.1912, 35.5775], [133.1898, 35.5791], [133.1871, 35.5779], [133.19, 35.5741], [133.187, 35.5722], [133.1897, 35.572], [133.192, 35.5623], [133.1881, 35.562], [133.1895, 35.5645], [133.1847, 35.5637], [133.1851, 35.5659], [133.1825, 35.5654], [133.1846, 35.5671], [133.1807, 35.5662], [133.1802, 35.5693], [133.1789, 35.5673], [133.1748, 35.5688], [133.1756, 35.5645], [133.1726, 35.5654], [133.1707, 35.5637], [133.1702, 35.5663], [133.1663, 35.5633], [133.1645, 35.5714], [133.161, 35.572], [133.1562, 35.5655], [133.1599, 35.5627], [133.1575, 35.5623], [133.1581, 35.5639], [133.156, 35.5606], [133.1545, 35.5634], [133.1513, 35.5595], [133.1485, 35.562], [133.1416, 35.5604], [133.1388, 35.5632], [133.1405, 35.5676], [133.1344, 35.5714], [133.1327, 35.577], [133.1297, 35.5772], [133.1409, 35.5793], [133.1396, 35.5815], [133.1287, 35.5802], [133.1246, 35.5763], [133.1248, 35.5786], [133.1226, 35.5778], [133.1178, 35.5806], [133.1195, 35.5813], [133.1194, 35.5845], [133.1188, 35.5823], [133.1172, 35.5844], [133.1187, 35.5845], [133.1122, 35.589], [133.1131, 35.5906], [133.1148, 35.5894], [133.1119, 35.5977], [133.1073, 35.5958], [133.1053, 35.5987], [133.0981, 35.5979], [133.0974, 35.6035], [133.0948, 35.6045], [133.0837, 35.6012], [133.086, 35.5985], [133.0891, 35.5989], [133.0903, 35.5961], [133.093, 35.5982], [133.0933, 35.5911], [133.0981, 35.5902], [133.0971, 35.5875], [133.0897, 35.5878], [133.094, 35.5866], [133.0936, 35.5835], [133.098, 35.5829], [133.0971, 35.5789], [133.0927, 35.5783], [133.0893, 35.5816], [133.0843, 35.5798], [133.07, 35.5842], [133.0675, 35.5828], [133.0673, 35.5759], [133.0649, 35.58], [133.0597, 35.5822], [133.0542, 35.5775], [133.0475, 35.578], [133.0489, 35.5751], [133.0604, 35.5722], [133.0602, 35.5648], [133.0533, 35.564], [133.0524, 35.5669], [133.0548, 35.5688], [133.0514, 35.5689], [133.0515, 35.5662], [133.0504, 35.5684], [133.0484, 35.5676], [133.0546, 35.5622], [133.0511, 35.559], [133.0466, 35.5597], [133.0502, 35.5564], [133.0481, 35.5541], [133.0405, 35.5546], [133.0404, 35.5598], [133.0346, 35.559], [133.0345, 35.5568], [133.0316, 35.5577], [133.034, 35.5558], [133.0315, 35.5533], [133.0284, 35.5551], [133.0257, 35.5518], [133.029, 35.5504], [133.0314, 35.5431], [133.0281, 35.5384], [133.0255, 35.541], [133.0212, 35.5397], [133.0202, 35.5415], [133.0135, 35.5419], [133.0145, 35.5395], [133.0098, 35.5375], [133.0017, 35.5425], [132.9985, 35.5395], [132.9992, 35.5425], [132.9953, 35.5438], [132.9933, 35.5419], [132.9897, 35.5474], [132.9895, 35.543], [132.9857, 35.546], [132.984, 35.5444], [132.9827, 35.547], [132.9816, 35.5452], [132.9779, 35.5458], [132.9818, 35.5421], [132.9802, 35.5407], [132.9756, 35.5405], [132.9749, 35.5432], [132.9704, 35.5445], [132.9674, 35.5418], [132.9693, 35.5407], [132.9664, 35.541], [132.9697, 35.5389], [132.9678, 35.536], [132.9699, 35.5322], [132.9673, 35.5317], [132.9664, 35.5254], [132.9685, 35.5291], [132.9716, 35.5277], [132.9713, 35.5253], [132.9743, 35.5277], [132.9744, 35.5219], [132.9716, 35.5246], [132.9727, 35.522], [132.9754, 35.5216], [132.9727, 35.5169], [132.965, 35.5147], [132.9542, 35.519], [132.9417, 35.5166], [132.9396, 35.5145], [132.934, 35.5171], [132.9313, 35.516]]], [[[133.119, 35.5893], [133.1246, 35.5874], [133.124, 35.5928], [133.1286, 35.5959], [133.1239, 35.5962], [133.119, 35.5893]]], [[[133.2411, 35.5819], [133.2357, 35.5809], [133.2352, 35.579], [133.2432, 35.5786], [133.2418, 35.5804], [133.2451, 35.5815], [133.2411, 35.5819]]], [[[133.213, 35.5776], [133.2105, 35.5758], [133.2132, 35.5755], [133.213, 35.5776]]], [[[131.8344, 34.8371], [131.8297, 34.8367], [131.8313, 34.8347], [131.842, 34.8342], [131.8415, 34.836], [131.8344, 34.8371]]], [[[132.3997, 35.1706], [132.3996, 35.1686], [132.4017, 35.1698], [132.3997, 35.1706]]], [[[132.2824, 35.0504], [132.284, 35.0511], [132.2822, 35.0521], [132.2824, 35.0504]]], [[[133.0713, 36.0838], [133.0719, 36.0807], [133.0749, 36.081], [133.0722, 36.0796], [133.0746, 36.0777], [133.0678, 36.0766], [133.0685, 36.0739], [133.0716, 36.0729], [133.0766, 36.0752], [133.0799, 36.0687], [133.076, 36.0661], [133.0745, 36.0673], [133.0748, 36.0635], [133.0784, 36.0621], [133.0734, 36.0604], [133.0742, 36.0577], [133.0703, 36.0591], [133.0725, 36.0502], [133.0702, 36.0497], [133.0712, 36.0457], [133.0682, 36.0421], [133.0705, 36.0382], [133.0685, 36.0348], [133.083, 36.0407], [133.0763, 36.0423], [133.0758, 36.0449], [133.079, 36.0454], [133.0789, 36.0432], [133.0807, 36.0469], [133.0871, 36.0455], [133.089, 36.0482], [133.0884, 36.0513], [133.0855, 36.0499], [133.0873, 36.0528], [133.0972, 36.0493], [133.1038, 36.05], [133.1049, 36.0533], [133.0995, 36.0527], [133.096, 36.0572], [133.1044, 36.0581], [133.1, 36.0611], [133.1076, 36.0607], [133.1082, 36.0641], [133.097, 36.0724], [133.1016, 36.0725], [133.1015, 36.0699], [133.1167, 36.0643], [133.116, 36.069], [133.1182, 36.0707], [133.1149, 36.0727], [133.1174, 36.0739], [133.1158, 36.0777], [133.113, 36.0786], [133.1179, 36.0792], [133.1232, 36.0744], [133.1281, 36.0771], [133.1284, 36.0742], [133.1319, 36.0736], [133.1317, 36.0767], [133.1341, 36.0767], [133.1378, 36.0824], [133.1408, 36.0816], [133.1447, 36.0748], [133.1526, 36.0746], [133.1458, 36.0795], [133.1456, 36.0824], [133.1349, 36.0864], [133.1308, 36.0855], [133.1323, 36.0829], [133.1179, 36.0823], [133.1175, 36.0847], [133.1227, 36.0849], [133.1251, 36.0873], [133.1236, 36.0895], [133.1274, 36.0902], [133.1263, 36.0982], [133.1359, 36.1021], [133.1303, 36.106], [133.1264, 36.1054], [133.1292, 36.1088], [133.1324, 36.1102], [133.1341, 36.1087], [133.1323, 36.1112], [133.1261, 36.1109], [133.123, 36.1148], [133.1146, 36.1147], [133.1162, 36.1174], [133.1103, 36.1173], [133.1146, 36.1187], [133.112, 36.1201], [133.1047, 36.1168], [133.0932, 36.1177], [133.0904, 36.1112], [133.0974, 36.11], [133.0968, 36.1078], [133.0918, 36.109], [133.0958, 36.106], [133.0904, 36.1031], [133.0923, 36.1019], [133.0907, 36.0962], [133.0861, 36.0976], [133.0882, 36.1001], [133.0853, 36.1037], [133.0886, 36.1082], [133.083, 36.1143], [133.0798, 36.1124], [133.0812, 36.1099], [133.0773, 36.1088], [133.081, 36.107], [133.0813, 36.1025], [133.0768, 36.1026], [133.0778, 36.105], [133.0752, 36.1065], [133.0711, 36.1056], [133.0688, 36.1003], [133.0643, 36.101], [133.0655, 36.0937], [133.0693, 36.0917], [133.068, 36.0895], [133.0727, 36.0853], [133.0713, 36.0838]]], [[[133.1637, 36.1147], [133.1561, 36.1047], [133.1624, 36.1032], [133.1655, 36.0996], [133.1685, 36.1009], [133.1689, 36.1056], [133.1651, 36.1062], [133.1676, 36.1123], [133.1637, 36.1147]]], [[[133.1364, 36.0702], [133.1363, 36.0672], [133.1381, 36.0687], [133.1364, 36.0702]]], [[[133.0501, 36.1295], [133.0441, 36.1275], [133.0462, 36.1306], [133.0442, 36.1308], [133.0435, 36.1351], [133.0362, 36.1349], [133.0281, 36.1384], [133.0259, 36.1371], [133.0273, 36.1357], [133.0226, 36.1341], [133.0147, 36.1376], [133.0125, 36.1354], [133.013, 36.1161], [133.0066, 36.1125], [133.0066, 36.108], [133.003, 36.1086], [133.0045, 36.1102], [132.9996, 36.1141], [132.9945, 36.1144], [132.9912, 36.1133], [132.9899, 36.1092], [132.9846, 36.1081], [132.9872, 36.1115], [132.9861, 36.1163], [132.9821, 36.1173], [132.9802, 36.1134], [132.9778, 36.1148], [132.9766, 36.1103], [132.9618, 36.097], [132.9644, 36.0979], [132.9654, 36.0954], [132.9696, 36.0954], [132.9685, 36.0925], [132.9558, 36.0904], [132.9548, 36.0861], [132.951, 36.0855], [132.9506, 36.0801], [132.946, 36.0799], [132.9483, 36.0763], [132.9539, 36.0767], [132.9462, 36.0649], [132.9554, 36.065], [132.9498, 36.0623], [132.9551, 36.0586], [132.9625, 36.0603], [132.9733, 36.0574], [132.9748, 36.0527], [132.9861, 36.0491], [132.9896, 36.0435], [132.9984, 36.038], [133.0009, 36.0438], [132.9945, 36.0493], [132.9939, 36.0559], [132.9883, 36.0655], [132.9859, 36.0652], [132.983, 36.0689], [132.9853, 36.0698], [132.9807, 36.0765], [132.983, 36.0786], [132.9788, 36.0792], [132.9765, 36.0839], [132.9857, 36.0933], [132.985, 36.0866], [132.9918, 36.0837], [132.9902, 36.0927], [132.9977, 36.0904], [133.0007, 36.0932], [133.001, 36.0917], [133.0056, 36.0932], [133.0081, 36.0987], [133.0062, 36.1055], [133.0122, 36.1003], [133.0133, 36.0957], [133.0053, 36.0902], [133.0082, 36.0864], [133.0056, 36.0825], [133.0106, 36.0782], [133.0075, 36.0741], [133.015, 36.0739], [133.0223, 36.0633], [133.0303, 36.065], [133.0336, 36.0633], [133.0362, 36.0653], [133.0376, 36.0623], [133.0462, 36.0609], [133.0473, 36.0666], [133.0507, 36.0659], [133.0529, 36.0693], [133.0506, 36.0788], [133.0573, 36.083], [133.0501, 36.0961], [133.0445, 36.0955], [133.0463, 36.0991], [133.04, 36.1049], [133.0402, 36.1073], [133.0435, 36.1067], [133.041, 36.1097], [133.0478, 36.113], [133.0537, 36.1117], [133.0637, 36.1126], [133.0659, 36.1147], [133.0705, 36.1137], [133.0839, 36.1254], [133.0878, 36.1257], [133.0862, 36.1295], [133.0887, 36.1301], [133.0877, 36.1323], [133.0901, 36.1325], [133.0904, 36.1374], [133.0932, 36.1391], [133.0885, 36.137], [133.0804, 36.1378], [133.0818, 36.1421], [133.07, 36.14], [133.0692, 36.1427], [133.0658, 36.1356], [133.0585, 36.1316], [133.0565, 36.1272], [133.0545, 36.1271], [133.0551, 36.1321], [133.0501, 36.1295]]], [[[133.0541, 36.0021], [133.048, 36.0013], [133.0483, 35.9988], [133.0511, 35.9984], [133.0487, 35.9965], [133.0506, 35.9965], [133.0501, 35.9932], [133.0541, 36.0021]]], [[[133.0797, 35.9969], [133.076, 35.9997], [133.0773, 35.9933], [133.0797, 35.9969]]], [[[133.0391, 35.997], [133.0394, 35.9945], [133.0418, 35.9951], [133.0391, 35.997]]], [[[133.0044, 36.0328], [132.9995, 36.0312], [133.001, 36.0267], [133.0072, 36.0234], [133.0018, 36.0214], [133.0078, 36.0186], [133.0035, 36.0143], [133.0098, 36.0099], [133.0059, 36.0036], [133.0118, 36.0022], [133.0246, 36.0069], [133.0298, 36], [133.0307, 36.0059], [133.0331, 36.0064], [133.0382, 36.0007], [133.0418, 36.0131], [133.0434, 36.0099], [133.0485, 36.0087], [133.0455, 36.0064], [133.047, 36.0045], [133.0539, 36.0031], [133.0578, 36.0051], [133.0552, 35.9987], [133.057, 35.9947], [133.0656, 35.9959], [133.0645, 36.0047], [133.0663, 36.007], [133.0694, 36.0061], [133.073, 36.0106], [133.0656, 36.012], [133.062, 36.0102], [133.0549, 36.0128], [133.0425, 36.0205], [133.0408, 36.0271], [133.0411, 36.0229], [133.0358, 36.0284], [133.0303, 36.0288], [133.027, 36.0324], [133.0232, 36.0296], [133.0044, 36.0328]]], [[[133.3347, 36.2023], [133.3402, 36.1987], [133.3392, 36.1958], [133.3491, 36.196], [133.353, 36.1999], [133.3562, 36.1998], [133.3546, 36.2035], [133.3599, 36.2026], [133.3702, 36.2059], [133.3715, 36.2215], [133.3755, 36.2243], [133.3739, 36.2257], [133.3776, 36.2304], [133.3766, 36.2416], [133.3731, 36.2427], [133.3758, 36.2482], [133.3725, 36.2507], [133.3753, 36.2514], [133.3777, 36.2585], [133.3763, 36.2621], [133.3823, 36.2641], [133.386, 36.27], [133.3759, 36.2704], [133.3792, 36.2766], [133.3737, 36.2775], [133.3714, 36.2819], [133.3687, 36.2785], [133.3665, 36.2807], [133.3645, 36.2784], [133.3625, 36.2794], [133.3599, 36.284], [133.3638, 36.2902], [133.3581, 36.2887], [133.3562, 36.2921], [133.359, 36.2955], [133.3626, 36.294], [133.3641, 36.2973], [133.3601, 36.2988], [133.3577, 36.2975], [133.3568, 36.2994], [133.3448, 36.2974], [133.3447, 36.3013], [133.3399, 36.3033], [133.3411, 36.3062], [133.337, 36.3065], [133.3438, 36.3108], [133.339, 36.3102], [133.3353, 36.3131], [133.3248, 36.3088], [133.3257, 36.3159], [133.3217, 36.3155], [133.3182, 36.3201], [133.3209, 36.3279], [133.3091, 36.3193], [133.3057, 36.3236], [133.3087, 36.324], [133.3097, 36.3289], [133.3062, 36.3295], [133.3029, 36.3255], [133.2978, 36.3275], [133.2957, 36.3339], [133.2935, 36.3326], [133.2877, 36.3367], [133.2826, 36.3483], [133.2761, 36.3488], [133.2809, 36.3453], [133.2802, 36.3408], [133.271, 36.3323], [133.2642, 36.3314], [133.2637, 36.3281], [133.2595, 36.33], [133.2568, 36.3275], [133.2526, 36.3289], [133.2532, 36.3326], [133.2472, 36.3345], [133.232, 36.3284], [133.2247, 36.3288], [133.2256, 36.3227], [133.2289, 36.3204], [133.2312, 36.3214], [133.2294, 36.3203], [133.2322, 36.318], [133.2252, 36.3135], [133.2163, 36.3148], [133.2141, 36.3109], [133.2071, 36.3088], [133.212, 36.3031], [133.21, 36.3003], [133.207, 36.3013], [133.2011, 36.2987], [133.1999, 36.3013], [133.1961, 36.3017], [133.1943, 36.2915], [133.1911, 36.2906], [133.194, 36.2889], [133.2048, 36.2915], [133.2114, 36.288], [133.2159, 36.29], [133.2142, 36.2875], [133.2023, 36.2891], [133.1987, 36.286], [133.2049, 36.2799], [133.1984, 36.2794], [133.1884, 36.2885], [133.1827, 36.2898], [133.1792, 36.2881], [133.1884, 36.2832], [133.1862, 36.2672], [133.1881, 36.266], [133.1861, 36.2671], [133.1821, 36.2607], [133.178, 36.259], [133.1775, 36.2503], [133.1887, 36.2493], [133.1928, 36.245], [133.1893, 36.2352], [133.1907, 36.2309], [133.1837, 36.2242], [133.1854, 36.2147], [133.1825, 36.2119], [133.1846, 36.2108], [133.1935, 36.2145], [133.1951, 36.2111], [133.2037, 36.2107], [133.2045, 36.2082], [133.2088, 36.2093], [133.2087, 36.1978], [133.2239, 36.1885], [133.2389, 36.1916], [133.2448, 36.1901], [133.2458, 36.1835], [133.243, 36.182], [133.2386, 36.1833], [133.2369, 36.1798], [133.2379, 36.1773], [133.2416, 36.1771], [133.241, 36.1752], [133.2364, 36.1705], [133.2304, 36.1697], [133.2345, 36.1697], [133.2373, 36.1656], [133.2384, 36.1675], [133.2424, 36.166], [133.2413, 36.1673], [133.2479, 36.1707], [133.2432, 36.1754], [133.2456, 36.1773], [133.2533, 36.1714], [133.2481, 36.1662], [133.248, 36.1597], [133.2562, 36.1654], [133.2589, 36.1732], [133.2594, 36.1695], [133.2638, 36.1718], [133.2583, 36.1645], [133.2603, 36.1634], [133.268, 36.1692], [133.2781, 36.1697], [133.2784, 36.179], [133.2763, 36.1803], [133.279, 36.1881], [133.2825, 36.1864], [133.2798, 36.1822], [133.2812, 36.175], [133.2829, 36.1747], [133.2825, 36.1786], [133.2849, 36.1786], [133.2878, 36.1708], [133.2914, 36.1712], [133.2886, 36.1791], [133.2914, 36.1798], [133.2946, 36.1757], [133.2959, 36.1787], [133.301, 36.1765], [133.3032, 36.1715], [133.3082, 36.1733], [133.3089, 36.1761], [133.311, 36.1722], [133.3252, 36.1674], [133.3409, 36.1697], [133.3366, 36.1819], [133.3385, 36.1878], [133.3343, 36.1923], [133.3358, 36.1972], [133.3301, 36.1974], [133.3267, 36.2007], [133.3228, 36.1998], [133.3213, 36.196], [133.3158, 36.1992], [133.3095, 36.1996], [133.3101, 36.1934], [133.3062, 36.1988], [133.3165, 36.2052], [133.3227, 36.2022], [133.3269, 36.2042], [133.3297, 36.2008], [133.3347, 36.2023]]], [[[133.2805, 36.3507], [133.2813, 36.3558], [133.2787, 36.3517], [133.2805, 36.3507]]], [[[133.2763, 36.349], [133.2765, 36.351], [133.2746, 36.3506], [133.2763, 36.349]]], [[[133.1783, 36.1377], [133.1746, 36.1403], [133.1728, 36.1356], [133.1684, 36.1331], [133.1728, 36.1332], [133.1783, 36.1377]]], [[[133.2549, 36.1578], [133.2532, 36.1601], [133.2524, 36.1559], [133.2549, 36.1578]]]]}, "properties": {"name": "島根県"}}]}