{"type": "FeatureCollection", "features": [{"type": "Feature", "geometry": {"type": "Polygon", "coordinates": [[[140.0609, 39.6866], [140.0633, 39.6439], [140.0541, 39.5539], [140.0254, 39.4192], [140.0168, 39.3952], [140.0095, 39.3911], [140.014, 39.3886], [140.0136, 39.3822], [139.9991, 39.3462], [139.9937, 39.3379], [139.9935, 39.3409], [139.9818, 39.3138], [139.9688, 39.2973], [139.9646, 39.2941], [139.9589, 39.2961], [139.9596, 39.2926], [139.9578, 39.2958], [139.9569, 39.2922], [139.9464, 39.2891], [139.9284, 39.2884], [139.9157, 39.2757], [139.9112, 39.266], [139.9117, 39.2615], [139.9107, 39.2624], [139.91, 39.2591], [139.9076, 39.2584], [139.9076, 39.2543], [139.9082, 39.2586], [139.91, 39.2588], [139.9105, 39.2551], [139.9147, 39.2567], [139.9097, 39.2543], [139.9136, 39.2531], [139.9161, 39.2467], [139.9134, 39.2479], [139.9141, 39.2438], [139.9033, 39.2251], [139.8962, 39.2183], [139.8966, 39.2144], [139.8926, 39.213], [139.8947, 39.2113], [139.892, 39.2129], [139.8926, 39.2024], [139.8962, 39.2005], [139.8941, 39.2036], [139.8973, 39.2031], [139.9049, 39.1977], [139.9044, 39.179], [139.8948, 39.156], [139.8832, 39.1452], [139.8815, 39.1391], [139.885, 39.1338], [139.8771, 39.1252], [139.8786, 39.1221], [139.8695, 39.1182], [139.9064, 39.1188], [139.9463, 39.1128], [139.9486, 39.1169], [139.9944, 39.1056], [139.9976, 39.1158], [140.0078, 39.1231], [140.0624, 39.1336], [140.0616, 39.1114], [140.0672, 39.0991], [140.0627, 39.0925], [140.0759, 39.0861], [140.096, 39.085], [140.1145, 39.0784], [140.1169, 39.0683], [140.1276, 39.0631], [140.1379, 39.0657], [140.1521, 39.0484], [140.1573, 39.0491], [140.1623, 39.0543], [140.171, 39.0512], [140.1751, 39.0575], [140.1877, 39.0586], [140.1888, 39.0616], [140.198, 39.0613], [140.2047, 39.0535], [140.2006, 39.0355], [140.2179, 39.0331], [140.2269, 39.0273], [140.2452, 39.0309], [140.2512, 39.0278], [140.2606, 39.0352], [140.2661, 39.0313], [140.2707, 39.0326], [140.2865, 39.0281], [140.2939, 39.0183], [140.3106, 39.0136], [140.3187, 39.0252], [140.3186, 39.0312], [140.3288, 39.0348], [140.3319, 39.0308], [140.3483, 39.025], [140.3623, 39.0261], [140.364, 39.0096], [140.376, 38.9946], [140.3865, 38.9945], [140.3947, 38.9913], [140.4106, 38.9941], [140.4132, 38.9901], [140.4319, 38.992], [140.4379, 38.982], [140.4455, 38.9805], [140.4463, 38.9732], [140.4511, 38.972], [140.4498, 38.9634], [140.4537, 38.9527], [140.4494, 38.9457], [140.4516, 38.9378], [140.4583, 38.9342], [140.4621, 38.9196], [140.472, 38.9151], [140.4824, 38.9166], [140.5003, 38.8948], [140.5156, 38.9003], [140.5262, 38.8975], [140.538, 38.9004], [140.5529, 38.8829], [140.554, 38.8765], [140.562, 38.8731], [140.5799, 38.8815], [140.5856, 38.8801], [140.5902, 38.8892], [140.5978, 38.885], [140.6073, 38.8867], [140.6096, 38.8924], [140.6138, 38.8941], [140.6302, 38.8892], [140.6377, 38.8831], [140.6446, 38.8883], [140.654, 38.889], [140.6531, 38.8915], [140.671, 38.8972], [140.6729, 38.9035], [140.6856, 38.9175], [140.7001, 38.9237], [140.7066, 38.9202], [140.7115, 38.9232], [140.7119, 38.9268], [140.717, 38.9276], [140.7222, 38.9328], [140.7317, 38.9491], [140.7455, 38.9564], [140.7736, 38.9582], [140.7714, 38.9661], [140.7748, 38.9706], [140.7644, 38.9849], [140.7636, 38.9895], [140.7678, 38.9948], [140.7641, 39.0003], [140.7789, 39.0085], [140.7798, 39.0146], [140.7952, 39.0295], [140.7933, 39.0418], [140.7991, 39.0443], [140.8007, 39.0495], [140.8107, 39.0578], [140.7993, 39.0603], [140.8038, 39.0671], [140.8022, 39.0783], [140.7942, 39.0771], [140.7789, 39.0821], [140.771, 39.0788], [140.7528, 39.0863], [140.7633, 39.1089], [140.7558, 39.1123], [140.756, 39.1187], [140.7623, 39.1184], [140.7705, 39.1243], [140.7587, 39.1327], [140.7508, 39.1334], [140.7499, 39.1408], [140.7584, 39.1436], [140.7739, 39.1677], [140.7787, 39.1687], [140.7837, 39.1653], [140.7885, 39.1727], [140.8083, 39.1787], [140.7973, 39.19], [140.7891, 39.1885], [140.7789, 39.1946], [140.7706, 39.1933], [140.7645, 39.1981], [140.7672, 39.2047], [140.7632, 39.2073], [140.7664, 39.2085], [140.7626, 39.2132], [140.77, 39.2235], [140.7875, 39.2268], [140.786, 39.2343], [140.7887, 39.2384], [140.7773, 39.2414], [140.7688, 39.2525], [140.7661, 39.2512], [140.7571, 39.2549], [140.7514, 39.2628], [140.7439, 39.2618], [140.7177, 39.2727], [140.7185, 39.2954], [140.7086, 39.297], [140.7039, 39.302], [140.6938, 39.3001], [140.6929, 39.3025], [140.6971, 39.3103], [140.6927, 39.3155], [140.6986, 39.3284], [140.7094, 39.3302], [140.7038, 39.3429], [140.6884, 39.3475], [140.6927, 39.3585], [140.6826, 39.362], [140.6755, 39.3683], [140.6789, 39.3832], [140.6749, 39.3859], [140.6657, 39.3842], [140.653, 39.391], [140.6636, 39.4037], [140.6629, 39.4083], [140.6583, 39.4093], [140.6587, 39.4148], [140.6768, 39.419], [140.6795, 39.417], [140.6848, 39.4243], [140.6855, 39.4374], [140.6766, 39.4473], [140.6819, 39.4574], [140.6895, 39.4649], [140.7243, 39.4806], [140.7132, 39.4942], [140.7136, 39.4993], [140.7199, 39.5049], [140.7239, 39.5044], [140.7242, 39.5114], [140.7212, 39.514], [140.7249, 39.5189], [140.7315, 39.5226], [140.7374, 39.5221], [140.7413, 39.5362], [140.7396, 39.5469], [140.7276, 39.5558], [140.7296, 39.565], [140.741, 39.5656], [140.7541, 39.5706], [140.7638, 39.5876], [140.7805, 39.5903], [140.7788, 39.5986], [140.7822, 39.604], [140.7944, 39.6028], [140.8001, 39.6066], [140.8049, 39.6123], [140.8028, 39.6191], [140.8082, 39.6241], [140.807, 39.6322], [140.8153, 39.6461], [140.8221, 39.6499], [140.8229, 39.6655], [140.8185, 39.6799], [140.8224, 39.6881], [140.8114, 39.6955], [140.8102, 39.708], [140.8053, 39.7108], [140.7944, 39.7097], [140.7886, 39.7231], [140.7834, 39.7258], [140.7843, 39.729], [140.7746, 39.7345], [140.8036, 39.7448], [140.8053, 39.7566], [140.8161, 39.763], [140.822, 39.7744], [140.8257, 39.7745], [140.8482, 39.793], [140.8474, 39.7975], [140.8417, 39.8049], [140.8254, 39.8096], [140.819, 39.8165], [140.8109, 39.8183], [140.804, 39.8151], [140.7866, 39.8234], [140.7883, 39.8265], [140.7834, 39.8284], [140.7831, 39.8315], [140.7891, 39.8498], [140.7838, 39.8562], [140.7877, 39.8588], [140.783, 39.8607], [140.7821, 39.8677], [140.7977, 39.8811], [140.8156, 39.8794], [140.8251, 39.8862], [140.8342, 39.8809], [140.8322, 39.8753], [140.8426, 39.8744], [140.8431, 39.8713], [140.8524, 39.866], [140.8579, 39.8701], [140.8707, 39.8711], [140.8782, 39.8748], [140.8782, 39.8871], [140.867, 39.9008], [140.8681, 39.9115], [140.8547, 39.9233], [140.8574, 39.9303], [140.8523, 39.9363], [140.8574, 39.9526], [140.8478, 39.9591], [140.8453, 39.9749], [140.8507, 39.9939], [140.8489, 40.0078], [140.8558, 40.0156], [140.8504, 40.0314], [140.8552, 40.0373], [140.8554, 40.0465], [140.8445, 40.0746], [140.8513, 40.078], [140.8545, 40.0849], [140.8634, 40.0851], [140.8752, 40.0945], [140.8813, 40.1132], [140.8716, 40.1162], [140.8741, 40.1224], [140.8669, 40.1322], [140.8748, 40.1394], [140.8834, 40.1574], [140.8755, 40.1608], [140.8688, 40.1596], [140.8593, 40.1714], [140.8926, 40.1925], [140.8894, 40.2006], [140.8983, 40.2091], [140.8993, 40.2126], [140.8958, 40.2139], [140.9038, 40.2179], [140.9055, 40.2223], [140.9419, 40.2279], [140.9402, 40.2405], [140.9444, 40.2462], [140.9552, 40.2483], [140.9456, 40.2582], [140.9574, 40.2828], [140.9525, 40.2874], [140.9447, 40.2881], [140.944, 40.2964], [140.9567, 40.3044], [140.9573, 40.3244], [140.9625, 40.3231], [140.9625, 40.3281], [140.9674, 40.3337], [140.968, 40.3389], [140.962, 40.3471], [140.9684, 40.3508], [140.9718, 40.3435], [140.9808, 40.3432], [140.9954, 40.3534], [140.9912, 40.3671], [140.9949, 40.3729], [140.9845, 40.3885], [140.9876, 40.3971], [140.9857, 40.4033], [140.9815, 40.4056], [140.9826, 40.4138], [140.9788, 40.416], [140.9855, 40.4217], [140.9853, 40.4277], [140.9723, 40.4309], [140.9636, 40.4268], [140.9517, 40.4262], [140.9418, 40.4303], [140.9333, 40.421], [140.9261, 40.4215], [140.9199, 40.4274], [140.912, 40.4238], [140.8969, 40.4254], [140.8923, 40.4234], [140.8613, 40.4406], [140.88, 40.5103], [140.8525, 40.5052], [140.8448, 40.5073], [140.8269, 40.4961], [140.8203, 40.4955], [140.8108, 40.4875], [140.8116, 40.4781], [140.8037, 40.4487], [140.7934, 40.4494], [140.787, 40.4572], [140.7728, 40.4513], [140.7694, 40.454], [140.7625, 40.4511], [140.752, 40.4388], [140.7336, 40.4392], [140.7356, 40.434], [140.7313, 40.4312], [140.7359, 40.4279], [140.7337, 40.4159], [140.723, 40.4166], [140.7125, 40.4291], [140.7023, 40.4271], [140.6991, 40.4294], [140.6877, 40.4273], [140.6847, 40.4165], [140.6732, 40.4116], [140.6661, 40.4115], [140.6616, 40.4046], [140.6524, 40.4035], [140.6411, 40.4052], [140.6342, 40.4023], [140.6364, 40.4094], [140.6332, 40.4175], [140.6257, 40.424], [140.6114, 40.4238], [140.5997, 40.4327], [140.5897, 40.4361], [140.5868, 40.4292], [140.5768, 40.4294], [140.5739, 40.4262], [140.5621, 40.4271], [140.5533, 40.4204], [140.5658, 40.4066], [140.5693, 40.4008], [140.5671, 40.3987], [140.5589, 40.3971], [140.5477, 40.4039], [140.5407, 40.4027], [140.5322, 40.4112], [140.5236, 40.4105], [140.5244, 40.4197], [140.5299, 40.4203], [140.5295, 40.4305], [140.5084, 40.4286], [140.4978, 40.4365], [140.4812, 40.4418], [140.4842, 40.4465], [140.4809, 40.4517], [140.4658, 40.4541], [140.4643, 40.4564], [140.4399, 40.4501], [140.437, 40.4655], [140.4333, 40.4682], [140.4362, 40.4796], [140.4266, 40.4826], [140.4085, 40.4749], [140.4025, 40.4749], [140.3966, 40.4783], [140.3939, 40.4852], [140.3881, 40.4871], [140.3778, 40.4766], [140.3614, 40.4784], [140.3479, 40.4675], [140.3479, 40.4626], [140.3429, 40.4607], [140.3439, 40.4522], [140.339, 40.441], [140.3178, 40.4396], [140.311, 40.4362], [140.3072, 40.4421], [140.2911, 40.4465], [140.2789, 40.4459], [140.2671, 40.4407], [140.25, 40.443], [140.2454, 40.4382], [140.2202, 40.4312], [140.2094, 40.4386], [140.1941, 40.4348], [140.1856, 40.4433], [140.171, 40.4381], [140.1622, 40.4393], [140.1519, 40.4349], [140.1373, 40.4396], [140.1179, 40.4349], [140.1076, 40.436], [140.0992, 40.444], [140.0996, 40.4531], [140.0939, 40.4584], [140.0791, 40.4667], [140.0738, 40.4648], [140.0682, 40.4688], [140.0537, 40.4676], [140.0486, 40.4602], [140.0365, 40.4615], [140.0229, 40.4514], [140.02, 40.447], [140.026, 40.4389], [140.0219, 40.4297], [140.0174, 40.4271], [140.0194, 40.4199], [139.9951, 40.435], [139.9816, 40.4275], [139.9702, 40.4274], [139.9596, 40.4347], [139.9363, 40.4282], [139.944, 40.4229], [139.9471, 40.4127], [139.9539, 40.4123], [139.9696, 40.3999], [139.9731, 40.3987], [139.9728, 40.4011], [139.9784, 40.3983], [139.9813, 40.3856], [139.9991, 40.3797], [140.0011, 40.3755], [140.0009, 40.3788], [140.0032, 40.3751], [140.0109, 40.3743], [140.0153, 40.3626], [140.0246, 40.3545], [140.0261, 40.3437], [140.0218, 40.2978], [140.0107, 40.2442], [139.9872, 40.2449], [139.9657, 40.2011], [139.9601, 40.2018], [139.9569, 40.1801], [139.9923, 40.1774], [139.9587, 40.0964], [139.9269, 40.0457], [139.915, 40.0305], [139.9104, 40.0304], [139.9143, 40.0303], [139.9024, 40.0167], [139.8753, 39.9909], [139.8351, 39.9661], [139.8103, 39.958], [139.7936, 39.9577], [139.786, 39.9609], [139.7849, 39.9629], [139.7878, 39.963], [139.7824, 39.9678], [139.7708, 39.9702], [139.7713, 39.9725], [139.7658, 39.9748], [139.7427, 39.9782], [139.7344, 39.9839], [139.7234, 39.9816], [139.701, 40.007], [139.6952, 39.9988], [139.6977, 39.996], [139.6929, 39.9953], [139.6963, 39.9944], [139.694, 39.9889], [139.698, 39.9845], [139.6942, 39.9795], [139.7019, 39.9761], [139.7014, 39.9615], [139.7056, 39.9604], [139.7066, 39.9566], [139.7143, 39.961], [139.7204, 39.9568], [139.7196, 39.9462], [139.7094, 39.9467], [139.7017, 39.9422], [139.7061, 39.9396], [139.7057, 39.9281], [139.7112, 39.9265], [139.7085, 39.9234], [139.7177, 39.9152], [139.7175, 39.909], [139.7251, 39.9076], [139.7285, 39.9101], [139.7334, 39.9074], [139.7403, 39.8715], [139.7466, 39.8653], [139.7551, 39.8632], [139.7553, 39.8569], [139.7618, 39.8624], [139.7716, 39.8647], [139.7742, 39.8631], [139.772, 39.8584], [139.7746, 39.8609], [139.7836, 39.8595], [139.7807, 39.86], [139.7826, 39.8621], [139.7785, 39.8613], [139.7807, 39.8659], [139.7868, 39.8621], [139.7899, 39.8669], [139.7941, 39.8677], [139.83, 39.8472], [139.8479, 39.8441], [139.8631, 39.8457], [139.8817, 39.8529], [139.8969, 39.8682], [139.9009, 39.8867], [139.8948, 39.902], [139.9244, 39.8998], [139.9428, 39.8927], [139.9429, 39.8889], [139.9498, 39.8967], [139.9537, 39.8948], [139.9458, 39.8876], [139.9498, 39.8901], [139.9611, 39.8843], [139.9964, 39.8574], [140.0133, 39.8386], [140.0301, 39.8126], [140.0373, 39.7959], [140.0009, 39.79], [140.0115, 39.723], [140.0569, 39.7305], [140.0609, 39.6866]], [[139.9611, 39.907], [139.9634, 39.9199], [139.9545, 39.9204], [139.949, 39.9412], [139.9764, 39.9278], [140.0158, 39.9198], [140.0438, 39.9395], [140.0566, 39.9359], [140.0521, 39.9354], [140.048, 39.9363], [140.0551, 39.9301], [140.049, 39.9347], [140.0478, 39.9362], [140.0476, 39.937], [140.0435, 39.9357], [140.0441, 39.9308], [140.0546, 39.9202], [140.0611, 39.9193], [140.0555, 39.918], [140.0541, 39.9035], [140.0571, 39.8993], [140.0516, 39.9021], [140.0497, 39.8952], [140.0576, 39.8923], [140.0492, 39.8931], [140.0478, 39.8846], [140.0533, 39.8816], [140.0469, 39.8824], [140.0444, 39.8781], [140.048, 39.8744], [140.0381, 39.8788], [140.0272, 39.8921], [140.0181, 39.9054], [140.02, 39.9106], [139.9697, 39.9222], [139.9608, 39.905], [139.9611, 39.907]]]}, "properties": {"name": "秋田県"}}]}