{"type": "FeatureCollection", "features": [{"type": "Feature", "geometry": {"type": "MultiPolygon", "coordinates": [[[[138.3908, 35.2192], [138.3918, 35.2248], [138.386, 35.2464], [138.3672, 35.2701], [138.3692, 35.2768], [138.3666, 35.2808], [138.3667, 35.2902], [138.3725, 35.2996], [138.3675, 35.3097], [138.3589, 35.3137], [138.3585, 35.3175], [138.3495, 35.3153], [138.3428, 35.3185], [138.3362, 35.3262], [138.3259, 35.3275], [138.3134, 35.3226], [138.3087, 35.3183], [138.296, 35.3163], [138.2854, 35.3043], [138.2775, 35.3068], [138.2703, 35.3142], [138.2575, 35.3166], [138.2545, 35.3204], [138.255, 35.3242], [138.2516, 35.3254], [138.252, 35.3291], [138.2488, 35.3317], [138.2571, 35.3392], [138.2511, 35.3638], [138.2469, 35.3672], [138.2428, 35.366], [138.2319, 35.3712], [138.2369, 35.3845], [138.246, 35.3913], [138.2463, 35.3998], [138.2583, 35.4075], [138.2593, 35.4321], [138.2554, 35.4446], [138.2484, 35.4469], [138.2438, 35.4578], [138.2458, 35.4633], [138.2522, 35.465], [138.2554, 35.4694], [138.2599, 35.4894], [138.2601, 35.5058], [138.2689, 35.5145], [138.2631, 35.5231], [138.2637, 35.5268], [138.2574, 35.5309], [138.2595, 35.553], [138.2521, 35.5555], [138.2454, 35.5618], [138.2455, 35.57], [138.2405, 35.5764], [138.2388, 35.5837], [138.2436, 35.5915], [138.2432, 35.5972], [138.2406, 35.6051], [138.2352, 35.6074], [138.2343, 35.615], [138.2368, 35.621], [138.2288, 35.6255], [138.2321, 35.6401], [138.2286, 35.646], [138.2187, 35.6446], [138.2114, 35.6352], [138.2033, 35.632], [138.2023, 35.6183], [138.2059, 35.6079], [138.1955, 35.5951], [138.1944, 35.5886], [138.1889, 35.5816], [138.1893, 35.5769], [138.1843, 35.5731], [138.1782, 35.5749], [138.1708, 35.5824], [138.1626, 35.5818], [138.1571, 35.5731], [138.1518, 35.5708], [138.1461, 35.5572], [138.1413, 35.5551], [138.1542, 35.5534], [138.1593, 35.5448], [138.1382, 35.522], [138.1462, 35.5186], [138.1462, 35.5133], [138.1395, 35.5011], [138.1477, 35.5004], [138.1549, 35.4952], [138.1647, 35.4938], [138.1583, 35.4865], [138.1561, 35.4743], [138.1603, 35.4695], [138.1568, 35.46], [138.1407, 35.4589], [138.1312, 35.4534], [138.1223, 35.4566], [138.1197, 35.4532], [138.1194, 35.4462], [138.1239, 35.4355], [138.1204, 35.43], [138.1398, 35.4226], [138.138, 35.415], [138.1344, 35.4127], [138.1347, 35.408], [138.1444, 35.406], [138.153, 35.3971], [138.1412, 35.3695], [138.1294, 35.3654], [138.1239, 35.368], [138.1185, 35.3665], [138.1018, 35.3548], [138.097, 35.3543], [138.0938, 35.3502], [138.0969, 35.3468], [138.0959, 35.3399], [138.0849, 35.3378], [138.0706, 35.3474], [138.0612, 35.3471], [138.0556, 35.344], [138.0511, 35.3358], [138.0376, 35.3329], [138.0391, 35.3262], [138.0263, 35.3205], [138.0277, 35.3118], [138.0195, 35.3014], [138.0057, 35.3044], [137.9925, 35.3018], [137.9827, 35.2927], [137.9735, 35.2934], [137.9667, 35.2826], [137.9638, 35.2845], [137.9522, 35.2832], [137.9439, 35.2762], [137.9293, 35.2756], [137.9247, 35.2607], [137.9187, 35.2544], [137.9123, 35.2533], [137.8955, 35.2579], [137.8938, 35.2544], [137.884, 35.25], [137.8819, 35.2417], [137.8849, 35.2361], [137.8797, 35.2253], [137.8729, 35.2191], [137.859, 35.2234], [137.8472, 35.222], [137.8435, 35.2174], [137.8367, 35.2155], [137.8379, 35.212], [137.8276, 35.2113], [137.8311, 35.2051], [137.8213, 35.2034], [137.8162, 35.1877], [137.8123, 35.1865], [137.8076, 35.1882], [137.8035, 35.1833], [137.8104, 35.1751], [137.8178, 35.1749], [137.8259, 35.1678], [137.8215, 35.1585], [137.8277, 35.1552], [137.829, 35.152], [137.8208, 35.148], [137.8145, 35.1523], [137.8125, 35.1458], [137.8142, 35.1401], [137.8064, 35.1311], [137.801, 35.1308], [137.7973, 35.1365], [137.7933, 35.1356], [137.7918, 35.1292], [137.7984, 35.1259], [137.801, 35.106], [137.7951, 35.1028], [137.7928, 35.0954], [137.7813, 35.0968], [137.7785, 35.0997], [137.7734, 35.0905], [137.7753, 35.0773], [137.7693, 35.0726], [137.7632, 35.0722], [137.7564, 35.0649], [137.7515, 35.0642], [137.7413, 35.0572], [137.7288, 35.0405], [137.7158, 35.0339], [137.7167, 35.0278], [137.705, 35.0148], [137.7011, 35.0036], [137.7019, 34.9986], [137.7081, 34.9944], [137.6998, 34.9845], [137.7071, 34.972], [137.7044, 34.9699], [137.6972, 34.972], [137.6944, 34.9702], [137.6899, 34.9636], [137.6895, 34.9566], [137.6828, 34.9551], [137.6761, 34.9454], [137.6693, 34.9485], [137.6595, 34.9446], [137.6507, 34.9329], [137.6528, 34.9255], [137.6467, 34.9187], [137.6464, 34.9084], [137.6429, 34.9082], [137.6405, 34.905], [137.6413, 34.893], [137.6285, 34.8823], [137.6168, 34.8782], [137.6159, 34.8753], [137.5969, 34.8722], [137.5952, 34.8593], [137.5867, 34.8503], [137.5528, 34.8524], [137.5423, 34.8422], [137.5295, 34.8437], [137.518, 34.836], [137.5027, 34.8336], [137.4985, 34.8265], [137.5013, 34.8228], [137.487, 34.8115], [137.4942, 34.8019], [137.4913, 34.7959], [137.493, 34.7868], [137.4817, 34.7824], [137.4762, 34.7747], [137.4792, 34.7712], [137.4741, 34.7499], [137.4807, 34.7407], [137.4781, 34.7354], [137.4816, 34.732], [137.4817, 34.7213], [137.4878, 34.7167], [137.492, 34.7022], [137.4893, 34.6886], [137.4846, 34.6842], [137.4851, 34.6739], [137.4945, 34.6763], [137.5528, 34.6794], [137.5783, 34.68], [137.5964, 34.677], [137.5988, 34.679], [137.5987, 34.6751], [137.6269, 34.6758], [137.6791, 34.67], [137.7444, 34.6579], [137.7774, 34.6475], [137.7886, 34.6466], [137.7889, 34.6503], [137.796, 34.6507], [137.8045, 34.6454], [137.8495, 34.658], [137.8966, 34.6639], [137.899, 34.6657], [137.8926, 34.6711], [137.8952, 34.6694], [137.8962, 34.6772], [137.896, 34.6739], [137.8985, 34.6782], [137.899, 34.6662], [137.9049, 34.6613], [137.9055, 34.6635], [137.8996, 34.6662], [137.8993, 34.6708], [137.9048, 34.6646], [137.9103, 34.6664], [137.9112, 34.6643], [137.9111, 34.6666], [137.9177, 34.6674], [137.9441, 34.6672], [137.9786, 34.6646], [138.002, 34.6602], [138.0022, 34.6631], [138.0021, 34.6602], [138.0227, 34.6566], [138.0237, 34.6597], [138.0236, 34.6565], [138.0627, 34.6471], [138.1074, 34.6335], [138.1332, 34.6231], [138.137, 34.6235], [138.1404, 34.6195], [138.1807, 34.607], [138.1897, 34.6016], [138.1896, 34.6036], [138.1912, 34.6005], [138.2038, 34.6011], [138.2257, 34.5946], [138.2341, 34.6019], [138.2326, 34.627], [138.2179, 34.6266], [138.2097, 34.6203], [138.2061, 34.6207], [138.2026, 34.6292], [138.2008, 34.6282], [138.2018, 34.6304], [138.1989, 34.6312], [138.203, 34.6316], [138.2009, 34.6344], [138.1969, 34.6323], [138.1932, 34.6423], [138.1956, 34.6656], [138.2059, 34.6838], [138.2111, 34.6864], [138.2075, 34.685], [138.2101, 34.6865], [138.207, 34.6889], [138.2166, 34.7022], [138.2141, 34.7001], [138.2148, 34.7106], [138.2227, 34.7216], [138.2459, 34.7405], [138.2647, 34.752], [138.2661, 34.7501], [138.2668, 34.7501], [138.2677, 34.7515], [138.2659, 34.7506], [138.265, 34.7517], [138.2668, 34.7532], [138.268, 34.7528], [138.2677, 34.7543], [138.2652, 34.7542], [138.2676, 34.7561], [138.273, 34.7571], [138.2685, 34.754], [138.2675, 34.749], [138.2692, 34.7527], [138.295, 34.7672], [138.3057, 34.7775], [138.295, 34.7762], [138.2887, 34.7812], [138.2945, 34.7842], [138.2953, 34.7793], [138.3018, 34.7789], [138.3039, 34.786], [138.3376, 34.8284], [138.3378, 34.8392], [138.3306, 34.849], [138.3313, 34.8541], [138.33, 34.8467], [138.3264, 34.8447], [138.3248, 34.8461], [138.324, 34.851], [138.3276, 34.847], [138.3292, 34.8485], [138.3243, 34.8537], [138.3247, 34.8557], [138.3282, 34.8557], [138.3263, 34.8614], [138.3284, 34.8615], [138.3266, 34.8634], [138.3293, 34.8681], [138.3251, 34.8673], [138.3237, 34.8699], [138.3244, 34.8726], [138.3264, 34.871], [138.3286, 34.8736], [138.3265, 34.8696], [138.3301, 34.8692], [138.331, 34.8721], [138.3338, 34.8679], [138.3348, 34.8719], [138.3268, 34.8765], [138.3332, 34.8745], [138.3383, 34.88], [138.3393, 34.8884], [138.3485, 34.8957], [138.3547, 34.9129], [138.3682, 34.9208], [138.3712, 34.9196], [138.3695, 34.9217], [138.3719, 34.9206], [138.371, 34.9219], [138.3817, 34.9263], [138.4006, 34.9311], [138.4084, 34.9394], [138.4174, 34.9443], [138.4651, 34.9581], [138.4964, 34.9713], [138.5164, 34.9843], [138.5269, 34.997], [138.5333, 35.0109], [138.5335, 35.0555], [138.5468, 35.0768], [138.5517, 35.0931], [138.5611, 35.1032], [138.5736, 35.1104], [138.601, 35.1152], [138.6411, 35.1153], [138.6726, 35.1271], [138.6798, 35.132], [138.7095, 35.1367], [138.738, 35.1345], [138.7685, 35.1279], [138.8165, 35.1127], [138.8426, 35.0973], [138.8511, 35.0865], [138.8491, 35.0841], [138.8509, 35.08], [138.8515, 35.0848], [138.8539, 35.0814], [138.8572, 35.0838], [138.8517, 35.0787], [138.8605, 35.0811], [138.8626, 35.0851], [138.8612, 35.0798], [138.8538, 35.0783], [138.8632, 35.0715], [138.8658, 35.0741], [138.8728, 35.0701], [138.886, 35.0462], [138.8919, 35.0479], [138.8919, 35.0517], [138.8968, 35.0513], [138.8965, 35.0489], [138.8995, 35.0508], [138.9036, 35.0475], [138.9066, 35.0483], [138.9005, 35.0428], [138.8974, 35.0438], [138.8989, 35.0383], [138.8922, 35.032], [138.8932, 35.0267], [138.8986, 35.0239], [138.8915, 35.0171], [138.885, 35.019], [138.8849, 35.0254], [138.8785, 35.0195], [138.8777, 35.0279], [138.8707, 35.0212], [138.8575, 35.0205], [138.8534, 35.0163], [138.8494, 35.0171], [138.8454, 35.014], [138.8429, 35.0187], [138.8397, 35.0173], [138.8372, 35.0198], [138.8344, 35.0189], [138.829, 35.0236], [138.8139, 35.0229], [138.8114, 35.0191], [138.7998, 35.0212], [138.7975, 35.024], [138.7877, 35.0236], [138.7859, 35.0265], [138.7883, 35.0306], [138.7795, 35.0171], [138.7778, 35.0107], [138.7799, 35.0014], [138.7747, 34.9971], [138.7687, 34.9825], [138.7727, 34.9788], [138.7761, 34.9788], [138.7775, 34.9709], [138.7715, 34.9698], [138.7646, 34.9724], [138.7673, 34.9777], [138.7636, 34.9759], [138.7621, 34.9693], [138.7661, 34.9519], [138.775, 34.943], [138.778, 34.9274], [138.7858, 34.9198], [138.7886, 34.9127], [138.7862, 34.9131], [138.7893, 34.9118], [138.7904, 34.9072], [138.7817, 34.9059], [138.7814, 34.9011], [138.773, 34.8943], [138.7723, 34.8972], [138.7665, 34.8967], [138.7563, 34.8856], [138.7583, 34.8707], [138.753, 34.8678], [138.7585, 34.8615], [138.7659, 34.8622], [138.7674, 34.8579], [138.7741, 34.8573], [138.7762, 34.8535], [138.7724, 34.8469], [138.7699, 34.8466], [138.77, 34.8488], [138.7657, 34.8466], [138.7656, 34.8432], [138.7596, 34.8427], [138.7635, 34.8323], [138.7676, 34.8302], [138.7686, 34.8223], [138.7668, 34.8215], [138.7642, 34.8256], [138.7616, 34.8257], [138.7655, 34.8285], [138.7607, 34.8295], [138.753, 34.8245], [138.7513, 34.8207], [138.756, 34.8116], [138.7649, 34.8119], [138.7658, 34.8078], [138.7613, 34.8059], [138.7619, 34.8015], [138.7568, 34.8014], [138.7575, 34.8039], [138.7525, 34.8006], [138.7582, 34.7968], [138.7551, 34.7926], [138.7587, 34.7924], [138.7622, 34.7885], [138.761, 34.787], [138.7654, 34.7851], [138.7652, 34.782], [138.7681, 34.7818], [138.7685, 34.7788], [138.7653, 34.7765], [138.7688, 34.7743], [138.7676, 34.7773], [138.7708, 34.7732], [138.7628, 34.7707], [138.7741, 34.7684], [138.7764, 34.7569], [138.7733, 34.7549], [138.7746, 34.7533], [138.7698, 34.7537], [138.7665, 34.7507], [138.7644, 34.7526], [138.759, 34.7462], [138.755, 34.747], [138.7611, 34.7421], [138.7613, 34.7391], [138.7583, 34.7378], [138.7555, 34.7396], [138.7559, 34.7325], [138.7496, 34.7365], [138.7493, 34.7334], [138.7464, 34.7331], [138.7469, 34.728], [138.7441, 34.726], [138.7419, 34.7288], [138.7418, 34.7265], [138.7394, 34.7267], [138.7426, 34.7235], [138.7408, 34.7183], [138.7433, 34.7175], [138.7392, 34.7043], [138.7417, 34.7026], [138.7406, 34.7004], [138.7435, 34.7001], [138.7431, 34.6962], [138.7407, 34.6956], [138.7434, 34.6939], [138.7391, 34.6901], [138.7425, 34.6873], [138.7566, 34.6915], [138.7668, 34.685], [138.7661, 34.6804], [138.7694, 34.6815], [138.7772, 34.6752], [138.7776, 34.6671], [138.7831, 34.6659], [138.7854, 34.6694], [138.7896, 34.6693], [138.7919, 34.6625], [138.7904, 34.6591], [138.7841, 34.6625], [138.7847, 34.6608], [138.7804, 34.6601], [138.7794, 34.655], [138.7734, 34.6555], [138.7715, 34.6491], [138.7766, 34.64], [138.781, 34.6394], [138.7814, 34.6375], [138.7861, 34.6399], [138.7898, 34.6384], [138.7939, 34.6343], [138.7946, 34.622], [138.7981, 34.6213], [138.7999, 34.6247], [138.8099, 34.628], [138.8105, 34.6239], [138.8142, 34.6223], [138.8144, 34.6155], [138.8209, 34.6118], [138.8225, 34.616], [138.8246, 34.6153], [138.8256, 34.6059], [138.8362, 34.6041], [138.8357, 34.6065], [138.843, 34.6009], [138.8466, 34.6022], [138.8426, 34.6093], [138.8476, 34.6039], [138.8495, 34.6131], [138.86, 34.6126], [138.8596, 34.6156], [138.8634, 34.6161], [138.8664, 34.6197], [138.8724, 34.6176], [138.8743, 34.6226], [138.8781, 34.6246], [138.8859, 34.6236], [138.8871, 34.6272], [138.8897, 34.6248], [138.8924, 34.6287], [138.889, 34.6282], [138.8885, 34.6313], [138.8913, 34.6345], [138.9047, 34.6292], [138.9046, 34.6314], [138.9123, 34.6348], [138.9129, 34.6399], [138.918, 34.6425], [138.9161, 34.6479], [138.9177, 34.6526], [138.9213, 34.6539], [138.9186, 34.6555], [138.9252, 34.6551], [138.9305, 34.6601], [138.9345, 34.6607], [138.936, 34.6588], [138.9377, 34.6619], [138.9414, 34.662], [138.9359, 34.6674], [138.941, 34.6682], [138.947, 34.6626], [138.9484, 34.6652], [138.9457, 34.6657], [138.9495, 34.6672], [138.9486, 34.6687], [138.9545, 34.6692], [138.9446, 34.6717], [138.9463, 34.6762], [138.9487, 34.6713], [138.9483, 34.6738], [138.9538, 34.674], [138.9571, 34.6766], [138.9636, 34.674], [138.9636, 34.6706], [138.9589, 34.6699], [138.9574, 34.6667], [138.9593, 34.6664], [138.9554, 34.6654], [138.9583, 34.6647], [138.959, 34.6602], [138.9559, 34.6548], [138.9585, 34.6529], [138.9587, 34.6549], [138.964, 34.6541], [138.9656, 34.6507], [138.9674, 34.6569], [138.9769, 34.653], [138.9813, 34.6616], [138.9816, 34.6591], [138.9875, 34.6582], [138.9842, 34.6636], [138.9875, 34.6659], [138.9858, 34.6691], [138.9813, 34.6667], [138.9769, 34.6674], [138.9797, 34.6686], [138.9788, 34.6717], [138.9715, 34.6755], [138.9782, 34.6766], [138.977, 34.6791], [138.9815, 34.6813], [138.9775, 34.6819], [138.9724, 34.6908], [138.9757, 34.7021], [138.98, 34.7056], [138.9792, 34.709], [138.9851, 34.7088], [138.9833, 34.7119], [138.993, 34.7177], [138.9886, 34.7231], [138.9925, 34.723], [138.9915, 34.7262], [138.9937, 34.7254], [138.9934, 34.7287], [138.9983, 34.7297], [138.9971, 34.7322], [139.0015, 34.7359], [138.9969, 34.7431], [139.0066, 34.7526], [139.0098, 34.7534], [139.0128, 34.7514], [139.0154, 34.7545], [139.0205, 34.7541], [139.023, 34.7622], [139.028, 34.7673], [139.0372, 34.7655], [139.0484, 34.7682], [139.0471, 34.7731], [139.0466, 34.7716], [139.0439, 34.7732], [139.0432, 34.7711], [139.0415, 34.7739], [139.0583, 34.7848], [139.0649, 34.8057], [139.0728, 34.8167], [139.0785, 34.8195], [139.0765, 34.8217], [139.0794, 34.825], [139.0753, 34.8299], [139.078, 34.8382], [139.0766, 34.8417], [139.0822, 34.8481], [139.0827, 34.8535], [139.0861, 34.8542], [139.0871, 34.8585], [139.0927, 34.8561], [139.0981, 34.8577], [139.1023, 34.8696], [139.1166, 34.8714], [139.1313, 34.8786], [139.1353, 34.8882], [139.1408, 34.8909], [139.1396, 34.8944], [139.1325, 34.8955], [139.1316, 34.8984], [139.1404, 34.9094], [139.1404, 34.9211], [139.1481, 34.9305], [139.1455, 34.933], [139.148, 34.9364], [139.1433, 34.9408], [139.1469, 34.9453], [139.1464, 34.9549], [139.1336, 34.9532], [139.1348, 34.9513], [139.1295, 34.9559], [139.1284, 34.9599], [139.1311, 34.9621], [139.1279, 34.9643], [139.1282, 34.9691], [139.1186, 34.9731], [139.1073, 34.9739], [139.109, 34.9717], [139.1035, 34.9741], [139.1084, 34.9717], [139.1057, 34.9698], [139.1031, 34.9732], [139.0988, 34.9732], [139.0938, 34.9782], [139.0959, 34.9861], [139.0831, 35.0003], [139.0863, 35.0079], [139.0904, 35.0091], [139.0905, 35.0074], [139.0926, 35.008], [139.0905, 35.0065], [139.0963, 35.0067], [139.1001, 35.009], [139.0974, 35.0167], [139.0998, 35.0462], [139.0935, 35.0499], [139.0891, 35.0497], [139.0861, 35.0448], [139.0799, 35.048], [139.0741, 35.0468], [139.069, 35.0542], [139.0798, 35.0693], [139.0747, 35.0812], [139.0828, 35.0859], [139.0817, 35.0945], [139.0773, 35.0921], [139.0782, 35.089], [139.0746, 35.0935], [139.0869, 35.1071], [139.0878, 35.1127], [139.0965, 35.117], [139.1091, 35.1304], [139.1115, 35.1415], [139.0901, 35.1403], [139.075, 35.1452], [139.0658, 35.1439], [139.0593, 35.1471], [139.052, 35.1469], [139.0484, 35.1497], [139.0288, 35.1505], [139.0307, 35.1584], [139.0259, 35.1607], [139.0295, 35.1663], [139.0269, 35.1751], [139.0219, 35.1822], [139.0098, 35.1829], [138.993, 35.199], [138.9877, 35.2008], [138.986, 35.2054], [138.9883, 35.2116], [138.9821, 35.2179], [138.9835, 35.2232], [138.9792, 35.2288], [138.9797, 35.2333], [138.9762, 35.2357], [138.9789, 35.2395], [138.9745, 35.248], [138.9755, 35.2635], [138.9855, 35.2777], [138.9968, 35.2883], [139.0048, 35.2898], [139.0108, 35.3105], [139.0096, 35.3137], [139.019, 35.3288], [139.0104, 35.3384], [139.0078, 35.3501], [139.013, 35.3589], [139.0074, 35.3605], [139.0059, 35.3753], [138.9985, 35.3834], [139.0016, 35.3987], [138.9998, 35.4015], [138.9935, 35.4034], [138.984, 35.4019], [138.98, 35.4048], [138.9723, 35.4051], [138.9666, 35.4019], [138.9437, 35.3994], [138.916, 35.4006], [138.903, 35.3964], [138.8882, 35.3861], [138.8785, 35.3858], [138.8737, 35.3817], [138.8635, 35.39], [138.8569, 35.3884], [138.851, 35.3906], [138.833, 35.3833], [138.821, 35.3736], [138.816, 35.3775], [138.8106, 35.3756], [138.7977, 35.3765], [138.7309, 35.366], [138.7313, 35.3627], [138.7302, 35.3646], [138.7279, 35.363], [138.7195, 35.3654], [138.7011, 35.3593], [138.682, 35.358], [138.672, 35.3931], [138.6634, 35.3983], [138.6382, 35.3986], [138.6093, 35.393], [138.5974, 35.433], [138.5876, 35.4378], [138.5813, 35.4457], [138.5774, 35.441], [138.559, 35.4339], [138.553, 35.4231], [138.5457, 35.4164], [138.5313, 35.4089], [138.5324, 35.3967], [138.5365, 35.3899], [138.5283, 35.3792], [138.5306, 35.3759], [138.5293, 35.35], [138.535, 35.3402], [138.5351, 35.3306], [138.5121, 35.3136], [138.5127, 35.3034], [138.5168, 35.2988], [138.5219, 35.2838], [138.5202, 35.2704], [138.5156, 35.2672], [138.5144, 35.2621], [138.522, 35.2538], [138.5205, 35.2509], [138.5231, 35.2487], [138.5268, 35.2328], [138.5304, 35.2295], [138.5323, 35.2234], [138.5275, 35.2167], [138.533, 35.2074], [138.5327, 35.2016], [138.5284, 35.1975], [138.5225, 35.1994], [138.5202, 35.1973], [138.5145, 35.1982], [138.5136, 35.1962], [138.5161, 35.1962], [138.5133, 35.1905], [138.506, 35.1859], [138.5013, 35.1771], [138.492, 35.1683], [138.4772, 35.1774], [138.4713, 35.1762], [138.4613, 35.1796], [138.4391, 35.1781], [138.4311, 35.1803], [138.4274, 35.1829], [138.4192, 35.1988], [138.4093, 35.2027], [138.3987, 35.2003], [138.3908, 35.2192]]], [[[138.8866, 35.036], [138.8863, 35.0323], [138.8905, 35.031], [138.891, 35.0338], [138.8866, 35.036]]], [[[139.1702, 35.0431], [139.164, 35.0431], [139.1679, 35.0367], [139.1763, 35.0392], [139.1702, 35.0431]]], [[[138.209, 34.6218], [138.2152, 34.6258], [138.2108, 34.6302], [138.2086, 34.629], [138.2108, 34.6238], [138.209, 34.6218]]]]}, "properties": {"name": "静岡県"}}]}