{"type": "FeatureCollection", "features": [{"type": "Feature", "geometry": {"type": "MultiPolygon", "coordinates": [[[[132.6892, 33.8049], [132.691, 33.7955], [132.6932, 33.795], [132.6882, 33.7933], [132.69, 33.7884], [132.6937, 33.7882], [132.6942, 33.7859], [132.7023, 33.7878], [132.6995, 33.7843], [132.6922, 33.7864], [132.6939, 33.7827], [132.6976, 33.7822], [132.7004, 33.7675], [132.6969, 33.7671], [132.6952, 33.7594], [132.7, 33.7625], [132.6969, 33.7568], [132.6992, 33.7566], [132.6981, 33.7549], [132.6941, 33.7589], [132.693, 33.7523], [132.677, 33.745], [132.6786, 33.7433], [132.6752, 33.7316], [132.6653, 33.7184], [132.6591, 33.7033], [132.648, 33.693], [132.6367, 33.6899], [132.6361, 33.6878], [132.6358, 33.6899], [132.6359, 33.6869], [132.628, 33.6804], [132.6183, 33.6774], [132.6064, 33.6663], [132.5853, 33.6532], [132.5794, 33.6533], [132.5791, 33.6518], [132.5771, 33.6528], [132.5786, 33.6517], [132.5737, 33.651], [132.5785, 33.6544], [132.5735, 33.6514], [132.5728, 33.6497], [132.5324, 33.6382], [132.5108, 33.6271], [132.508, 33.6302], [132.4918, 33.62], [132.4909, 33.6172], [132.4844, 33.615], [132.4823, 33.6169], [132.4839, 33.618], [132.4861, 33.6179], [132.4895, 33.6199], [132.486, 33.6179], [132.4831, 33.6205], [132.4817, 33.6175], [132.4804, 33.6191], [132.483, 33.6207], [132.4796, 33.6189], [132.478, 33.612], [132.4741, 33.6116], [132.4746, 33.6068], [132.457, 33.595], [132.4558, 33.5884], [132.433, 33.5683], [132.4333, 33.5597], [132.4262, 33.555], [132.4224, 33.5475], [132.4048, 33.5399], [132.4025, 33.5426], [132.4028, 33.5393], [132.3943, 33.5356], [132.3898, 33.5283], [132.3836, 33.53], [132.3758, 33.5225], [132.3619, 33.5158], [132.3574, 33.5162], [132.3532, 33.5105], [132.3426, 33.5074], [132.3397, 33.5027], [132.3342, 33.5041], [132.328, 33.5011], [132.3271, 33.4983], [132.3215, 33.4993], [132.3186, 33.4934], [132.308, 33.4931], [132.3056, 33.4914], [132.307, 33.4872], [132.3047, 33.4861], [132.2954, 33.4873], [132.2847, 33.4782], [132.2823, 33.4817], [132.2775, 33.473], [132.2727, 33.4775], [132.2678, 33.473], [132.2587, 33.4736], [132.2659, 33.4674], [132.2654, 33.4568], [132.261, 33.4539], [132.2627, 33.453], [132.2608, 33.4499], [132.2539, 33.4515], [132.2537, 33.4552], [132.2501, 33.4579], [132.2471, 33.4563], [132.2436, 33.4579], [132.2476, 33.4622], [132.2465, 33.4603], [132.2498, 33.4599], [132.247, 33.4649], [132.2421, 33.4657], [132.2395, 33.4597], [132.2323, 33.4621], [132.2262, 33.4592], [132.224, 33.4516], [132.2268, 33.4457], [132.2248, 33.4443], [132.2179, 33.4475], [132.2155, 33.4443], [132.2105, 33.4457], [132.1999, 33.456], [132.1949, 33.4528], [132.1947, 33.4489], [132.198, 33.4445], [132.1946, 33.4422], [132.1809, 33.449], [132.1796, 33.4466], [132.1738, 33.4467], [132.1717, 33.4452], [132.1769, 33.4288], [132.1739, 33.4263], [132.1636, 33.4306], [132.1567, 33.4402], [132.1562, 33.4378], [132.1484, 33.4349], [132.1481, 33.4325], [132.168, 33.421], [132.1698, 33.4186], [132.1655, 33.4113], [132.1599, 33.4111], [132.1562, 33.4069], [132.1535, 33.407], [132.1488, 33.4109], [132.1476, 33.416], [132.1386, 33.4212], [132.1369, 33.4074], [132.1327, 33.4042], [132.1346, 33.4049], [132.1353, 33.4025], [132.1273, 33.4071], [132.1274, 33.4116], [132.1295, 33.4121], [132.128, 33.4163], [132.1252, 33.4168], [132.1239, 33.4202], [132.1201, 33.4198], [132.1182, 33.4167], [132.1159, 33.4176], [132.1143, 33.4147], [132.1117, 33.4148], [132.1076, 33.4081], [132.0981, 33.4052], [132.0932, 33.4002], [132.0902, 33.4013], [132.0844, 33.398], [132.0787, 33.3911], [132.0791, 33.3883], [132.0534, 33.3761], [132.0449, 33.3678], [132.04, 33.3672], [132.0261, 33.3493], [132.0126, 33.3441], [132.0151, 33.3426], [132.0185, 33.3448], [132.0249, 33.3438], [132.028, 33.3471], [132.0403, 33.3517], [132.0444, 33.3559], [132.0515, 33.3576], [132.0512, 33.363], [132.0489, 33.3626], [132.0496, 33.3643], [132.0487, 33.3624], [132.0479, 33.366], [132.049, 33.3645], [132.052, 33.3676], [132.058, 33.3685], [132.067, 33.3761], [132.0742, 33.3758], [132.0769, 33.3802], [132.0837, 33.38], [132.0941, 33.3877], [132.1162, 33.3912], [132.1209, 33.388], [132.1205, 33.3812], [132.1153, 33.3823], [132.1116, 33.3784], [132.117, 33.3718], [132.1143, 33.3727], [132.1126, 33.3705], [132.1119, 33.3727], [132.1072, 33.3726], [132.1054, 33.375], [132.1019, 33.3714], [132.1033, 33.3617], [132.1239, 33.3657], [132.1295, 33.3638], [132.1336, 33.3698], [132.1447, 33.3758], [132.153, 33.3731], [132.1542, 33.3906], [132.1666, 33.3974], [132.1819, 33.4117], [132.2026, 33.4145], [132.2144, 33.4226], [132.2218, 33.4239], [132.22, 33.4236], [132.2208, 33.4253], [132.2372, 33.4256], [132.2485, 33.4366], [132.2551, 33.438], [132.2549, 33.4413], [132.2646, 33.4425], [132.2705, 33.4467], [132.2807, 33.4473], [132.2832, 33.4507], [132.2823, 33.4542], [132.2874, 33.4577], [132.2875, 33.464], [132.2952, 33.4653], [132.2962, 33.4712], [132.3002, 33.4749], [132.3067, 33.4734], [132.3049, 33.473], [132.3153, 33.4592], [132.3169, 33.4518], [132.3173, 33.4571], [132.3233, 33.4655], [132.3226, 33.4688], [132.3259, 33.4713], [132.3221, 33.4691], [132.3244, 33.4732], [132.3345, 33.4725], [132.3373, 33.4752], [132.3489, 33.4726], [132.3537, 33.4743], [132.3489, 33.4816], [132.3418, 33.485], [132.3513, 33.4884], [132.3541, 33.4878], [132.3512, 33.486], [132.3521, 33.4844], [132.364, 33.4799], [132.3713, 33.4731], [132.3699, 33.4738], [132.3743, 33.4669], [132.3732, 33.4605], [132.3781, 33.4592], [132.3777, 33.4634], [132.3806, 33.4679], [132.3789, 33.4693], [132.3837, 33.4751], [132.3883, 33.4745], [132.3902, 33.477], [132.3945, 33.4743], [132.397, 33.4768], [132.3963, 33.4733], [132.402, 33.4712], [132.4003, 33.4653], [132.3919, 33.4691], [132.3893, 33.4668], [132.3871, 33.4596], [132.3901, 33.4588], [132.3917, 33.455], [132.3902, 33.4588], [132.398, 33.4575], [132.4058, 33.4594], [132.4064, 33.4561], [132.4209, 33.4634], [132.417, 33.4586], [132.4143, 33.4588], [132.4197, 33.4574], [132.4158, 33.4551], [132.4175, 33.4526], [132.4125, 33.4508], [132.4127, 33.4529], [132.4085, 33.4504], [132.4082, 33.4466], [132.4061, 33.4473], [132.4055, 33.4454], [132.4028, 33.4477], [132.4008, 33.4444], [132.3988, 33.4465], [132.3971, 33.4435], [132.3926, 33.4453], [132.3836, 33.4421], [132.3954, 33.4405], [132.4078, 33.4445], [132.4094, 33.4428], [132.4153, 33.4443], [132.4163, 33.4428], [132.404, 33.4309], [132.4059, 33.4247], [132.3997, 33.4259], [132.4007, 33.4277], [132.3972, 33.43], [132.3801, 33.4165], [132.3862, 33.4176], [132.39, 33.4165], [132.3907, 33.4134], [132.3941, 33.4133], [132.3937, 33.4067], [132.3895, 33.4045], [132.3968, 33.3979], [132.3891, 33.3919], [132.3862, 33.3924], [132.3804, 33.3891], [132.3788, 33.3858], [132.3875, 33.3758], [132.3873, 33.3708], [132.3891, 33.372], [132.3894, 33.3673], [132.384, 33.3631], [132.3851, 33.3621], [132.3957, 33.3697], [132.4048, 33.3704], [132.4057, 33.374], [132.4031, 33.3731], [132.4028, 33.3751], [132.4098, 33.379], [132.4104, 33.3844], [132.4133, 33.3844], [132.4149, 33.3819], [132.4194, 33.3831], [132.4208, 33.3782], [132.4162, 33.379], [132.411, 33.373], [132.4128, 33.3707], [132.4108, 33.3646], [132.4062, 33.36], [132.4159, 33.3619], [132.4205, 33.3559], [132.4188, 33.354], [132.4089, 33.3532], [132.411, 33.3431], [132.4067, 33.3469], [132.4008, 33.3473], [132.396, 33.3447], [132.3925, 33.3472], [132.3922, 33.3397], [132.3863, 33.3376], [132.3855, 33.3432], [132.3837, 33.3381], [132.3772, 33.3377], [132.3745, 33.3295], [132.3691, 33.3249], [132.3707, 33.3187], [132.3734, 33.3178], [132.3804, 33.3213], [132.3883, 33.3172], [132.394, 33.3193], [132.3993, 33.3162], [132.4007, 33.3093], [132.4211, 33.3033], [132.4268, 33.3109], [132.4253, 33.3144], [132.4312, 33.32], [132.4337, 33.3199], [132.4347, 33.3157], [132.4406, 33.3112], [132.4542, 33.3089], [132.4695, 33.313], [132.465, 33.3148], [132.4683, 33.3193], [132.4838, 33.3151], [132.4807, 33.3178], [132.482, 33.3194], [132.4904, 33.316], [132.4867, 33.321], [132.4928, 33.3257], [132.4982, 33.312], [132.5029, 33.3132], [132.5051, 33.3171], [132.5077, 33.3159], [132.5123, 33.3189], [132.5147, 33.3165], [132.5148, 33.3187], [132.5178, 33.316], [132.525, 33.3145], [132.5283, 33.3068], [132.5245, 33.3041], [132.508, 33.3061], [132.5038, 33.2998], [132.5021, 33.3023], [132.5004, 33.2987], [132.4889, 33.2945], [132.4884, 33.2919], [132.4831, 33.2895], [132.4817, 33.2861], [132.4838, 33.2817], [132.4802, 33.2812], [132.4787, 33.2763], [132.4739, 33.2741], [132.4751, 33.2667], [132.4683, 33.2555], [132.4738, 33.2551], [132.4763, 33.2631], [132.4838, 33.2659], [132.4823, 33.268], [132.4798, 33.2656], [132.4802, 33.2675], [132.4756, 33.2699], [132.4782, 33.2709], [132.478, 33.2733], [132.4811, 33.2711], [132.4805, 33.2742], [132.483, 33.2749], [132.4874, 33.2738], [132.4883, 33.2693], [132.4941, 33.2712], [132.502, 33.2695], [132.505, 33.2643], [132.5039, 33.2611], [132.5087, 33.2593], [132.5156, 33.2601], [132.5131, 33.2654], [132.5186, 33.2652], [132.5182, 33.2624], [132.5214, 33.2615], [132.5372, 33.266], [132.5402, 33.2744], [132.5403, 33.2713], [132.5429, 33.2701], [132.5427, 33.262], [132.5397, 33.2574], [132.5233, 33.2529], [132.52, 33.2492], [132.523, 33.2451], [132.5329, 33.2444], [132.5328, 33.2395], [132.5402, 33.2354], [132.5385, 33.2237], [132.544, 33.2137], [132.5395, 33.2142], [132.5385, 33.2162], [132.5371, 33.214], [132.5372, 33.2171], [132.5321, 33.2176], [132.5312, 33.2142], [132.5187, 33.215], [132.5182, 33.213], [132.5155, 33.2163], [132.5148, 33.2131], [132.5116, 33.2138], [132.5083, 33.206], [132.5059, 33.2053], [132.5045, 33.2072], [132.5034, 33.2027], [132.5, 33.2044], [132.4992, 33.2024], [132.5047, 33.2013], [132.5058, 33.1977], [132.5026, 33.1941], [132.4986, 33.1964], [132.4901, 33.196], [132.4903, 33.1951], [132.4917, 33.1944], [132.4923, 33.193], [132.4937, 33.1919], [132.4924, 33.1932], [132.4938, 33.1924], [132.4947, 33.1929], [132.4963, 33.1922], [132.4965, 33.1915], [132.4991, 33.1917], [132.5001, 33.1905], [132.5085, 33.1941], [132.5044, 33.1876], [132.508, 33.1897], [132.5104, 33.1872], [132.5082, 33.1831], [132.5096, 33.1762], [132.5158, 33.1708], [132.5127, 33.1699], [132.5083, 33.1726], [132.5054, 33.1699], [132.5011, 33.1702], [132.5047, 33.18], [132.4989, 33.1802], [132.4994, 33.1834], [132.4927, 33.1846], [132.497, 33.1782], [132.495, 33.1741], [132.4972, 33.1718], [132.493, 33.1683], [132.4905, 33.1712], [132.4911, 33.1658], [132.489, 33.1648], [132.4845, 33.165], [132.486, 33.1675], [132.4816, 33.1668], [132.477, 33.1702], [132.4854, 33.1756], [132.479, 33.1763], [132.4853, 33.182], [132.4827, 33.1859], [132.4796, 33.1827], [132.4759, 33.1837], [132.4747, 33.1796], [132.472, 33.1804], [132.4714, 33.1764], [132.4693, 33.1796], [132.4651, 33.1778], [132.4652, 33.1821], [132.4607, 33.1817], [132.4572, 33.1861], [132.4589, 33.1873], [132.4571, 33.1904], [132.4607, 33.1919], [132.4543, 33.1926], [132.4551, 33.1953], [132.4578, 33.1944], [132.4601, 33.1963], [132.4565, 33.1986], [132.4579, 33.2], [132.4601, 33.1988], [132.4604, 33.201], [132.4546, 33.2036], [132.458, 33.2074], [132.462, 33.2075], [132.4585, 33.2107], [132.4547, 33.2096], [132.4511, 33.2024], [132.447, 33.2022], [132.4466, 33.2005], [132.4438, 33.2013], [132.4437, 33.2049], [132.4414, 33.2035], [132.4396, 33.2066], [132.4365, 33.2058], [132.434, 33.2101], [132.4275, 33.2087], [132.4202, 33.2149], [132.4204, 33.212], [132.4172, 33.2117], [132.4179, 33.2094], [132.4121, 33.2065], [132.3992, 33.2053], [132.3947, 33.2067], [132.3941, 33.2019], [132.3893, 33.1985], [132.3955, 33.1978], [132.3987, 33.1951], [132.3954, 33.1873], [132.3996, 33.1847], [132.4073, 33.1895], [132.4157, 33.1888], [132.4186, 33.197], [132.414, 33.198], [132.4074, 33.1957], [132.4092, 33.1998], [132.4034, 33.2001], [132.4032, 33.2023], [132.4054, 33.2021], [132.4031, 33.2047], [132.4064, 33.2059], [132.4148, 33.2039], [132.4217, 33.2087], [132.43, 33.2042], [132.4306, 33.2005], [132.4358, 33.1976], [132.4388, 33.1932], [132.4384, 33.1853], [132.4479, 33.1926], [132.447, 33.1848], [132.4576, 33.179], [132.4587, 33.1753], [132.4646, 33.1722], [132.4641, 33.1703], [132.4567, 33.1682], [132.4561, 33.1713], [132.45, 33.1719], [132.4494, 33.1765], [132.4477, 33.1712], [132.4432, 33.168], [132.4316, 33.1695], [132.4356, 33.1673], [132.4331, 33.1639], [132.4346, 33.1545], [132.431, 33.154], [132.4307, 33.157], [132.4274, 33.1589], [132.4246, 33.1552], [132.4429, 33.1485], [132.4438, 33.1431], [132.4406, 33.1452], [132.4441, 33.1428], [132.4406, 33.138], [132.4487, 33.1349], [132.4516, 33.1314], [132.4559, 33.1364], [132.4532, 33.1425], [132.4601, 33.1374], [132.4616, 33.1395], [132.4624, 33.1377], [132.4713, 33.1414], [132.475, 33.1349], [132.4782, 33.1359], [132.4779, 33.1423], [132.4806, 33.1386], [132.4857, 33.137], [132.5003, 33.1371], [132.4961, 33.1277], [132.4993, 33.1274], [132.4851, 33.1234], [132.4839, 33.1247], [132.4824, 33.1195], [132.4811, 33.122], [132.4742, 33.1212], [132.4707, 33.1146], [132.4685, 33.1173], [132.4733, 33.121], [132.4695, 33.1231], [132.4692, 33.1267], [132.4619, 33.1268], [132.4522, 33.1229], [132.4459, 33.125], [132.4467, 33.1217], [132.4601, 33.1227], [132.4642, 33.1183], [132.4671, 33.1181], [132.4681, 33.1136], [132.4658, 33.1113], [132.4753, 33.1064], [132.4709, 33.0995], [132.4757, 33.0972], [132.4806, 33.0986], [132.4784, 33.0943], [132.4696, 33.0901], [132.4658, 33.0903], [132.4628, 33.0934], [132.4642, 33.0905], [132.4614, 33.0856], [132.4672, 33.0861], [132.4705, 33.0808], [132.4615, 33.0763], [132.4642, 33.0746], [132.466, 33.0766], [132.4702, 33.0758], [132.4725, 33.0699], [132.4747, 33.0732], [132.4726, 33.0759], [132.4751, 33.0784], [132.4722, 33.0812], [132.4784, 33.0841], [132.4799, 33.0762], [132.486, 33.0759], [132.4794, 33.0716], [132.4888, 33.0659], [132.4825, 33.0634], [132.4839, 33.0564], [132.4796, 33.0566], [132.4791, 33.065], [132.4725, 33.0602], [132.4654, 33.0604], [132.465, 33.0628], [132.4622, 33.0628], [132.4564, 33.0568], [132.4486, 33.0554], [132.4472, 33.0659], [132.4439, 33.0656], [132.4438, 33.0571], [132.4384, 33.0566], [132.4334, 33.0528], [132.4326, 33.0562], [132.426, 33.0582], [132.4288, 33.0622], [132.4252, 33.0672], [132.42, 33.0652], [132.4193, 33.0628], [132.4131, 33.063], [132.4126, 33.0678], [132.4158, 33.0722], [132.4104, 33.0715], [132.4036, 33.0693], [132.4066, 33.0633], [132.4053, 33.0608], [132.397, 33.0575], [132.3961, 33.0548], [132.4035, 33.051], [132.4047, 33.0466], [132.4019, 33.0391], [132.3973, 33.0417], [132.3945, 33.0387], [132.3984, 33.0361], [132.397, 33.0293], [132.3915, 33.0256], [132.3844, 33.0273], [132.3783, 33.0235], [132.3831, 33.0183], [132.387, 33.0208], [132.3936, 33.02], [132.3944, 33.0141], [132.3974, 33.0144], [132.3955, 33.0196], [132.3998, 33.0232], [132.3999, 33.0268], [132.4039, 33.0292], [132.4073, 33.0263], [132.4116, 33.0274], [132.4041, 33.0344], [132.4055, 33.0376], [132.4121, 33.0388], [132.4085, 33.0404], [132.4107, 33.0442], [132.4076, 33.0467], [132.407, 33.0529], [132.411, 33.0566], [132.4153, 33.0554], [132.4166, 33.058], [132.4288, 33.0534], [132.4302, 33.0455], [132.4325, 33.0524], [132.4389, 33.0512], [132.4393, 33.0485], [132.4435, 33.0472], [132.4427, 33.0417], [132.4497, 33.04], [132.4521, 33.0352], [132.4555, 33.039], [132.4489, 33.0413], [132.45, 33.0483], [132.4567, 33.0492], [132.4581, 33.0459], [132.4702, 33.0497], [132.4686, 33.0408], [132.4706, 33.0394], [132.4719, 33.0419], [132.4762, 33.042], [132.4742, 33.0434], [132.4757, 33.048], [132.4788, 33.0464], [132.4814, 33.0496], [132.4847, 33.0472], [132.4858, 33.0415], [132.4813, 33.0298], [132.4843, 33.0242], [132.4848, 33.011], [132.4899, 33.0103], [132.4917, 33.0167], [132.4963, 33.0187], [132.4958, 33.0169], [132.4977, 33.0175], [132.4958, 33.0149], [132.4943, 33.0161], [132.4961, 33.012], [132.5062, 33.004], [132.5029, 33.0012], [132.5035, 32.9944], [132.5007, 32.9934], [132.5057, 32.9856], [132.5121, 32.981], [132.5113, 32.9767], [132.515, 32.9782], [132.5164, 32.9766], [132.5141, 32.9758], [132.5188, 32.9769], [132.5186, 32.9747], [132.5215, 32.9739], [132.521, 32.9761], [132.5248, 32.9776], [132.5237, 32.9722], [132.5285, 32.9727], [132.5304, 32.9706], [132.5294, 32.974], [132.5319, 32.9741], [132.5372, 32.9686], [132.5376, 32.9749], [132.5449, 32.965], [132.5574, 32.9627], [132.5532, 32.9622], [132.5527, 32.9574], [132.5501, 32.9568], [132.5397, 32.9633], [132.5339, 32.9632], [132.5311, 32.9658], [132.5279, 32.9594], [132.5235, 32.9614], [132.5238, 32.9649], [132.5165, 32.9609], [132.5152, 32.9665], [132.5115, 32.9681], [132.5055, 32.9666], [132.5055, 32.9628], [132.5007, 32.965], [132.4927, 32.9646], [132.5018, 32.9692], [132.4985, 32.9716], [132.5039, 32.9726], [132.496, 32.9749], [132.4961, 32.9771], [132.5008, 32.9781], [132.5, 32.9794], [132.5051, 32.9797], [132.5012, 32.9824], [132.4988, 32.9812], [132.4986, 32.9836], [132.4936, 32.9821], [132.4954, 32.9855], [132.4997, 32.9854], [132.4973, 32.9877], [132.4887, 32.9809], [132.4844, 32.9803], [132.4874, 32.9749], [132.4843, 32.9715], [132.4774, 32.9732], [132.4698, 32.9696], [132.481, 32.9677], [132.4816, 32.9615], [132.5028, 32.956], [132.4999, 32.9485], [132.4942, 32.9477], [132.4958, 32.9434], [132.4922, 32.9398], [132.4848, 32.9446], [132.4821, 32.9383], [132.4774, 32.9379], [132.4777, 32.9422], [132.473, 32.9392], [132.4669, 32.9392], [132.4661, 32.9429], [132.4605, 32.9381], [132.4705, 32.9352], [132.473, 32.9238], [132.4778, 32.9219], [132.4749, 32.9152], [132.4776, 32.9101], [132.4721, 32.9062], [132.4854, 32.9045], [132.4898, 32.9017], [132.4912, 32.8978], [132.4922, 32.9032], [132.4993, 32.9055], [132.51, 32.9026], [132.5164, 32.9034], [132.5222, 32.909], [132.5191, 32.9097], [132.5192, 32.9119], [132.527, 32.915], [132.5273, 32.9205], [132.5141, 32.9193], [132.5118, 32.9164], [132.5036, 32.9145], [132.497, 32.9183], [132.516, 32.9322], [132.527, 32.9328], [132.5175, 32.937], [132.5163, 32.9412], [132.5107, 32.9397], [132.5047, 32.9415], [132.5044, 32.9476], [132.5125, 32.9501], [132.5159, 32.9482], [132.5244, 32.9493], [132.5264, 32.9451], [132.5308, 32.9459], [132.5311, 32.9486], [132.5359, 32.9484], [132.5379, 32.9457], [132.5355, 32.9405], [132.541, 32.9384], [132.54, 32.9356], [132.5485, 32.9328], [132.5552, 32.9339], [132.5614, 32.9296], [132.5636, 32.931], [132.5677, 32.9293], [132.5704, 32.9297], [132.5659, 32.9352], [132.5626, 32.9335], [132.5622, 32.9361], [132.5588, 32.935], [132.5592, 32.9368], [132.5535, 32.9395], [132.5499, 32.9388], [132.5481, 32.9451], [132.5523, 32.9473], [132.5524, 32.9443], [132.5556, 32.944], [132.5557, 32.9469], [132.5579, 32.9475], [132.564, 32.9435], [132.5623, 32.9457], [132.5644, 32.9473], [132.5708, 32.9454], [132.5732, 32.9469], [132.5777, 32.9386], [132.5809, 32.941], [132.5794, 32.9441], [132.5883, 32.9421], [132.5905, 32.9458], [132.5993, 32.9451], [132.6014, 32.9477], [132.6078, 32.9481], [132.6015, 32.9461], [132.6027, 32.9442], [132.6007, 32.9427], [132.597, 32.9436], [132.5967, 32.9417], [132.594, 32.9423], [132.5861, 32.9385], [132.5863, 32.9313], [132.5905, 32.9281], [132.5904, 32.925], [132.5995, 32.9223], [132.5948, 32.9163], [132.5988, 32.9126], [132.6065, 32.9165], [132.6082, 32.9149], [132.6148, 32.9197], [132.6448, 32.9279], [132.6517, 32.9276], [132.6554, 32.9251], [132.6562, 32.9322], [132.653, 32.9397], [132.6755, 32.9443], [132.6781, 32.9428], [132.6838, 32.9474], [132.6819, 32.9574], [132.6835, 32.9632], [132.6811, 32.9641], [132.6866, 32.963], [132.6863, 32.968], [132.6916, 32.974], [132.6873, 32.9759], [132.6871, 32.9821], [132.6844, 32.9826], [132.6814, 32.994], [132.687, 32.9981], [132.6835, 33.0048], [132.6769, 33.0105], [132.6787, 33.0136], [132.6757, 33.0164], [132.6753, 33.022], [132.6786, 33.0295], [132.6784, 33.0375], [132.6577, 33.0572], [132.6696, 33.0712], [132.6666, 33.0809], [132.6699, 33.0854], [132.6691, 33.0934], [132.6634, 33.1092], [132.6534, 33.1108], [132.6462, 33.1162], [132.6374, 33.1325], [132.6305, 33.1322], [132.6283, 33.1341], [132.6322, 33.1492], [132.6149, 33.1688], [132.6195, 33.1737], [132.6195, 33.1812], [132.6356, 33.1865], [132.6372, 33.1834], [132.6345, 33.1784], [132.6387, 33.1737], [132.6471, 33.1719], [132.6486, 33.168], [132.6594, 33.1604], [132.6623, 33.1544], [132.6732, 33.151], [132.6866, 33.1349], [132.6957, 33.1374], [132.6986, 33.1463], [132.7145, 33.1566], [132.7194, 33.1667], [132.7285, 33.1701], [132.7323, 33.1774], [132.7378, 33.182], [132.7372, 33.1862], [132.7417, 33.1897], [132.7384, 33.1958], [132.7407, 33.2012], [132.7484, 33.2035], [132.7587, 33.2015], [132.7756, 33.2059], [132.7735, 33.2189], [132.7708, 33.221], [132.775, 33.2326], [132.772, 33.2413], [132.7775, 33.246], [132.7796, 33.2559], [132.7875, 33.2626], [132.7877, 33.2681], [132.792, 33.2739], [132.8142, 33.2804], [132.817, 33.2837], [132.8282, 33.2832], [132.8372, 33.2894], [132.8405, 33.2878], [132.8497, 33.2894], [132.8576, 33.2929], [132.8725, 33.3048], [132.8849, 33.3073], [132.8986, 33.3151], [132.9005, 33.32], [132.8986, 33.3247], [132.9031, 33.3307], [132.9006, 33.3431], [132.8838, 33.3622], [132.8744, 33.3639], [132.8699, 33.3673], [132.8599, 33.3684], [132.8531, 33.3882], [132.8562, 33.392], [132.8545, 33.3985], [132.8429, 33.3976], [132.8358, 33.4004], [132.8318, 33.4081], [132.8341, 33.4202], [132.8249, 33.4229], [132.8234, 33.4293], [132.8279, 33.4382], [132.8266, 33.4456], [132.8084, 33.4534], [132.8065, 33.4569], [132.8095, 33.4647], [132.8115, 33.466], [132.8151, 33.4642], [132.819, 33.4663], [132.8206, 33.4726], [132.8272, 33.4723], [132.8322, 33.4761], [132.8375, 33.4739], [132.847, 33.4792], [132.8729, 33.471], [132.8894, 33.4734], [132.9154, 33.4672], [132.944, 33.4719], [132.9517, 33.4665], [132.9584, 33.4663], [132.9784, 33.4729], [132.9861, 33.4727], [133.0148, 33.4805], [133.0134, 33.4903], [133.0344, 33.512], [133.0384, 33.521], [133.0377, 33.5263], [133.0643, 33.5427], [133.0603, 33.5541], [133.0622, 33.5618], [133.0466, 33.5758], [133.048, 33.5832], [133.0552, 33.5898], [133.056, 33.5951], [133.0699, 33.6011], [133.0796, 33.6087], [133.0788, 33.6119], [133.0731, 33.6145], [133.0673, 33.6211], [133.075, 33.6505], [133.0772, 33.6543], [133.084, 33.6544], [133.0906, 33.6578], [133.1063, 33.6567], [133.1167, 33.6605], [133.1214, 33.6741], [133.1194, 33.6794], [133.1214, 33.6863], [133.1194, 33.6891], [133.1253, 33.6984], [133.1444, 33.7045], [133.14, 33.7158], [133.1459, 33.7196], [133.1464, 33.7227], [133.1612, 33.7315], [133.1578, 33.7503], [133.165, 33.7565], [133.172, 33.7579], [133.1766, 33.7636], [133.1827, 33.7667], [133.1823, 33.7714], [133.1872, 33.7774], [133.193, 33.794], [133.2059, 33.7944], [133.2204, 33.7804], [133.2312, 33.784], [133.2372, 33.7829], [133.2459, 33.789], [133.2504, 33.7884], [133.2565, 33.7928], [133.2611, 33.8009], [133.2626, 33.8048], [133.2609, 33.8108], [133.2678, 33.8242], [133.2772, 33.8308], [133.2826, 33.832], [133.2934, 33.8289], [133.3104, 33.8159], [133.3257, 33.8146], [133.3335, 33.8215], [133.3458, 33.8249], [133.3555, 33.8343], [133.3914, 33.8244], [133.4011, 33.8363], [133.4145, 33.8397], [133.4249, 33.8392], [133.4321, 33.835], [133.449, 33.8332], [133.4545, 33.8369], [133.4641, 33.8344], [133.4706, 33.8367], [133.4735, 33.8337], [133.4839, 33.8326], [133.4866, 33.8297], [133.4926, 33.8324], [133.499, 33.829], [133.5082, 33.8359], [133.5064, 33.8395], [133.5092, 33.8481], [133.5182, 33.8474], [133.5264, 33.8538], [133.5256, 33.8614], [133.5362, 33.866], [133.5358, 33.8714], [133.54, 33.8753], [133.5399, 33.8785], [133.5498, 33.882], [133.5567, 33.8824], [133.5611, 33.876], [133.5693, 33.8734], [133.5714, 33.8696], [133.5831, 33.8678], [133.5977, 33.8802], [133.6115, 33.8808], [133.6269, 33.8721], [133.6351, 33.8801], [133.6435, 33.8833], [133.6607, 33.8816], [133.662, 33.8858], [133.6778, 33.8929], [133.6747, 33.9032], [133.6776, 33.9097], [133.6905, 33.9162], [133.6854, 33.9259], [133.6757, 33.9263], [133.6764, 33.9328], [133.6925, 33.9439], [133.6928, 33.9476], [133.6874, 33.9548], [133.6924, 33.9629], [133.683, 33.9649], [133.6833, 33.9686], [133.6803, 33.97], [133.6842, 33.9766], [133.6814, 33.9788], [133.6822, 33.9834], [133.6747, 33.9832], [133.6771, 33.9942], [133.6816, 33.9971], [133.6856, 34.0053], [133.679, 34.0118], [133.6782, 34.0181], [133.6717, 34.0205], [133.6649, 34.0272], [133.6587, 34.0276], [133.6567, 34.0298], [133.6396, 34.026], [133.6268, 34.038], [133.6134, 34.0323], [133.607, 34.0369], [133.6041, 34.036], [133.5983, 34.0435], [133.5927, 34.0348], [133.589, 34.0349], [133.5886, 34.0332], [133.5889, 34.0352], [133.5862, 34.0345], [133.5835, 34.0294], [133.5786, 34.0314], [133.5764, 34.0276], [133.5715, 34.0322], [133.5384, 34.0132], [133.5086, 34.002], [133.5094, 33.9909], [133.524, 33.9933], [133.5382, 33.9833], [133.5326, 33.987], [133.523, 33.9796], [133.5242, 33.9762], [133.5149, 33.9712], [133.5147, 33.9729], [133.5133, 33.9728], [133.5147, 33.9719], [133.5119, 33.9717], [133.5134, 33.9704], [133.5123, 33.9699], [133.5115, 33.9719], [133.5127, 33.9731], [133.5114, 33.9719], [133.5121, 33.9693], [133.5095, 33.9735], [133.5024, 33.9728], [133.5019, 33.9697], [133.4925, 33.9691], [133.4853, 33.9728], [133.4747, 33.9717], [133.474, 33.9743], [133.4725, 33.9723], [133.4719, 33.977], [133.4717, 33.9743], [133.4701, 33.9744], [133.4715, 33.977], [133.47, 33.9744], [133.4649, 33.9755], [133.462, 33.974], [133.4647, 33.9767], [133.4534, 33.984], [133.4516, 33.9814], [133.4435, 33.9814], [133.4413, 33.9846], [133.4291, 33.9862], [133.4299, 33.9875], [133.4199, 33.9844], [133.4201, 33.9859], [133.4136, 33.9861], [133.4123, 33.9881], [133.4147, 33.9877], [133.4108, 33.9906], [133.4028, 33.9884], [133.3955, 33.9913], [133.3877, 33.9853], [133.3573, 33.9785], [133.3601, 33.9907], [133.3621, 33.9893], [133.3629, 33.991], [133.3628, 33.9891], [133.3672, 33.9929], [133.3648, 33.9925], [133.3652, 33.9944], [133.3681, 33.9926], [133.37, 33.9965], [133.3684, 34.0016], [133.3707, 34.0055], [133.3672, 34.0078], [133.3617, 34.0037], [133.3549, 34.0054], [133.2552, 33.9887], [133.2564, 33.9808], [133.2484, 33.9752], [133.2498, 33.9643], [133.2539, 33.9646], [133.2569, 33.9622], [133.2511, 33.963], [133.2491, 33.9607], [133.2543, 33.9559], [133.247, 33.9598], [133.2453, 33.9578], [133.2483, 33.9519], [133.2447, 33.9517], [133.2431, 33.9569], [133.2383, 33.9568], [133.2354, 33.9561], [133.236, 33.9511], [133.2301, 33.9514], [133.2293, 33.9574], [133.2301, 33.9514], [133.2191, 33.9494], [133.2201, 33.945], [133.219, 33.9494], [133.1804, 33.9418], [133.182, 33.9383], [133.1802, 33.9418], [133.1667, 33.9408], [133.168, 33.9382], [133.1335, 33.9271], [133.126, 33.9316], [133.1311, 33.9615], [133.0956, 33.9812], [133.0666, 33.9827], [133.0479, 34.016], [133.0435, 34.0163], [133.0488, 34.0163], [133.0433, 34.0238], [133.0464, 34.0223], [133.0458, 34.0243], [133.0437, 34.0244], [133.0381, 34.0325], [133.0373, 34.0393], [133.0301, 34.0454], [133.0394, 34.0517], [133.0217, 34.0741], [132.9931, 34.0883], [132.9854, 34.099], [132.9862, 34.0969], [132.9847, 34.0976], [132.9818, 34.1048], [132.9799, 34.1039], [132.9816, 34.1077], [132.9786, 34.1159], [132.9734, 34.1162], [132.9715, 34.1136], [132.9733, 34.1107], [132.9715, 34.1106], [132.9737, 34.1086], [132.9691, 34.107], [132.9651, 34.1186], [132.9526, 34.1243], [132.9559, 34.1234], [132.9482, 34.1303], [132.9464, 34.1379], [132.9419, 34.1429], [132.9379, 34.1379], [132.9354, 34.1255], [132.9338, 34.1248], [132.9338, 34.1265], [132.9307, 34.1229], [132.9282, 34.1233], [132.9241, 34.1163], [132.9187, 34.1169], [132.9148, 34.1214], [132.9123, 34.1196], [132.9142, 34.122], [132.9098, 34.119], [132.9094, 34.121], [132.9049, 34.1198], [132.9051, 34.1212], [132.9041, 34.1194], [132.9, 34.1214], [132.904, 34.1194], [132.8968, 34.1207], [132.8915, 34.1188], [132.896, 34.1167], [132.8953, 34.1115], [132.8985, 34.1093], [132.905, 34.1135], [132.9163, 34.1109], [132.9203, 34.1118], [132.9241, 34.1091], [132.924, 34.11], [132.9269, 34.1103], [132.9251, 34.1098], [132.9282, 34.1048], [132.9314, 34.0904], [132.929, 34.0874], [132.9256, 34.089], [132.9193, 34.0864], [132.9194, 34.083], [132.9214, 34.084], [132.9228, 34.082], [132.9205, 34.0701], [132.9241, 34.0694], [132.9167, 34.07], [132.9244, 34.0677], [132.9199, 34.0686], [132.9221, 34.0661], [132.9173, 34.0662], [132.9176, 34.0642], [132.9123, 34.0622], [132.9, 34.0682], [132.8864, 34.059], [132.8777, 34.0577], [132.8785, 34.059], [132.872, 34.0555], [132.8719, 34.0575], [132.8687, 34.0565], [132.8687, 34.0584], [132.8634, 34.0587], [132.8522, 34.0524], [132.8573, 34.0543], [132.8566, 34.0503], [132.8543, 34.0501], [132.8585, 34.0481], [132.8559, 34.0486], [132.8543, 34.0449], [132.85, 34.0461], [132.8493, 34.0435], [132.8405, 34.0421], [132.8424, 34.0385], [132.839, 34.0407], [132.838, 34.0339], [132.8377, 34.0383], [132.8347, 34.0328], [132.8329, 34.0324], [132.8311, 34.0337], [132.8321, 34.0351], [132.8302, 34.0332], [132.8279, 34.0291], [132.8084, 34.0186], [132.7984, 34.0084], [132.7979, 34.0101], [132.7899, 34.0098], [132.7772, 34.0048], [132.7726, 33.9996], [132.7667, 33.9999], [132.7663, 33.9971], [132.771, 33.9966], [132.7746, 33.9919], [132.7716, 33.9833], [132.7772, 33.981], [132.7708, 33.9825], [132.7697, 33.9759], [132.7726, 33.9765], [132.7696, 33.9743], [132.772, 33.9628], [132.7698, 33.9582], [132.7714, 33.9572], [132.7683, 33.9549], [132.7707, 33.9551], [132.7683, 33.9546], [132.7694, 33.9517], [132.7668, 33.9458], [132.7688, 33.9455], [132.7666, 33.9452], [132.7631, 33.9385], [132.7657, 33.9377], [132.7626, 33.9379], [132.7624, 33.9317], [132.7567, 33.9241], [132.7578, 33.9181], [132.7553, 33.9113], [132.7469, 33.9065], [132.7483, 33.9042], [132.7469, 33.9058], [132.743, 33.9044], [132.7445, 33.9026], [132.7157, 33.9135], [132.6932, 33.9039], [132.6907, 33.914], [132.6935, 33.9148], [132.6935, 33.9128], [132.6951, 33.9218], [132.6975, 33.9237], [132.702, 33.9227], [132.7022, 33.9269], [132.6955, 33.9253], [132.6907, 33.927], [132.6888, 33.9217], [132.6794, 33.921], [132.6806, 33.9143], [132.6785, 33.9102], [132.6708, 33.909], [132.6601, 33.9109], [132.6594, 33.9058], [132.653, 33.8999], [132.6546, 33.8985], [132.6612, 33.9035], [132.6661, 33.901], [132.6689, 33.8962], [132.6656, 33.891], [132.6649, 33.8808], [132.6616, 33.8773], [132.663, 33.8734], [132.6686, 33.8704], [132.6729, 33.8753], [132.6796, 33.8755], [132.6824, 33.8732], [132.6888, 33.8755], [132.6817, 33.8049], [132.6892, 33.8049]]], [[[132.6388, 33.8947], [132.6372, 33.8935], [132.64, 33.888], [132.6437, 33.8864], [132.646, 33.8909], [132.6388, 33.8947]]], [[[132.7656, 33.977], [132.7617, 33.9751], [132.7638, 33.9717], [132.7671, 33.9735], [132.7656, 33.977]]], [[[132.7019, 34.0657], [132.706, 34.0697], [132.7117, 34.0691], [132.7113, 34.0727], [132.7053, 34.0722], [132.7019, 34.0657]]], [[[132.5148, 33.9895], [132.5125, 33.9905], [132.508, 33.9872], [132.5027, 33.9895], [132.5014, 33.984], [132.4956, 33.9808], [132.5005, 33.9734], [132.498, 33.9702], [132.4909, 33.9703], [132.4926, 33.9649], [132.4961, 33.9684], [132.5051, 33.9709], [132.506, 33.9749], [132.5128, 33.9754], [132.513, 33.9815], [132.5141, 33.9802], [132.5165, 33.9822], [132.5142, 33.9824], [132.52, 33.9829], [132.5231, 33.9865], [132.5227, 33.99], [132.5148, 33.9895]]], [[[132.5192, 33.9944], [132.5177, 33.9951], [132.5186, 33.9919], [132.522, 33.9911], [132.5192, 33.9944]]], [[[132.5505, 33.9743], [132.5561, 33.9788], [132.5578, 33.9869], [132.5643, 33.9866], [132.5626, 33.99], [132.5665, 33.9945], [132.563, 33.9932], [132.5584, 33.9953], [132.5536, 33.9937], [132.5515, 33.9899], [132.5447, 33.9924], [132.5423, 33.9897], [132.5352, 33.9883], [132.5342, 33.9863], [132.5376, 33.9825], [132.5355, 33.9792], [132.5379, 33.9793], [132.5414, 33.9742], [132.5337, 33.9692], [132.541, 33.9612], [132.5443, 33.9691], [132.5499, 33.97], [132.5505, 33.9743]]], [[[132.564, 33.9699], [132.5622, 33.9691], [132.5633, 33.9669], [132.564, 33.9699]]], [[[132.5517, 33.9372], [132.5495, 33.9381], [132.5469, 33.9351], [132.5439, 33.9364], [132.538, 33.9332], [132.5393, 33.9342], [132.5356, 33.9334], [132.5305, 33.9358], [132.5262, 33.9337], [132.5215, 33.9366], [132.521, 33.9339], [132.5162, 33.9322], [132.5176, 33.9272], [132.5214, 33.9295], [132.527, 33.9262], [132.5353, 33.9268], [132.543, 33.9324], [132.5535, 33.9333], [132.5547, 33.9362], [132.5517, 33.9372]]], [[[132.5594, 33.9277], [132.5561, 33.928], [132.5624, 33.9262], [132.5594, 33.9277]]], [[[132.5339, 33.8526], [132.5294, 33.8556], [132.5248, 33.8527], [132.5182, 33.8542], [132.5156, 33.8522], [132.5257, 33.852], [132.5314, 33.8444], [132.5339, 33.8526]]], [[[132.6047, 33.984], [132.5905, 33.9747], [132.5896, 33.9705], [132.5785, 33.9686], [132.591, 33.9583], [132.5915, 33.9502], [132.5995, 33.943], [132.6037, 33.9439], [132.606, 33.949], [132.6043, 33.9475], [132.6041, 33.9499], [132.6091, 33.9515], [132.614, 33.957], [132.6177, 33.9577], [132.6234, 33.9552], [132.6218, 33.9565], [132.6249, 33.9579], [132.6324, 33.9536], [132.637, 33.9574], [132.6418, 33.9566], [132.6439, 33.9609], [132.6402, 33.9712], [132.6345, 33.9707], [132.6337, 33.9727], [132.6328, 33.9693], [132.6298, 33.9746], [132.6334, 33.9779], [132.6343, 33.9742], [132.6351, 33.9739], [132.6335, 33.9775], [132.6342, 33.9783], [132.6349, 33.9778], [132.6357, 33.9792], [132.644, 33.9793], [132.645, 33.9871], [132.6402, 33.9942], [132.6407, 34.0049], [132.6423, 34.0069], [132.6481, 34.0074], [132.6523, 34.0136], [132.644, 34.0177], [132.6449, 34.0098], [132.6331, 34.0059], [132.6321, 34.0018], [132.6264, 34.0006], [132.6264, 33.9967], [132.6221, 33.9927], [132.6138, 33.992], [132.6095, 33.9953], [132.6047, 33.992], [132.6069, 33.9894], [132.6047, 33.984]]], [[[132.5883, 34.0249], [132.5957, 34.0265], [132.5966, 34.0315], [132.5905, 34.0289], [132.5883, 34.0249]]], [[[132.6639, 33.9728], [132.6604, 33.9748], [132.6597, 33.9702], [132.652, 33.9674], [132.6486, 33.9619], [132.6494, 33.9572], [132.6567, 33.951], [132.6618, 33.9516], [132.6659, 33.9571], [132.6747, 33.9525], [132.6715, 33.9653], [132.6726, 33.9721], [132.6705, 33.9703], [132.6639, 33.9728]]], [[[132.6893, 33.9775], [132.6867, 33.9748], [132.69, 33.9746], [132.6886, 33.9722], [132.6826, 33.9729], [132.6861, 33.9654], [132.6972, 33.966], [132.6928, 33.9729], [132.6941, 33.9761], [132.6893, 33.9775]]], [[[133.0989, 34.0242], [133.0979, 34.0257], [133.0902, 34.0225], [133.0953, 34.0191], [133.1002, 34.023], [133.0989, 34.0242]]], [[[133.1095, 34.0623], [133.1085, 34.0605], [133.1126, 34.0597], [133.1095, 34.0623]]], [[[133.0966, 34.0613], [133.0963, 34.0579], [133.105, 34.0565], [133.1047, 34.0599], [133.102, 34.0587], [133.0966, 34.0613]]], [[[133.1047, 34.0237], [133.1019, 34.0221], [133.1051, 34.0218], [133.1047, 34.0237]]], [[[132.9818, 34.1289], [132.976, 34.1272], [132.9734, 34.1221], [132.9806, 34.1231], [132.9839, 34.1275], [132.9818, 34.1289]]], [[[132.989, 34.1188], [132.9908, 34.1125], [132.9952, 34.1129], [132.9964, 34.1182], [132.9941, 34.1222], [132.989, 34.1188]]], [[[133.0228, 34.1752], [133.0289, 34.1711], [133.0298, 34.1724], [133.0317, 34.1704], [133.0321, 34.1724], [133.0346, 34.1709], [133.0355, 34.1644], [133.0401, 34.1598], [133.0388, 34.1533], [133.0412, 34.1533], [133.041, 34.1499], [133.0344, 34.1477], [133.0373, 34.1516], [133.0337, 34.1505], [133.0313, 34.1544], [133.0337, 34.1552], [133.0265, 34.1582], [133.0241, 34.1538], [133.0217, 34.154], [133.0259, 34.1526], [133.0208, 34.1452], [133.0152, 34.1421], [133.0194, 34.136], [133.0178, 34.1297], [133.0144, 34.1284], [133.0172, 34.1265], [133.0207, 34.1282], [133.0231, 34.1244], [133.0206, 34.1188], [133.0143, 34.1159], [133.0127, 34.1109], [133.0251, 34.108], [133.0295, 34.1103], [133.035, 34.1073], [133.0375, 34.113], [133.0431, 34.1135], [133.0455, 34.1205], [133.0555, 34.1246], [133.0609, 34.1344], [133.0628, 34.1342], [133.0613, 34.1327], [133.0792, 34.1448], [133.0825, 34.1536], [133.0835, 34.152], [133.087, 34.1574], [133.1012, 34.1588], [133.1017, 34.1623], [133.1058, 34.1634], [133.1081, 34.1693], [133.1107, 34.1697], [133.112, 34.1784], [133.1073, 34.1745], [133.0988, 34.1751], [133.0922, 34.1733], [133.0898, 34.1701], [133.0882, 34.1723], [133.0866, 34.1694], [133.0826, 34.1716], [133.0832, 34.1695], [133.0766, 34.1757], [133.0764, 34.1845], [133.0709, 34.1902], [133.0744, 34.1941], [133.0772, 34.1933], [133.0756, 34.1965], [133.0721, 34.1959], [133.0742, 34.1942], [133.0707, 34.1903], [133.037, 34.1953], [133.0299, 34.1932], [133.0279, 34.1856], [133.0219, 34.1833], [133.0228, 34.1752]]], [[[132.9975, 34.1589], [132.9899, 34.1545], [132.9898, 34.151], [133.0062, 34.1469], [133.0095, 34.1481], [133.0108, 34.153], [133.0038, 34.1539], [132.9975, 34.1589]]], [[[133.0026, 34.1183], [133.0025, 34.1166], [133.0055, 34.1173], [133.0026, 34.1183]]], [[[133.0088, 34.1464], [133.0104, 34.142], [133.0117, 34.1444], [133.0088, 34.1464]]], [[[133.0067, 34.1234], [133.0088, 34.1206], [133.0113, 34.1211], [133.0067, 34.1234]]], [[[133.0804, 34.1832], [133.081, 34.1816], [133.082, 34.1835], [133.0804, 34.1832]]], [[[133.089, 34.1928], [133.0881, 34.1949], [133.0824, 34.1867], [133.0837, 34.1816], [133.0888, 34.1826], [133.0934, 34.1876], [133.0941, 34.1925], [133.089, 34.1928]]], [[[133.1824, 34.1119], [133.1795, 34.1115], [133.1778, 34.1075], [133.1826, 34.1085], [133.1821, 34.1037], [133.1878, 34.103], [133.1913, 34.1084], [133.1852, 34.1084], [133.1855, 34.1115], [133.1824, 34.1119]]], [[[133.1602, 34.1239], [133.1548, 34.1231], [133.1587, 34.1176], [133.1602, 34.1239]]], [[[133.1901, 34.1233], [133.1836, 34.1224], [133.1803, 34.1161], [133.1874, 34.1166], [133.1861, 34.1199], [133.1901, 34.1233]]], [[[133.1065, 34.2182], [133.1101, 34.2273], [133.1066, 34.2316], [133.1096, 34.2312], [133.1088, 34.2337], [133.1115, 34.2338], [133.1079, 34.2419], [133.1, 34.2324], [133.1016, 34.2355], [133.0977, 34.2358], [133.0975, 34.2341], [133.0956, 34.2389], [133.0868, 34.2348], [133.0865, 34.2319], [133.0793, 34.2297], [133.0737, 34.2325], [133.073, 34.2311], [133.0705, 34.2368], [133.0642, 34.2353], [133.0589, 34.2274], [133.0671, 34.2189], [133.0638, 34.2161], [133.0575, 34.2156], [133.0539, 34.212], [133.0596, 34.2064], [133.0711, 34.2096], [133.0755, 34.1988], [133.0814, 34.1929], [133.0938, 34.2035], [133.0988, 34.2042], [133.1012, 34.2027], [133.0999, 34.199], [133.104, 34.1995], [133.1046, 34.1945], [133.1101, 34.1909], [133.1145, 34.1946], [133.1266, 34.1954], [133.1261, 34.1995], [133.1217, 34.2016], [133.1219, 34.2055], [133.1192, 34.2026], [133.117, 34.2053], [133.1229, 34.2074], [133.1243, 34.2059], [133.1256, 34.2099], [133.1312, 34.2127], [133.1382, 34.2107], [133.1373, 34.215], [133.1406, 34.2209], [133.1338, 34.2144], [133.1272, 34.2176], [133.1251, 34.2162], [133.1234, 34.2188], [133.1228, 34.211], [133.1215, 34.2162], [133.118, 34.2164], [133.1181, 34.2185], [133.1159, 34.2183], [133.1135, 34.2131], [133.1155, 34.2179], [133.109, 34.222], [133.1066, 34.2181], [133.11, 34.2135], [133.1065, 34.2182]]], [[[132.9974, 34.2897], [132.9839, 34.2905], [132.9806, 34.2866], [132.9815, 34.2822], [132.9854, 34.28], [132.9859, 34.2749], [132.9903, 34.2753], [132.99, 34.2737], [132.9862, 34.2745], [132.9826, 34.2687], [132.9783, 34.2714], [132.9703, 34.2703], [132.9644, 34.2641], [132.9668, 34.2596], [132.9716, 34.2579], [132.9868, 34.2632], [132.9924, 34.2592], [132.989, 34.2525], [132.9955, 34.2517], [132.9935, 34.2493], [132.9954, 34.2473], [132.987, 34.2475], [132.9942, 34.2438], [132.9912, 34.2394], [132.9924, 34.2363], [132.9902, 34.2368], [132.992, 34.235], [132.9903, 34.2243], [132.9868, 34.2232], [132.9864, 34.2259], [132.982, 34.2242], [132.9806, 34.2287], [132.9748, 34.2262], [132.9708, 34.2285], [132.9635, 34.2271], [132.9622, 34.2235], [132.9654, 34.2237], [132.9637, 34.2214], [132.9655, 34.2194], [132.9613, 34.2228], [132.9542, 34.223], [132.9526, 34.217], [132.9466, 34.2093], [132.9429, 34.2092], [132.9416, 34.204], [132.9478, 34.2055], [132.9517, 34.2036], [132.9489, 34.2016], [132.9514, 34.1973], [132.9479, 34.1954], [132.9486, 34.193], [132.9539, 34.1942], [132.9631, 34.1915], [132.9822, 34.1999], [132.9924, 34.2018], [133.001, 34.2094], [133.0201, 34.2111], [133.0326, 34.2085], [133.0456, 34.2147], [133.0502, 34.2142], [133.0586, 34.22], [133.0524, 34.2272], [133.054, 34.2361], [133.0517, 34.2413], [133.0535, 34.2411], [133.0539, 34.253], [133.0573, 34.258], [133.0484, 34.2586], [133.0491, 34.2603], [133.0442, 34.2616], [133.0417, 34.2693], [133.0448, 34.267], [133.0427, 34.2696], [133.0408, 34.2691], [133.0414, 34.2727], [133.0399, 34.2706], [133.0361, 34.2771], [133.0352, 34.2858], [133.0298, 34.2932], [133.0267, 34.2938], [133.0268, 34.2959], [133.0235, 34.2949], [133.0112, 34.2998], [132.9974, 34.2897]]], [[[132.9754, 34.2964], [132.9744, 34.2977], [132.9727, 34.2951], [132.9754, 34.2964]]], [[[132.9368, 34.2054], [132.9307, 34.2009], [132.9324, 34.1991], [132.9376, 34.2006], [132.9368, 34.2054]]], [[[132.9425, 34.1908], [132.9369, 34.19], [132.9359, 34.1876], [132.9415, 34.188], [132.9446, 34.191], [132.9425, 34.1908]]], [[[132.952, 34.2524], [132.9528, 34.2496], [132.9539, 34.2517], [132.952, 34.2524]]], [[[132.9502, 34.2487], [132.9488, 34.2494], [132.9505, 34.2473], [132.9484, 34.2444], [132.9433, 34.2435], [132.9446, 34.2419], [132.9574, 34.2432], [132.9556, 34.2476], [132.9502, 34.2487]]], [[[132.9052, 34.1941], [132.8962, 34.1894], [132.897, 34.1863], [132.9035, 34.1864], [132.9071, 34.189], [132.9081, 34.1926], [132.9052, 34.1941]]], [[[132.876, 34.194], [132.8731, 34.1974], [132.8704, 34.1941], [132.8613, 34.1933], [132.8813, 34.1745], [132.8811, 34.1795], [132.8853, 34.1828], [132.8829, 34.1835], [132.8937, 34.1842], [132.8944, 34.1899], [132.8908, 34.1924], [132.8828, 34.191], [132.876, 34.194]]], [[[132.924, 34.2019], [132.9191, 34.1985], [132.9187, 34.1936], [132.9226, 34.1882], [132.9177, 34.1893], [132.9182, 34.1871], [132.9225, 34.1839], [132.9323, 34.1825], [132.934, 34.1854], [132.924, 34.2019]]], [[[132.5322, 33.231], [132.5262, 33.2385], [132.523, 33.2379], [132.5176, 33.2411], [132.5133, 33.2326], [132.5076, 33.2289], [132.5201, 33.2179], [132.5238, 33.2221], [132.5245, 33.2207], [132.5261, 33.223], [132.5339, 33.224], [132.5322, 33.231]]], [[[132.5119, 33.2204], [132.5106, 33.2196], [132.5163, 33.2192], [132.5119, 33.2204]]], [[[132.4912, 33.2004], [132.4886, 33.1993], [132.4898, 33.1967], [132.4912, 33.2004]]], [[[132.4993, 33.2083], [132.4977, 33.2071], [132.5008, 33.2045], [132.4993, 33.2083]]], [[[132.4917, 33.2201], [132.4853, 33.2167], [132.4835, 33.2195], [132.4772, 33.214], [132.4841, 33.2165], [132.4881, 33.2151], [132.4917, 33.2201]]], [[[132.3969, 33.1678], [132.392, 33.1642], [132.3956, 33.1621], [132.3985, 33.1651], [132.3969, 33.1678]]], [[[132.4037, 33.1833], [132.3989, 33.1823], [132.3986, 33.1783], [132.4073, 33.1829], [132.4037, 33.1833]]], [[[132.3622, 33.2316], [132.3558, 33.229], [132.3645, 33.2238], [132.3622, 33.2316]]], [[[132.3752, 33.2213], [132.377, 33.2172], [132.366, 33.2123], [132.3655, 33.2077], [132.3561, 33.2047], [132.3485, 33.2086], [132.3457, 33.2059], [132.341, 33.2066], [132.3543, 33.2038], [132.3554, 33.2016], [132.3533, 33.1998], [132.3575, 33.1997], [132.3576, 33.1892], [132.3607, 33.188], [132.3653, 33.1896], [132.361, 33.1929], [132.3625, 33.1962], [132.3592, 33.1974], [132.3628, 33.1986], [132.3614, 33.2027], [132.3696, 33.2034], [132.3758, 33.2084], [132.3826, 33.2087], [132.3801, 33.2182], [132.3752, 33.2213]]], [[[132.3685, 33.1873], [132.3662, 33.1861], [132.3689, 33.1811], [132.3742, 33.1822], [132.3733, 33.186], [132.3685, 33.1873]]], [[[132.2615, 33.1907], [132.2602, 33.1892], [132.2645, 33.1882], [132.2706, 33.1894], [132.2615, 33.1907]]], [[[132.2707, 33.1882], [132.2708, 33.1861], [132.2729, 33.1864], [132.2707, 33.1882]]], [[[132.2634, 33.1847], [132.261, 33.1842], [132.2646, 33.1822], [132.2625, 33.1741], [132.266, 33.1684], [132.2822, 33.1694], [132.2895, 33.1629], [132.2871, 33.1604], [132.2929, 33.1543], [132.2985, 33.1542], [132.3036, 33.1495], [132.3103, 33.148], [132.315, 33.1511], [132.3082, 33.1511], [132.3053, 33.1533], [132.305, 33.1569], [132.3113, 33.1638], [132.3019, 33.1589], [132.297, 33.1616], [132.2955, 33.1582], [132.2892, 33.1619], [132.2924, 33.1712], [132.2963, 33.1716], [132.2937, 33.1733], [132.2949, 33.1798], [132.286, 33.1735], [132.2817, 33.1767], [132.2768, 33.1713], [132.2715, 33.1783], [132.2689, 33.1767], [132.2693, 33.1727], [132.2657, 33.174], [132.2667, 33.1814], [132.2634, 33.1847]]], [[[132.3389, 33.1614], [132.3203, 33.1516], [132.3271, 33.1544], [132.3303, 33.1528], [132.3367, 33.1587], [132.3453, 33.1594], [132.3389, 33.1614]]], [[[132.3327, 33.1092], [132.3197, 33.1079], [132.3178, 33.1024], [132.3219, 33.1018], [132.3367, 33.106], [132.3359, 33.1089], [132.3327, 33.1092]]], [[[132.4245, 33.1127], [132.4219, 33.1139], [132.4176, 33.1119], [132.4269, 33.1113], [132.4245, 33.1127]]], [[[132.4163, 33.1095], [132.416, 33.1116], [132.4119, 33.1103], [132.4082, 33.106], [132.4121, 33.1021], [132.4186, 33.1058], [132.4153, 33.108], [132.4163, 33.1095]]], [[[132.3688, 33.4404], [132.3576, 33.439], [132.365, 33.4376], [132.371, 33.4391], [132.3688, 33.4404]]], [[[132.3444, 33.3807], [132.3432, 33.3774], [132.3487, 33.3726], [132.3557, 33.3735], [132.3585, 33.3687], [132.3683, 33.3773], [132.3633, 33.3761], [132.3588, 33.3793], [132.3464, 33.3781], [132.3444, 33.3807]]], [[[132.3404, 33.3863], [132.3462, 33.3958], [132.339, 33.396], [132.3363, 33.3935], [132.3357, 33.3904], [132.3427, 33.3806], [132.3404, 33.3863]]], [[[132.3397, 33.3992], [132.3396, 33.4009], [132.3374, 33.3989], [132.3397, 33.3992]]], [[[132.4751, 33.7326], [132.4877, 33.7362], [132.4899, 33.7346], [132.4923, 33.7366], [132.4845, 33.7388], [132.4766, 33.7373], [132.4751, 33.7326]]], [[[132.4848, 33.3149], [132.4849, 33.3129], [132.4871, 33.3133], [132.4848, 33.3149]]], [[[132.3793, 33.3454], [132.3772, 33.3452], [132.3789, 33.3407], [132.3809, 33.3455], [132.3793, 33.3454]]], [[[133.2196, 34.2856], [133.2129, 34.2849], [133.2099, 34.2764], [133.2085, 34.2773], [133.2077, 34.274], [133.1989, 34.2688], [133.1997, 34.2596], [133.2042, 34.258], [133.2021, 34.2539], [133.1933, 34.2573], [133.1875, 34.255], [133.1875, 34.2525], [133.1847, 34.2535], [133.1852, 34.2445], [133.1802, 34.2385], [133.1828, 34.2322], [133.1762, 34.231], [133.1804, 34.2269], [133.1884, 34.2292], [133.192, 34.2339], [133.1896, 34.2379], [133.1909, 34.2441], [133.1964, 34.2456], [133.1972, 34.254], [133.2021, 34.2512], [133.1997, 34.2495], [133.2004, 34.24], [133.2059, 34.2381], [133.2141, 34.2441], [133.2149, 34.2478], [133.2192, 34.2493], [133.2097, 34.2526], [133.209, 34.2584], [133.2197, 34.2654], [133.2275, 34.267], [133.2316, 34.2741], [133.2369, 34.2771], [133.2377, 34.2807], [133.2288, 34.2923], [133.2237, 34.2905], [133.2196, 34.2856]]], [[[133.2594, 34.2361], [133.2573, 34.2316], [133.2506, 34.2324], [133.2506, 34.2296], [133.2631, 34.2309], [133.2635, 34.2343], [133.2603, 34.2338], [133.2594, 34.2361]]], [[[133.2659, 34.1861], [133.2682, 34.1826], [133.2771, 34.1848], [133.2721, 34.2005], [133.2698, 34.1976], [133.2648, 34.1972], [133.2659, 34.1861]]], [[[133.3128, 34.1808], [133.3073, 34.1833], [133.307, 34.1793], [133.3136, 34.1759], [133.3163, 34.1704], [133.3286, 34.1741], [133.328, 34.1803], [133.3227, 34.1817], [133.3208, 34.1802], [133.3234, 34.1797], [133.3211, 34.1793], [133.3153, 34.1828], [133.316, 34.1809], [133.3128, 34.1808]]], [[[133.3656, 34.1668], [133.3651, 34.1708], [133.3588, 34.1753], [133.3585, 34.1706], [133.3636, 34.1628], [133.3656, 34.1668]]], [[[133.1721, 34.2897], [133.1704, 34.2911], [133.1742, 34.286], [133.1721, 34.2897]]], [[[133.1632, 34.2899], [133.1608, 34.2874], [133.1639, 34.2844], [133.1655, 34.2871], [133.1632, 34.2899]]], [[[133.1672, 34.2795], [133.1695, 34.276], [133.1668, 34.273], [133.1735, 34.2695], [133.1695, 34.2651], [133.1718, 34.258], [133.1784, 34.2558], [133.186, 34.2584], [133.1874, 34.2637], [133.1853, 34.2677], [133.1876, 34.2661], [133.1883, 34.2692], [133.1849, 34.2691], [133.1815, 34.2769], [133.1772, 34.278], [133.1761, 34.2824], [133.1719, 34.2856], [133.1657, 34.2821], [133.1672, 34.2795]]], [[[133.1637, 34.2465], [133.1563, 34.2453], [133.1508, 34.2418], [133.1524, 34.2328], [133.1672, 34.2342], [133.1721, 34.242], [133.1637, 34.2465]]], [[[133.1583, 34.2306], [133.154, 34.2291], [133.1502, 34.222], [133.1477, 34.2221], [133.1493, 34.2159], [133.1528, 34.2185], [133.1535, 34.2236], [133.1568, 34.2248], [133.1558, 34.2278], [133.1583, 34.2306]]], [[[133.1506, 34.2812], [133.1439, 34.2795], [133.1376, 34.2722], [133.137, 34.2673], [133.1324, 34.2651], [133.13, 34.257], [133.1328, 34.2408], [133.1402, 34.2444], [133.1466, 34.2432], [133.1427, 34.2442], [133.1503, 34.2448], [133.1663, 34.2558], [133.1665, 34.2603], [133.1571, 34.2724], [133.1596, 34.2732], [133.1566, 34.273], [133.1506, 34.2812]]], [[[132.3522, 33.4577], [132.3523, 33.4593], [132.3461, 33.4586], [132.3437, 33.4538], [132.3484, 33.4527], [132.3517, 33.4545], [132.3522, 33.4577]]], [[[132.3825, 33.0177], [132.381, 33.0153], [132.3828, 33.0151], [132.3825, 33.0177]]], [[[132.5517, 32.9632], [132.5499, 32.9635], [132.5507, 32.9606], [132.5535, 32.963], [132.5517, 32.9632]]], [[[132.5593, 32.9126], [132.5568, 32.9117], [132.5639, 32.9104], [132.5593, 32.9126]]], [[[132.4054, 32.9462], [132.4032, 32.9438], [132.4031, 32.9336], [132.4072, 32.9348], [132.4054, 32.9462]]], [[[132.4095, 32.9351], [132.4093, 32.9338], [132.4123, 32.9349], [132.4095, 32.9351]]], [[[132.4325, 32.932], [132.4306, 32.9293], [132.4327, 32.9296], [132.4325, 32.932]]], [[[132.4559, 32.9514], [132.4501, 32.9471], [132.447, 32.9486], [132.4416, 32.9436], [132.4363, 32.944], [132.4356, 32.9398], [132.4446, 32.9405], [132.4492, 32.9437], [132.4554, 32.9428], [132.4592, 32.9464], [132.4587, 32.9498], [132.4559, 32.9514]]]]}, "properties": {"name": "愛媛県"}}]}