{"type": "FeatureCollection", "features": [{"type": "Feature", "geometry": {"type": "Polygon", "coordinates": [[[139.34, 36.2453], [139.3207, 36.2368], [139.2704, 36.2501], [139.2669, 36.2427], [139.2437, 36.2445], [139.2238, 36.2588], [139.2116, 36.2565], [139.1634, 36.279], [139.1296, 36.2835], [139.0556, 36.1819], [139.0639, 36.1589], [139.0428, 36.1483], [139.0417, 36.1278], [139.0053, 36.1335], [138.9851, 36.1156], [138.9629, 36.1258], [138.945, 36.0948], [138.9312, 36.0883], [138.9024, 36.0918], [138.8646, 36.0771], [138.846, 36.0663], [138.8286, 36.0372], [138.791, 36.0293], [138.7733, 36.0388], [138.7544, 36.0341], [138.7484, 36.0154], [138.7123, 35.9852], [138.7133, 35.9674], [138.7393, 35.9389], [138.7292, 35.9085], [138.7802, 35.8994], [138.7962, 35.8726], [138.8139, 35.8633], [138.8567, 35.8648], [138.8923, 35.8397], [138.9115, 35.8529], [138.944, 35.8543], [138.9543, 35.8748], [139.0006, 35.8841], [139.0182, 35.8986], [139.0626, 35.8728], [139.1473, 35.8626], [139.1926, 35.8402], [139.2076, 35.8466], [139.2317, 35.8366], [139.2798, 35.8411], [139.301, 35.8352], [139.3051, 35.8228], [139.315, 35.825], [139.3257, 35.7951], [139.37, 35.7918], [139.3691, 35.7784], [139.3801, 35.779], [139.3803, 35.7664], [139.3919, 35.7631], [139.4968, 35.7784], [139.5419, 35.8074], [139.5432, 35.7799], [139.5163, 35.7658], [139.5476, 35.7743], [139.5471, 35.7535], [139.5887, 35.7788], [139.6026, 35.7755], [139.5987, 35.769], [139.6232, 35.7667], [139.6411, 35.7983], [139.6925, 35.8006], [139.736, 35.7892], [139.738, 35.7802], [139.7555, 35.7873], [139.7606, 35.7975], [139.7506, 35.8101], [139.7675, 35.8175], [139.7924, 35.8053], [139.8212, 35.8151], [139.8256, 35.7935], [139.8378, 35.8008], [139.8554, 35.7908], [139.8732, 35.7971], [139.8736, 35.7815], [139.8938, 35.7828], [139.8879, 35.8246], [139.9003, 35.8638], [139.8899, 35.8924], [139.8255, 35.9729], [139.8141, 35.9971], [139.8174, 36.0323], [139.7907, 36.0589], [139.7765, 36.0901], [139.7666, 36.0805], [139.7294, 36.0881], [139.7258, 36.1133], [139.6955, 36.1576], [139.6864, 36.2035], [139.678, 36.2009], [139.6579, 36.2145], [139.6491, 36.2107], [139.6506, 36.1971], [139.6288, 36.1953], [139.6239, 36.1861], [139.591, 36.2105], [139.525, 36.1912], [139.4622, 36.1896], [139.3609, 36.2529], [139.34, 36.2453]]]}, "properties": {"name": "埼玉県"}}]}