{"type": "FeatureCollection", "features": [{"type": "Feature", "geometry": {"type": "MultiPolygon", "coordinates": [[[[139.5767, 35.2473], [139.5766, 35.2482], [139.5763, 35.2476], [139.5767, 35.2473]]], [[[139.6134, 35.2202], [139.6134, 35.2208], [139.6127, 35.2211], [139.6125, 35.2202], [139.6134, 35.2202]]], [[[139.7294, 35.4632], [139.75, 35.4514], [139.833, 35.5025], [139.768, 35.5394], [139.7568, 35.5445], [139.7499, 35.5447], [139.7458, 35.5439], [139.7399, 35.5452], [139.738, 35.5447], [139.7352, 35.5413], [139.7338, 35.5409], [139.7297, 35.543], [139.7264, 35.5438], [139.7241, 35.5427], [139.7195, 35.5389], [139.714, 35.5371], [139.7061, 35.5362], [139.7018, 35.5372], [139.6996, 35.5387], [139.6985, 35.5405], [139.698, 35.5441], [139.6992, 35.5461], [139.704, 35.5495], [139.7045, 35.5509], [139.704, 35.5525], [139.699, 35.5559], [139.6899, 35.5572], [139.6812, 35.5616], [139.6781, 35.5639], [139.6752, 35.5686], [139.6713, 35.5779], [139.6694, 35.5847], [139.6675, 35.5871], [139.6633, 35.5898], [139.6598, 35.5893], [139.6587, 35.5898], [139.6563, 35.5896], [139.6512, 35.5921], [139.6486, 35.5951], [139.6398, 35.6002], [139.6362, 35.6035], [139.6348, 35.6037], [139.6324, 35.6052], [139.6317, 35.6059], [139.6321, 35.6066], [139.631, 35.6074], [139.6255, 35.6093], [139.6241, 35.611], [139.6218, 35.6117], [139.6183, 35.6137], [139.6156, 35.6133], [139.613, 35.6148], [139.6122, 35.6159], [139.6088, 35.6165], [139.6056, 35.6156], [139.599, 35.6185], [139.5918, 35.6176], [139.5838, 35.6213], [139.5805, 35.6219], [139.5764, 35.6217], [139.571, 35.624], [139.5684, 35.6263], [139.5654, 35.6277], [139.5663, 35.6296], [139.5626, 35.6314], [139.5625, 35.6323], [139.5575, 35.6341], [139.5512, 35.634], [139.5491, 35.6344], [139.5474, 35.6368], [139.5461, 35.6368], [139.5461, 35.6373], [139.5358, 35.6395], [139.5309, 35.642], [139.5253, 35.6428], [139.5241, 35.6411], [139.5243, 35.6404], [139.5234, 35.6387], [139.5224, 35.6375], [139.5209, 35.6373], [139.5236, 35.6325], [139.5204, 35.6309], [139.5193, 35.6313], [139.5187, 35.6304], [139.5176, 35.6305], [139.5159, 35.6257], [139.5143, 35.6247], [139.5117, 35.6243], [139.5106, 35.6234], [139.5095, 35.6241], [139.5072, 35.6236], [139.506, 35.6227], [139.5052, 35.6231], [139.5033, 35.6229], [139.5024, 35.622], [139.5009, 35.6217], [139.499, 35.6201], [139.498, 35.6185], [139.4948, 35.6166], [139.4952, 35.6127], [139.4963, 35.6123], [139.4969, 35.6105], [139.4996, 35.6075], [139.5001, 35.6065], [139.4999, 35.6052], [139.4988, 35.6055], [139.4977, 35.6049], [139.4961, 35.6057], [139.4933, 35.6057], [139.4894, 35.6045], [139.4879, 35.6078], [139.4864, 35.6086], [139.4832, 35.6087], [139.481, 35.6103], [139.4796, 35.6132], [139.4781, 35.6136], [139.4774, 35.613], [139.4762, 35.613], [139.477, 35.615], [139.4763, 35.6186], [139.4754, 35.6199], [139.4726, 35.6195], [139.4684, 35.6201], [139.4663, 35.6211], [139.4657, 35.6237], [139.4629, 35.6249], [139.462, 35.6247], [139.4607, 35.6219], [139.4586, 35.6208], [139.457, 35.619], [139.4561, 35.619], [139.4555, 35.6181], [139.4547, 35.6179], [139.453, 35.6183], [139.4523, 35.6157], [139.4513, 35.6152], [139.4507, 35.6133], [139.4489, 35.6119], [139.4496, 35.6105], [139.451, 35.6097], [139.4514, 35.6086], [139.4531, 35.6075], [139.4525, 35.6068], [139.4534, 35.6042], [139.4583, 35.6078], [139.4593, 35.6077], [139.4608, 35.6087], [139.4628, 35.608], [139.4636, 35.6092], [139.4649, 35.6088], [139.4656, 35.6097], [139.4663, 35.6096], [139.4669, 35.6082], [139.4667, 35.6069], [139.4679, 35.6052], [139.4697, 35.6041], [139.4716, 35.6012], [139.473, 35.6001], [139.4742, 35.5995], [139.4767, 35.5995], [139.4778, 35.599], [139.4795, 35.5952], [139.4798, 35.5955], [139.4793, 35.596], [139.4806, 35.5959], [139.4804, 35.5945], [139.4814, 35.5948], [139.4817, 35.5954], [139.4828, 35.5946], [139.4836, 35.595], [139.4829, 35.5944], [139.4833, 35.5931], [139.4835, 35.5939], [139.4851, 35.5942], [139.4837, 35.5929], [139.4849, 35.5929], [139.486, 35.5916], [139.4868, 35.5918], [139.4868, 35.5904], [139.4878, 35.5909], [139.4885, 35.5896], [139.4889, 35.5904], [139.4894, 35.5895], [139.4901, 35.5897], [139.4909, 35.5887], [139.4912, 35.5894], [139.4921, 35.5887], [139.4937, 35.5892], [139.4934, 35.5876], [139.4941, 35.5865], [139.4929, 35.5841], [139.4935, 35.5842], [139.4938, 35.5826], [139.4946, 35.5829], [139.4949, 35.5824], [139.4954, 35.5826], [139.4967, 35.5814], [139.4973, 35.5814], [139.4976, 35.582], [139.4999, 35.5807], [139.5009, 35.5788], [139.5022, 35.5784], [139.5021, 35.5768], [139.5035, 35.5766], [139.5053, 35.5745], [139.5074, 35.5755], [139.5074, 35.5738], [139.5064, 35.5716], [139.5034, 35.5714], [139.5005, 35.5705], [139.501, 35.5684], [139.4974, 35.5672], [139.4963, 35.5647], [139.4945, 35.5648], [139.4945, 35.5642], [139.4927, 35.5621], [139.4912, 35.5613], [139.4892, 35.5616], [139.4888, 35.5622], [139.4891, 35.5635], [139.4873, 35.5669], [139.4858, 35.5677], [139.4862, 35.569], [139.4839, 35.5702], [139.4831, 35.5713], [139.486, 35.5785], [139.4879, 35.5784], [139.4885, 35.5787], [139.4885, 35.5811], [139.4903, 35.5847], [139.4881, 35.5838], [139.4855, 35.5847], [139.483, 35.5829], [139.4826, 35.5817], [139.481, 35.5821], [139.478, 35.5809], [139.4772, 35.5815], [139.4781, 35.5816], [139.478, 35.582], [139.4762, 35.5819], [139.4734, 35.5765], [139.4738, 35.5748], [139.4728, 35.5727], [139.4718, 35.5721], [139.4717, 35.5712], [139.4704, 35.5707], [139.4695, 35.5696], [139.469, 35.5664], [139.4696, 35.5654], [139.4681, 35.563], [139.4694, 35.5624], [139.4701, 35.5605], [139.4749, 35.5598], [139.4751, 35.5613], [139.4766, 35.5627], [139.4785, 35.5598], [139.4797, 35.5593], [139.4801, 35.5579], [139.4818, 35.5558], [139.4816, 35.5518], [139.4827, 35.5483], [139.4823, 35.5472], [139.4807, 35.5459], [139.4801, 35.543], [139.4816, 35.5399], [139.4835, 35.5393], [139.4845, 35.5384], [139.4852, 35.5369], [139.484, 35.5363], [139.4871, 35.5359], [139.4864, 35.5344], [139.487, 35.534], [139.4855, 35.5314], [139.4877, 35.5279], [139.4863, 35.5266], [139.4875, 35.5248], [139.4855, 35.5222], [139.4857, 35.5213], [139.485, 35.5195], [139.4831, 35.519], [139.4829, 35.5177], [139.481, 35.5159], [139.4805, 35.5144], [139.4771, 35.5111], [139.481, 35.506], [139.4859, 35.5038], [139.4822, 35.5035], [139.4767, 35.5013], [139.4731, 35.5012], [139.4713, 35.502], [139.4677, 35.5024], [139.4681, 35.5067], [139.4647, 35.5112], [139.4632, 35.5178], [139.4611, 35.5193], [139.456, 35.5204], [139.4548, 35.5215], [139.4548, 35.5227], [139.457, 35.5253], [139.4576, 35.527], [139.4585, 35.5267], [139.4584, 35.5281], [139.4578, 35.528], [139.4577, 35.5287], [139.4573, 35.5284], [139.4555, 35.5295], [139.4539, 35.5316], [139.4514, 35.5328], [139.4498, 35.5347], [139.4493, 35.5346], [139.4486, 35.5352], [139.448, 35.5378], [139.445, 35.5412], [139.4452, 35.5419], [139.4405, 35.543], [139.4388, 35.5443], [139.4381, 35.5457], [139.4378, 35.5455], [139.4379, 35.5459], [139.4358, 35.547], [139.4346, 35.5463], [139.4336, 35.5467], [139.4335, 35.5462], [139.4331, 35.5472], [139.4325, 35.5471], [139.432, 35.5488], [139.4273, 35.5511], [139.4279, 35.5525], [139.4275, 35.5524], [139.4266, 35.5542], [139.4238, 35.5564], [139.4226, 35.5596], [139.4183, 35.562], [139.4178, 35.5616], [139.4162, 35.5617], [139.4157, 35.5624], [139.4164, 35.5637], [139.4135, 35.5663], [139.4126, 35.5663], [139.412, 35.5692], [139.4105, 35.5716], [139.4092, 35.5751], [139.4071, 35.5759], [139.4037, 35.5755], [139.4027, 35.576], [139.403, 35.5766], [139.4021, 35.5765], [139.4015, 35.5771], [139.4007, 35.5815], [139.3996, 35.5827], [139.4, 35.5844], [139.3992, 35.5847], [139.3981, 35.5842], [139.3972, 35.5845], [139.3964, 35.584], [139.3949, 35.584], [139.3941, 35.5859], [139.3917, 35.5849], [139.3903, 35.5852], [139.389, 35.5884], [139.3879, 35.5886], [139.3874, 35.5881], [139.3875, 35.5886], [139.387, 35.5885], [139.3853, 35.5882], [139.3852, 35.5875], [139.3844, 35.5876], [139.3844, 35.5885], [139.3829, 35.5891], [139.383, 35.59], [139.382, 35.5895], [139.3807, 35.5905], [139.3791, 35.5902], [139.3745, 35.5944], [139.3729, 35.595], [139.3724, 35.5945], [139.3701, 35.5945], [139.3663, 35.5974], [139.3625, 35.5992], [139.361, 35.5987], [139.3566, 35.5987], [139.3548, 35.6005], [139.353, 35.6002], [139.3531, 35.6008], [139.3525, 35.601], [139.3502, 35.6009], [139.3489, 35.6013], [139.3482, 35.6022], [139.3475, 35.602], [139.3472, 35.6023], [139.3467, 35.6019], [139.3441, 35.6025], [139.3429, 35.6037], [139.3426, 35.6032], [139.3419, 35.6045], [139.3401, 35.6055], [139.3392, 35.6055], [139.3378, 35.6044], [139.3351, 35.6046], [139.3335, 35.6037], [139.3309, 35.6042], [139.3302, 35.6032], [139.3269, 35.6039], [139.3262, 35.6047], [139.3249, 35.6051], [139.3247, 35.6047], [139.3243, 35.6052], [139.3241, 35.6049], [139.3208, 35.6065], [139.3198, 35.6063], [139.32, 35.6057], [139.3189, 35.6061], [139.3173, 35.6058], [139.3171, 35.6054], [139.3145, 35.6054], [139.3143, 35.6043], [139.3136, 35.6047], [139.313, 35.6043], [139.313, 35.6049], [139.3115, 35.6042], [139.3094, 35.6041], [139.3088, 35.6042], [139.3084, 35.6051], [139.3078, 35.6044], [139.3078, 35.6053], [139.3071, 35.6051], [139.3063, 35.6055], [139.3055, 35.6049], [139.3045, 35.6053], [139.3049, 35.6047], [139.3039, 35.6047], [139.3018, 35.606], [139.3011, 35.6058], [139.3011, 35.6065], [139.2992, 35.6062], [139.2984, 35.6071], [139.2987, 35.6076], [139.297, 35.6081], [139.2966, 35.6099], [139.2952, 35.6103], [139.2944, 35.6111], [139.2933, 35.6107], [139.292, 35.612], [139.2911, 35.612], [139.2902, 35.6125], [139.2896, 35.612], [139.286, 35.6125], [139.2853, 35.6134], [139.2846, 35.613], [139.2828, 35.6133], [139.2793, 35.6114], [139.2777, 35.6115], [139.2761, 35.6109], [139.2743, 35.6111], [139.2662, 35.6081], [139.2662, 35.6053], [139.2649, 35.6024], [139.2634, 35.6023], [139.2578, 35.6042], [139.2524, 35.6015], [139.2474, 35.6049], [139.2454, 35.605], [139.2426, 35.6061], [139.2406, 35.606], [139.2387, 35.6068], [139.2378, 35.6097], [139.2366, 35.6098], [139.2349, 35.6117], [139.2321, 35.6128], [139.2301, 35.6147], [139.2306, 35.6169], [139.2291, 35.6198], [139.2262, 35.6222], [139.2262, 35.6234], [139.2195, 35.626], [139.2218, 35.6292], [139.2209, 35.6307], [139.219, 35.6321], [139.2189, 35.6337], [139.2168, 35.6346], [139.2166, 35.6363], [139.2157, 35.6371], [139.2149, 35.6437], [139.2159, 35.6458], [139.2136, 35.648], [139.2126, 35.6482], [139.2112, 35.6494], [139.2069, 35.6502], [139.2056, 35.6518], [139.2037, 35.6519], [139.2022, 35.653], [139.2016, 35.6525], [139.2001, 35.6525], [139.1983, 35.6532], [139.1961, 35.6514], [139.1938, 35.6515], [139.1923, 35.6498], [139.192, 35.6476], [139.1899, 35.6464], [139.1865, 35.6464], [139.1842, 35.645], [139.1814, 35.6459], [139.179, 35.6457], [139.1759, 35.6483], [139.1758, 35.6497], [139.1741, 35.6506], [139.1716, 35.6505], [139.1699, 35.6516], [139.1669, 35.6506], [139.1666, 35.6533], [139.1676, 35.6547], [139.1683, 35.659], [139.1671, 35.6598], [139.1673, 35.6621], [139.166, 35.6634], [139.1651, 35.6636], [139.1652, 35.6657], [139.1634, 35.6669], [139.1607, 35.668], [139.1577, 35.6672], [139.1571, 35.6666], [139.1534, 35.6661], [139.151, 35.6668], [139.1463, 35.6669], [139.1422, 35.6702], [139.139, 35.6707], [139.1365, 35.6724], [139.1336, 35.673], [139.1302, 35.671], [139.13, 35.6681], [139.127, 35.6671], [139.1248, 35.6651], [139.1238, 35.6628], [139.1197, 35.6604], [139.1197, 35.6569], [139.1182, 35.6563], [139.1171, 35.6547], [139.1174, 35.6535], [139.119, 35.6525], [139.1193, 35.6512], [139.1218, 35.6489], [139.1218, 35.6475], [139.1227, 35.6468], [139.1235, 35.6471], [139.1237, 35.6462], [139.1245, 35.6463], [139.1245, 35.6455], [139.1256, 35.6447], [139.1253, 35.6439], [139.1264, 35.6437], [139.1262, 35.6429], [139.1257, 35.6428], [139.126, 35.642], [139.1266, 35.6419], [139.127, 35.6423], [139.1271, 35.6415], [139.1278, 35.6414], [139.1269, 35.641], [139.1272, 35.6399], [139.1258, 35.6391], [139.1253, 35.6354], [139.1239, 35.6346], [139.1243, 35.6336], [139.1239, 35.6328], [139.1233, 35.6329], [139.1243, 35.6309], [139.123, 35.6259], [139.1235, 35.624], [139.1253, 35.6243], [139.1257, 35.6233], [139.1264, 35.6235], [139.1256, 35.622], [139.1265, 35.6221], [139.1266, 35.6209], [139.1278, 35.6209], [139.1285, 35.6201], [139.1288, 35.6208], [139.1292, 35.6207], [139.1289, 35.6196], [139.1306, 35.6192], [139.1299, 35.6179], [139.1326, 35.6184], [139.1345, 35.6168], [139.1337, 35.6157], [139.1277, 35.6129], [139.1301, 35.6114], [139.1327, 35.6088], [139.1331, 35.6077], [139.131, 35.6062], [139.132, 35.6052], [139.1318, 35.6026], [139.1302, 35.5983], [139.1293, 35.598], [139.1296, 35.5967], [139.1289, 35.5939], [139.1247, 35.5923], [139.122, 35.5888], [139.1214, 35.5868], [139.1222, 35.584], [139.1238, 35.5842], [139.1259, 35.5829], [139.1248, 35.583], [139.1238, 35.5819], [139.1266, 35.5815], [139.1275, 35.5805], [139.1277, 35.579], [139.1268, 35.5779], [139.1279, 35.5761], [139.1279, 35.5747], [139.1269, 35.5716], [139.1288, 35.5702], [139.1285, 35.5684], [139.1298, 35.5664], [139.1283, 35.5626], [139.1244, 35.5602], [139.1235, 35.5581], [139.1212, 35.5562], [139.1176, 35.5555], [139.1151, 35.5539], [139.1129, 35.5504], [139.1119, 35.5497], [139.1135, 35.5479], [139.1117, 35.5448], [139.1128, 35.5411], [139.1121, 35.5403], [139.114, 35.5388], [139.1124, 35.5369], [139.1125, 35.5353], [139.1103, 35.5347], [139.1102, 35.5322], [139.1078, 35.5325], [139.1069, 35.5322], [139.1064, 35.53], [139.1046, 35.5272], [139.0991, 35.5242], [139.0989, 35.5236], [139.0953, 35.5225], [139.091, 35.5196], [139.0913, 35.5187], [139.0887, 35.5157], [139.0876, 35.5151], [139.0865, 35.5129], [139.0807, 35.5133], [139.079, 35.512], [139.0749, 35.5106], [139.0696, 35.5116], [139.066, 35.5093], [139.0597, 35.5077], [139.054, 35.509], [139.0515, 35.5105], [139.0472, 35.5104], [139.0461, 35.5094], [139.0435, 35.4991], [139.0395, 35.4954], [139.0375, 35.4915], [139.0303, 35.4885], [139.0286, 35.4863], [139.0275, 35.4835], [139.0276, 35.4808], [139.0238, 35.4806], [139.0217, 35.4791], [139.02, 35.479], [139.0171, 35.4792], [139.0153, 35.48], [139.0089, 35.4752], [139.0063, 35.4746], [139.0039, 35.4744], [138.9988, 35.475], [138.9953, 35.4738], [138.9921, 35.4745], [138.9897, 35.4739], [138.9865, 35.4718], [138.9842, 35.4682], [138.9821, 35.4675], [138.9795, 35.464], [138.9779, 35.4644], [138.9762, 35.4664], [138.9745, 35.4668], [138.9723, 35.4661], [138.9692, 35.4638], [138.9657, 35.4637], [138.9656, 35.463], [138.9585, 35.462], [138.9546, 35.4602], [138.9525, 35.4582], [138.9484, 35.4557], [138.9405, 35.4499], [138.9372, 35.4489], [138.937, 35.4474], [138.9322, 35.4435], [138.9303, 35.4403], [138.9276, 35.4386], [138.9279, 35.4359], [138.926, 35.432], [138.9264, 35.4308], [138.9297, 35.4282], [138.9305, 35.4264], [138.9299, 35.4218], [138.9294, 35.421], [138.928, 35.421], [138.9267, 35.4202], [138.9253, 35.415], [138.9186, 35.4117], [138.9172, 35.4104], [138.9155, 35.4051], [138.9164, 35.4005], [138.9215, 35.401], [138.9233, 35.4007], [138.9249, 35.3999], [138.9312, 35.4007], [138.9377, 35.399], [138.9397, 35.3995], [138.9432, 35.3991], [138.9487, 35.401], [138.9555, 35.4014], [138.9595, 35.4022], [138.9615, 35.4015], [138.9656, 35.4018], [138.9697, 35.4048], [138.9717, 35.405], [138.9803, 35.4045], [138.9837, 35.4017], [138.9893, 35.4028], [138.9957, 35.403], [138.9991, 35.4016], [139.0007, 35.4004], [139.0016, 35.3987], [139.0008, 35.3952], [139.0007, 35.3912], [138.9987, 35.3841], [138.9992, 35.3821], [139.0006, 35.3819], [139.0013, 35.3801], [139.006, 35.3752], [139.0046, 35.3736], [139.0066, 35.3684], [139.0065, 35.366], [139.0078, 35.3641], [139.007, 35.3635], [139.0072, 35.3609], [139.0089, 35.359], [139.0097, 35.3591], [139.0102, 35.3598], [139.0132, 35.3589], [139.0122, 35.3578], [139.0115, 35.355], [139.0095, 35.3531], [139.0082, 35.3507], [139.0093, 35.349], [139.0088, 35.3475], [139.0113, 35.3431], [139.0101, 35.3418], [139.0111, 35.3408], [139.0107, 35.3387], [139.0122, 35.3374], [139.0124, 35.3364], [139.016, 35.3334], [139.0169, 35.3311], [139.0191, 35.329], [139.0181, 35.3262], [139.0167, 35.3243], [139.0163, 35.3223], [139.0121, 35.3192], [139.0122, 35.3171], [139.0093, 35.3133], [139.0108, 35.3103], [139.0061, 35.2981], [139.007, 35.296], [139.0046, 35.2928], [139.0049, 35.2899], [139.002, 35.2893], [139.0003, 35.2896], [138.9976, 35.289], [138.9961, 35.2879], [138.994, 35.2854], [138.9891, 35.2813], [138.9873, 35.2789], [138.9854, 35.2781], [138.9822, 35.2733], [138.982, 35.2704], [138.9782, 35.2676], [138.9756, 35.264], [138.9757, 35.2605], [138.9742, 35.2569], [138.975, 35.2528], [138.9757, 35.2517], [138.9749, 35.251], [138.9743, 35.2479], [138.9763, 35.2444], [138.976, 35.2418], [138.9787, 35.2394], [138.9771, 35.2379], [138.9763, 35.2356], [138.9794, 35.2333], [138.9788, 35.2312], [138.9791, 35.2293], [138.9793, 35.2287], [138.9805, 35.2283], [138.9821, 35.2242], [138.9834, 35.2234], [138.9833, 35.2217], [138.9818, 35.2197], [138.9821, 35.218], [138.9857, 35.2141], [138.9879, 35.213], [138.9884, 35.2114], [138.9878, 35.2091], [138.9866, 35.2083], [138.9861, 35.2056], [138.9878, 35.2032], [138.9878, 35.2012], [138.9932, 35.1988], [138.9961, 35.1953], [138.9995, 35.1928], [139.0006, 35.1907], [139.0016, 35.1903], [139.0027, 35.1878], [139.0055, 35.1863], [139.0092, 35.1833], [139.0133, 35.1819], [139.0183, 35.1825], [139.0196, 35.182], [139.0219, 35.1821], [139.0237, 35.1798], [139.0285, 35.1755], [139.0269, 35.175], [139.0262, 35.1725], [139.0287, 35.1703], [139.0276, 35.1692], [139.0271, 35.167], [139.0293, 35.1663], [139.0294, 35.1658], [139.0285, 35.1634], [139.0259, 35.1605], [139.0307, 35.1587], [139.0299, 35.1564], [139.0287, 35.155], [139.029, 35.1533], [139.0286, 35.1517], [139.0294, 35.15], [139.0382, 35.1499], [139.0399, 35.1506], [139.0427, 35.1499], [139.047, 35.1498], [139.0502, 35.1491], [139.0516, 35.147], [139.0532, 35.1468], [139.0543, 35.1473], [139.0583, 35.1466], [139.0595, 35.1471], [139.061, 35.1457], [139.0657, 35.144], [139.0674, 35.1446], [139.0706, 35.145], [139.0715, 35.1446], [139.0725, 35.1451], [139.075, 35.1453], [139.0764, 35.1449], [139.0792, 35.1427], [139.0811, 35.1424], [139.0841, 35.1411], [139.0874, 35.141], [139.0895, 35.1404], [139.0935, 35.1408], [139.1008, 35.1404], [139.1078, 35.142], [139.1123, 35.1413], [139.1171, 35.1454], [139.1163, 35.1464], [139.1202, 35.149], [139.1234, 35.1503], [139.1235, 35.1499], [139.1262, 35.1496], [139.1264, 35.1491], [139.1311, 35.1505], [139.1315, 35.1502], [139.1314, 35.1508], [139.1325, 35.1505], [139.1318, 35.1497], [139.134, 35.1505], [139.1354, 35.1503], [139.1376, 35.1481], [139.1377, 35.149], [139.1385, 35.1491], [139.1388, 35.1482], [139.1394, 35.1481], [139.141, 35.1462], [139.1418, 35.1463], [139.1426, 35.1449], [139.1434, 35.1453], [139.1442, 35.1444], [139.1466, 35.1448], [139.1483, 35.1442], [139.1484, 35.1436], [139.1493, 35.1438], [139.1492, 35.1428], [139.1494, 35.1431], [139.1505, 35.1408], [139.1523, 35.1414], [139.1542, 35.1401], [139.1541, 35.1406], [139.1553, 35.1406], [139.1553, 35.1418], [139.1559, 35.1421], [139.1586, 35.1412], [139.1589, 35.1406], [139.1593, 35.1409], [139.1602, 35.1403], [139.1609, 35.1407], [139.1626, 35.1396], [139.1629, 35.1382], [139.1625, 35.1379], [139.1631, 35.138], [139.1634, 35.1369], [139.1636, 35.1373], [139.164, 35.137], [139.1633, 35.1388], [139.1621, 35.1403], [139.1611, 35.1409], [139.1618, 35.1424], [139.1588, 35.1433], [139.1579, 35.1442], [139.1592, 35.1453], [139.1575, 35.1473], [139.1564, 35.147], [139.1564, 35.1475], [139.155, 35.1479], [139.1534, 35.1476], [139.1524, 35.1467], [139.1495, 35.147], [139.1482, 35.15], [139.147, 35.1505], [139.1473, 35.1513], [139.1469, 35.1507], [139.1468, 35.1511], [139.1462, 35.1507], [139.1462, 35.1514], [139.1458, 35.1509], [139.1452, 35.1515], [139.1454, 35.152], [139.1449, 35.1513], [139.1417, 35.1522], [139.1428, 35.1541], [139.1442, 35.1527], [139.1449, 35.153], [139.1449, 35.1525], [139.1453, 35.1529], [139.1457, 35.1524], [139.1445, 35.1541], [139.1443, 35.1562], [139.1437, 35.1572], [139.1441, 35.1599], [139.1433, 35.1616], [139.1424, 35.1613], [139.1428, 35.1603], [139.142, 35.161], [139.1406, 35.1614], [139.1401, 35.1624], [139.1407, 35.1636], [139.1418, 35.164], [139.1423, 35.1652], [139.1451, 35.1675], [139.1452, 35.1684], [139.1441, 35.1698], [139.1429, 35.1733], [139.1419, 35.1744], [139.139, 35.1758], [139.1383, 35.1774], [139.1372, 35.1788], [139.1368, 35.1787], [139.1362, 35.1813], [139.1368, 35.1846], [139.1394, 35.1868], [139.1403, 35.1886], [139.1401, 35.19], [139.1383, 35.1915], [139.1379, 35.1927], [139.1386, 35.1943], [139.1383, 35.1993], [139.1418, 35.2035], [139.1413, 35.2046], [139.1431, 35.2102], [139.1422, 35.2111], [139.1419, 35.2127], [139.1428, 35.2141], [139.1417, 35.2156], [139.1432, 35.2168], [139.1426, 35.2209], [139.1429, 35.2225], [139.1421, 35.2253], [139.1434, 35.2279], [139.1428, 35.2295], [139.1429, 35.2314], [139.146, 35.2358], [139.1466, 35.2363], [139.147, 35.236], [139.1486, 35.238], [139.1493, 35.2383], [139.1483, 35.2381], [139.1469, 35.2362], [139.1462, 35.2366], [139.1483, 35.2386], [139.1464, 35.2397], [139.1477, 35.2409], [139.1487, 35.2403], [139.1479, 35.2395], [139.1485, 35.2389], [139.1494, 35.2394], [139.1496, 35.2388], [139.1501, 35.2397], [139.1579, 35.244], [139.1695, 35.253], [139.1733, 35.2551], [139.1808, 35.2581], [139.1862, 35.2613], [139.1942, 35.2666], [139.1973, 35.2695], [139.206, 35.2758], [139.2094, 35.2776], [139.2153, 35.2798], [139.2222, 35.2814], [139.2496, 35.2928], [139.2544, 35.2942], [139.293, 35.3017], [139.3081, 35.3052], [139.3145, 35.3058], [139.3158, 35.3055], [139.3156, 35.305], [139.3161, 35.3056], [139.3187, 35.3047], [139.3197, 35.3052], [139.3186, 35.3049], [139.3168, 35.3061], [139.3172, 35.3065], [139.318, 35.3061], [139.3189, 35.3072], [139.3184, 35.3067], [139.3176, 35.3071], [139.3182, 35.3081], [139.32, 35.3069], [139.3196, 35.3059], [139.3202, 35.3069], [139.3184, 35.3081], [139.3199, 35.3095], [139.3339, 35.3129], [139.3457, 35.3142], [139.3566, 35.3147], [139.3613, 35.3148], [139.3687, 35.3139], [139.3756, 35.3156], [139.3913, 35.3165], [139.3971, 35.3158], [139.3984, 35.3162], [139.3982, 35.3168], [139.3987, 35.3166], [139.401, 35.3174], [139.4009, 35.318], [139.4012, 35.3175], [139.4057, 35.318], [139.4129, 35.3171], [139.4126, 35.3181], [139.4129, 35.3171], [139.4165, 35.3168], [139.4304, 35.3191], [139.4422, 35.3191], [139.4545, 35.3178], [139.4687, 35.3151], [139.4733, 35.3134], [139.477, 35.3112], [139.4797, 35.3086], [139.481, 35.3057], [139.483, 35.3078], [139.484, 35.3075], [139.4813, 35.3048], [139.481, 35.3029], [139.4799, 35.3022], [139.4795, 35.3012], [139.4789, 35.3015], [139.4778, 35.301], [139.4779, 35.3007], [139.477, 35.3006], [139.4772, 35.3001], [139.4765, 35.3004], [139.4744, 35.2999], [139.4742, 35.2986], [139.4757, 35.2975], [139.4763, 35.2984], [139.4767, 35.2974], [139.4767, 35.2982], [139.4774, 35.2975], [139.4775, 35.2982], [139.4778, 35.2975], [139.4779, 35.2987], [139.4787, 35.2978], [139.4798, 35.298], [139.4802, 35.2974], [139.4809, 35.298], [139.4813, 35.2976], [139.4815, 35.2982], [139.4833, 35.2977], [139.488, 35.299], [139.4879, 35.2994], [139.4867, 35.299], [139.4865, 35.3003], [139.4864, 35.2994], [139.486, 35.2998], [139.4859, 35.2994], [139.4854, 35.2996], [139.4857, 35.3001], [139.485, 35.3001], [139.486, 35.3006], [139.4852, 35.3011], [139.4854, 35.3006], [139.4843, 35.2999], [139.4834, 35.3008], [139.4844, 35.3014], [139.4849, 35.3009], [139.4846, 35.3015], [139.4836, 35.3009], [139.4832, 35.3013], [139.4842, 35.3016], [139.4817, 35.303], [139.4826, 35.3047], [139.4841, 35.3062], [139.4866, 35.3075], [139.4886, 35.3079], [139.4887, 35.3083], [139.4888, 35.3078], [139.4915, 35.3075], [139.492, 35.3079], [139.4914, 35.3067], [139.4912, 35.3061], [139.4917, 35.3073], [139.4926, 35.307], [139.4921, 35.3066], [139.4921, 35.3057], [139.4908, 35.3056], [139.4922, 35.3057], [139.4931, 35.3061], [139.4944, 35.3056], [139.4949, 35.3063], [139.4964, 35.3066], [139.502, 35.3064], [139.5167, 35.3033], [139.5231, 35.3029], [139.5255, 35.3016], [139.5268, 35.3026], [139.5316, 35.3037], [139.5342, 35.3088], [139.5399, 35.3095], [139.5446, 35.3084], [139.5455, 35.3091], [139.5453, 35.3081], [139.5517, 35.304], [139.5526, 35.3009], [139.5511, 35.2989], [139.5509, 35.2962], [139.5518, 35.2963], [139.5521, 35.2958], [139.5518, 35.296], [139.552, 35.2957], [139.5514, 35.2953], [139.5501, 35.2962], [139.5521, 35.2945], [139.5536, 35.2943], [139.5551, 35.2954], [139.5557, 35.2951], [139.5552, 35.2956], [139.5563, 35.2964], [139.5575, 35.2952], [139.5568, 35.2943], [139.5557, 35.2946], [139.558, 35.2937], [139.5576, 35.2919], [139.5595, 35.2919], [139.561, 35.2928], [139.5628, 35.2923], [139.5661, 35.2931], [139.568, 35.2944], [139.5714, 35.293], [139.573, 35.2908], [139.5737, 35.2879], [139.5719, 35.2873], [139.574, 35.2878], [139.574, 35.2874], [139.571, 35.2871], [139.5695, 35.286], [139.57, 35.2849], [139.568, 35.2851], [139.5687, 35.285], [139.5686, 35.2842], [139.5675, 35.2843], [139.5672, 35.2848], [139.5677, 35.2851], [139.567, 35.2851], [139.567, 35.2856], [139.5669, 35.2848], [139.5657, 35.2843], [139.5646, 35.2846], [139.5657, 35.2831], [139.5668, 35.2827], [139.5679, 35.283], [139.5681, 35.2819], [139.5681, 35.2826], [139.5684, 35.282], [139.5688, 35.2826], [139.569, 35.2817], [139.5686, 35.2816], [139.569, 35.2817], [139.5703, 35.2791], [139.5702, 35.278], [139.5709, 35.2775], [139.5712, 35.2748], [139.57, 35.2733], [139.5706, 35.2726], [139.5696, 35.2732], [139.5689, 35.2722], [139.5702, 35.2718], [139.5709, 35.2709], [139.5709, 35.2699], [139.5697, 35.2698], [139.5707, 35.2698], [139.5707, 35.2692], [139.5702, 35.2689], [139.5691, 35.2696], [139.5692, 35.2689], [139.5687, 35.2689], [139.5686, 35.2695], [139.5687, 35.2687], [139.5674, 35.2673], [139.5685, 35.2661], [139.5711, 35.2664], [139.5711, 35.2661], [139.5725, 35.2661], [139.573, 35.2654], [139.5736, 35.2656], [139.5754, 35.2648], [139.5771, 35.2617], [139.5766, 35.2606], [139.5756, 35.2611], [139.5758, 35.2601], [139.5772, 35.2599], [139.5791, 35.2582], [139.5792, 35.2572], [139.5787, 35.2565], [139.5791, 35.2569], [139.5798, 35.256], [139.5791, 35.2538], [139.5773, 35.2534], [139.5766, 35.254], [139.5759, 35.2535], [139.5771, 35.2527], [139.5779, 35.2533], [139.5781, 35.253], [139.5806, 35.2536], [139.5859, 35.2518], [139.5878, 35.25], [139.5881, 35.2503], [139.5878, 35.25], [139.5894, 35.2485], [139.5903, 35.2483], [139.5905, 35.2488], [139.5904, 35.2482], [139.5914, 35.2478], [139.592, 35.2466], [139.592, 35.2456], [139.5914, 35.2454], [139.5942, 35.2444], [139.5947, 35.2432], [139.5964, 35.2424], [139.5971, 35.2414], [139.596, 35.2406], [139.5976, 35.2407], [139.5999, 35.2387], [139.6002, 35.2365], [139.5992, 35.2362], [139.5996, 35.235], [139.5991, 35.2348], [139.5985, 35.2366], [139.5987, 35.2351], [139.5992, 35.2343], [139.6003, 35.2348], [139.6016, 35.2345], [139.6014, 35.233], [139.6028, 35.2326], [139.6023, 35.2325], [139.6036, 35.2321], [139.6039, 35.2315], [139.6035, 35.2303], [139.603, 35.2307], [139.6027, 35.2294], [139.6037, 35.2272], [139.6036, 35.2261], [139.6022, 35.2256], [139.6039, 35.2244], [139.6035, 35.2237], [139.604, 35.2231], [139.603, 35.2229], [139.603, 35.2224], [139.6016, 35.2224], [139.602, 35.2212], [139.6029, 35.2215], [139.6058, 35.2201], [139.6046, 35.2213], [139.6047, 35.2216], [139.6058, 35.2207], [139.6061, 35.221], [139.6042, 35.2224], [139.604, 35.223], [139.6069, 35.2239], [139.6082, 35.2232], [139.6076, 35.2227], [139.6085, 35.2221], [139.6082, 35.2216], [139.6091, 35.2226], [139.6085, 35.223], [139.6097, 35.2235], [139.6102, 35.2232], [139.6096, 35.2227], [139.6113, 35.2221], [139.6115, 35.2228], [139.6134, 35.2231], [139.6144, 35.2221], [139.6191, 35.2202], [139.6198, 35.2202], [139.6207, 35.2215], [139.6215, 35.2211], [139.6207, 35.2199], [139.6216, 35.2199], [139.6237, 35.2182], [139.6227, 35.2156], [139.6235, 35.2153], [139.6229, 35.2157], [139.624, 35.2177], [139.6268, 35.2167], [139.6269, 35.2161], [139.6262, 35.2165], [139.6274, 35.2154], [139.6271, 35.2131], [139.6249, 35.2117], [139.6255, 35.2109], [139.6249, 35.209], [139.6231, 35.2078], [139.6222, 35.2082], [139.6217, 35.2073], [139.6199, 35.2073], [139.617, 35.208], [139.6148, 35.2099], [139.6095, 35.2101], [139.6099, 35.2096], [139.6091, 35.2096], [139.6095, 35.2092], [139.6089, 35.2092], [139.6088, 35.2083], [139.6093, 35.2084], [139.6106, 35.2074], [139.6113, 35.2081], [139.6119, 35.2077], [139.6109, 35.2058], [139.6093, 35.2055], [139.6082, 35.2068], [139.6082, 35.2081], [139.6082, 35.206], [139.6072, 35.2056], [139.6062, 35.2066], [139.6058, 35.2055], [139.6049, 35.2056], [139.6049, 35.205], [139.6065, 35.2054], [139.6069, 35.2041], [139.6059, 35.2038], [139.6056, 35.2047], [139.6056, 35.2038], [139.604, 35.2035], [139.6036, 35.202], [139.6038, 35.2016], [139.6049, 35.2018], [139.6054, 35.2002], [139.6065, 35.2001], [139.6062, 35.1995], [139.6053, 35.1998], [139.605, 35.1991], [139.6043, 35.1991], [139.6037, 35.1996], [139.6022, 35.1979], [139.6032, 35.1979], [139.6033, 35.1975], [139.6022, 35.1975], [139.6016, 35.1965], [139.6013, 35.1973], [139.6002, 35.197], [139.5989, 35.1958], [139.5989, 35.1951], [139.5998, 35.1944], [139.6002, 35.1946], [139.5996, 35.1937], [139.6009, 35.194], [139.601, 35.1947], [139.6012, 35.1936], [139.6027, 35.1941], [139.603, 35.1934], [139.6044, 35.1949], [139.6045, 35.1944], [139.6051, 35.1949], [139.6059, 35.1947], [139.6057, 35.1939], [139.607, 35.1947], [139.608, 35.1947], [139.6079, 35.1934], [139.6085, 35.1932], [139.6087, 35.1941], [139.6092, 35.1935], [139.6079, 35.1915], [139.6094, 35.191], [139.6094, 35.1903], [139.6101, 35.19], [139.6111, 35.1906], [139.6139, 35.1907], [139.6158, 35.19], [139.6178, 35.1927], [139.6158, 35.19], [139.6172, 35.1882], [139.6165, 35.1867], [139.6172, 35.1863], [139.6163, 35.1856], [139.6165, 35.1852], [139.6185, 35.1855], [139.6178, 35.1851], [139.6183, 35.1836], [139.6139, 35.1831], [139.6185, 35.1787], [139.6199, 35.1754], [139.6201, 35.1732], [139.6196, 35.1722], [139.6166, 35.1716], [139.6164, 35.1706], [139.6173, 35.1693], [139.617, 35.1686], [139.6179, 35.1684], [139.6166, 35.1668], [139.6182, 35.1661], [139.6185, 35.1665], [139.6225, 35.1655], [139.6237, 35.1649], [139.624, 35.164], [139.6263, 35.1649], [139.6251, 35.1638], [139.6261, 35.1631], [139.6279, 35.1642], [139.6301, 35.1636], [139.6275, 35.163], [139.6269, 35.162], [139.6261, 35.1618], [139.6261, 35.1621], [139.6234, 35.1624], [139.6225, 35.1634], [139.6186, 35.1634], [139.6184, 35.1616], [139.6157, 35.1617], [139.6139, 35.1629], [139.6122, 35.1628], [139.6107, 35.1635], [139.6103, 35.1616], [139.6119, 35.1595], [139.6117, 35.1589], [139.6106, 35.1591], [139.6112, 35.1576], [139.6121, 35.1579], [139.6139, 35.1601], [139.6158, 35.1601], [139.6183, 35.1594], [139.6196, 35.1586], [139.6167, 35.1582], [139.6154, 35.1593], [139.6145, 35.1593], [139.6142, 35.1574], [139.6158, 35.1569], [139.6164, 35.1562], [139.6195, 35.1556], [139.6192, 35.1545], [139.6138, 35.1557], [139.612, 35.1552], [139.6109, 35.1555], [139.611, 35.1549], [139.6105, 35.1548], [139.6101, 35.1555], [139.6102, 35.1548], [139.6096, 35.1547], [139.6087, 35.1559], [139.6056, 35.1554], [139.6066, 35.1548], [139.6073, 35.1529], [139.6103, 35.1521], [139.6109, 35.1504], [139.6121, 35.1508], [139.6131, 35.1523], [139.613, 35.1502], [139.6137, 35.15], [139.6158, 35.1509], [139.6153, 35.1499], [139.6146, 35.15], [139.6139, 35.1491], [139.6144, 35.1484], [139.6163, 35.1485], [139.6172, 35.1478], [139.6169, 35.1472], [139.6157, 35.1477], [139.6157, 35.1468], [139.615, 35.1464], [139.6152, 35.1461], [139.6139, 35.146], [139.6149, 35.1455], [139.6143, 35.145], [139.6114, 35.1465], [139.6077, 35.1428], [139.6098, 35.1413], [139.6092, 35.14], [139.6101, 35.1414], [139.6123, 35.1375], [139.612, 35.1368], [139.6096, 35.1377], [139.6107, 35.1368], [139.6106, 35.1356], [139.6096, 35.1358], [139.6084, 35.1349], [139.6093, 35.1339], [139.6106, 35.1338], [139.6095, 35.1329], [139.6132, 35.1326], [139.615, 35.1323], [139.6154, 35.1318], [139.616, 35.1328], [139.6175, 35.1318], [139.6175, 35.1305], [139.6201, 35.132], [139.6217, 35.1324], [139.6231, 35.131], [139.6291, 35.1287], [139.6302, 35.129], [139.63, 35.1297], [139.626, 35.1316], [139.6275, 35.1341], [139.6244, 35.138], [139.6247, 35.1383], [139.6277, 35.1372], [139.6276, 35.1366], [139.6284, 35.137], [139.6279, 35.1374], [139.6283, 35.1378], [139.6297, 35.1365], [139.6304, 35.1365], [139.6305, 35.1372], [139.6288, 35.138], [139.6306, 35.1401], [139.6339, 35.1398], [139.6361, 35.1408], [139.6374, 35.1406], [139.6373, 35.1413], [139.6375, 35.1407], [139.6375, 35.1413], [139.639, 35.1404], [139.6397, 35.1408], [139.6395, 35.1414], [139.6401, 35.141], [139.6398, 35.1399], [139.6403, 35.1396], [139.6389, 35.1387], [139.6397, 35.1379], [139.6411, 35.1381], [139.6419, 35.1376], [139.6428, 35.139], [139.6443, 35.138], [139.645, 35.1383], [139.6466, 35.1376], [139.6473, 35.1384], [139.6489, 35.1385], [139.6488, 35.1392], [139.6503, 35.1393], [139.6503, 35.1408], [139.6489, 35.141], [139.6486, 35.1419], [139.6514, 35.1422], [139.652, 35.1417], [139.6515, 35.1409], [139.652, 35.1396], [139.6543, 35.139], [139.6549, 35.1384], [139.654, 35.1374], [139.6569, 35.1373], [139.6578, 35.1377], [139.6569, 35.139], [139.6597, 35.1405], [139.6631, 35.139], [139.6641, 35.1396], [139.6652, 35.1418], [139.6651, 35.143], [139.6626, 35.1432], [139.6613, 35.145], [139.6638, 35.1443], [139.665, 35.145], [139.6649, 35.1459], [139.6661, 35.1465], [139.6688, 35.1447], [139.6676, 35.1439], [139.6675, 35.1429], [139.6689, 35.1422], [139.669, 35.1401], [139.6699, 35.1395], [139.6716, 35.1393], [139.6721, 35.1402], [139.671, 35.142], [139.6724, 35.1413], [139.6732, 35.142], [139.6743, 35.1405], [139.6769, 35.1394], [139.6781, 35.1395], [139.6782, 35.1404], [139.6791, 35.1407], [139.6782, 35.1417], [139.679, 35.1428], [139.677, 35.1432], [139.6764, 35.1449], [139.6774, 35.1455], [139.6773, 35.1446], [139.678, 35.1445], [139.6785, 35.1444], [139.6788, 35.1452], [139.6803, 35.1448], [139.6817, 35.1467], [139.6797, 35.1468], [139.6794, 35.1474], [139.68, 35.1503], [139.6809, 35.1508], [139.6817, 35.1507], [139.6817, 35.1511], [139.6807, 35.1516], [139.6807, 35.1531], [139.6798, 35.1529], [139.6797, 35.1536], [139.6804, 35.1541], [139.6786, 35.1551], [139.6794, 35.1568], [139.6783, 35.1576], [139.6746, 35.1581], [139.6708, 35.1583], [139.6694, 35.1576], [139.6679, 35.1577], [139.667, 35.158], [139.6676, 35.1595], [139.6662, 35.1605], [139.6669, 35.1599], [139.6664, 35.1589], [139.6656, 35.1589], [139.6653, 35.1583], [139.6626, 35.1601], [139.6604, 35.1647], [139.66, 35.171], [139.6581, 35.1724], [139.6561, 35.173], [139.6552, 35.1749], [139.655, 35.1808], [139.657, 35.1859], [139.671, 35.1985], [139.6761, 35.201], [139.6833, 35.2058], [139.6909, 35.2089], [139.7283, 35.1975], [139.7563, 35.2558], [139.6772, 35.3499], [139.6616, 35.3375], [139.6616, 35.3873], [139.6505, 35.3932], [139.6673, 35.3997], [139.6792, 35.392], [139.6944, 35.3913], [139.7161, 35.4345], [139.7297, 35.4627], [139.7294, 35.4632]]], [[[139.5984, 35.2246], [139.5977, 35.2249], [139.5975, 35.224], [139.5991, 35.2233], [139.6002, 35.2234], [139.5996, 35.2242], [139.5984, 35.2246]]]]}, "properties": {"name": "神奈川県"}}]}