{"type": "FeatureCollection", "features": [{"type": "Feature", "geometry": {"type": "Polygon", "coordinates": [[[134.1199, 35.5266], [134.0257, 35.5191], [134.0075, 35.5379], [133.9955, 35.5233], [133.9701, 35.5215], [133.9598, 35.5256], [133.959, 35.5192], [133.9395, 35.5184], [133.9252, 35.5101], [133.7771, 35.5006], [133.6684, 35.507], [133.6485, 35.5156], [133.6068, 35.5223], [133.5904, 35.532], [133.5639, 35.5306], [133.5551, 35.5236], [133.4974, 35.5158], [133.4721, 35.4989], [133.4471, 35.4947], [133.4319, 35.481], [133.4254, 35.4601], [133.3984, 35.4533], [133.3229, 35.4662], [133.2758, 35.4892], [133.2514, 35.5144], [133.2606, 35.5197], [133.2558, 35.5281], [133.2447, 35.5312], [133.2723, 35.5527], [133.2238, 35.5468], [133.1984, 35.5288], [133.2216, 35.4831], [133.2718, 35.4463], [133.3097, 35.4305], [133.3214, 35.4078], [133.3137, 35.387], [133.3243, 35.3738], [133.3159, 35.3656], [133.3077, 35.3658], [133.2961, 35.3494], [133.2984, 35.3249], [133.2925, 35.3207], [133.3069, 35.3034], [133.2995, 35.2918], [133.3106, 35.2681], [133.2758, 35.2578], [133.2534, 35.2601], [133.2434, 35.2505], [133.2228, 35.2491], [133.1525, 35.219], [133.1526, 35.2039], [133.1687, 35.2093], [133.1824, 35.2008], [133.182, 35.1885], [133.1949, 35.1698], [133.1837, 35.1565], [133.1574, 35.1489], [133.1485, 35.14], [133.1402, 35.1181], [133.1455, 35.105], [133.1348, 35.0937], [133.1422, 35.0812], [133.1364, 35.0693], [133.1422, 35.0647], [133.161, 35.0741], [133.178, 35.0672], [133.2112, 35.0742], [133.2299, 35.068], [133.2323, 35.0774], [133.2494, 35.0789], [133.2691, 35.0576], [133.2908, 35.0709], [133.2877, 35.094], [133.293, 35.1016], [133.299, 35.1038], [133.3255, 35.0935], [133.3384, 35.1066], [133.3548, 35.1008], [133.3726, 35.1128], [133.4033, 35.1143], [133.4118, 35.1211], [133.4111, 35.1388], [133.3932, 35.1679], [133.3962, 35.1807], [133.4155, 35.1846], [133.4221, 35.1761], [133.4479, 35.1713], [133.5077, 35.193], [133.5262, 35.1829], [133.5216, 35.2105], [133.5057, 35.2282], [133.5171, 35.2407], [133.5345, 35.2365], [133.5607, 35.2467], [133.5681, 35.2568], [133.5772, 35.3143], [133.5969, 35.345], [133.6223, 35.3367], [133.6496, 35.3362], [133.6783, 35.319], [133.6911, 35.3201], [133.6971, 35.3272], [133.7276, 35.317], [133.7453, 35.3194], [133.7507, 35.3114], [133.7623, 35.3111], [133.7835, 35.2948], [133.7896, 35.2976], [133.7892, 35.2938], [133.8, 35.2926], [133.8179, 35.2529], [133.8324, 35.2489], [133.8444, 35.2495], [133.8555, 35.2682], [133.8659, 35.2723], [133.8622, 35.2927], [133.886, 35.2942], [133.9084, 35.3072], [133.9251, 35.3068], [133.934, 35.3351], [133.9454, 35.3326], [133.9697, 35.3479], [133.9796, 35.3435], [133.9973, 35.3528], [134.0148, 35.3504], [134.0109, 35.3388], [134.0155, 35.334], [133.9994, 35.315], [134.0083, 35.3082], [134.0286, 35.3076], [134.052, 35.2981], [134.0624, 35.3029], [134.0701, 35.2972], [134.0863, 35.3073], [134.0979, 35.3057], [134.1154, 35.2839], [134.1397, 35.2788], [134.1376, 35.2693], [134.1506, 35.2579], [134.1429, 35.2504], [134.1455, 35.243], [134.1371, 35.239], [134.1444, 35.2314], [134.1615, 35.2324], [134.1634, 35.2195], [134.1531, 35.196], [134.1656, 35.1872], [134.1674, 35.1719], [134.1767, 35.1692], [134.1902, 35.176], [134.1935, 35.1893], [134.2217, 35.1905], [134.2278, 35.1973], [134.2496, 35.2005], [134.2606, 35.2107], [134.2788, 35.1968], [134.3213, 35.2018], [134.3367, 35.2196], [134.3687, 35.2316], [134.3728, 35.2457], [134.3903, 35.2522], [134.4027, 35.241], [134.4352, 35.2291], [134.4478, 35.2379], [134.463, 35.2366], [134.4618, 35.2441], [134.4772, 35.2494], [134.4864, 35.2627], [134.5153, 35.2774], [134.5095, 35.294], [134.5147, 35.308], [134.5019, 35.3265], [134.5138, 35.3538], [134.5028, 35.3659], [134.489, 35.368], [134.4715, 35.3799], [134.4805, 35.4033], [134.4799, 35.4273], [134.4399, 35.4431], [134.4337, 35.4665], [134.4382, 35.4757], [134.4275, 35.4959], [134.4308, 35.5026], [134.4127, 35.515], [134.4248, 35.5519], [134.4213, 35.5627], [134.4075, 35.5652], [134.4079, 35.5891], [134.3928, 35.6015], [134.3715, 35.6086], [134.37, 35.6142], [134.3706, 35.6051], [134.3608, 35.6006], [134.3477, 35.6007], [134.3454, 35.6091], [134.3397, 35.6082], [134.3393, 35.5929], [134.3213, 35.5907], [134.3128, 35.5932], [134.3166, 35.5965], [134.2938, 35.5894], [134.2858, 35.5823], [134.292, 35.5847], [134.2975, 35.58], [134.2894, 35.5812], [134.2896, 35.5775], [134.2877, 35.5813], [134.2902, 35.5748], [134.2772, 35.5727], [134.2733, 35.5615], [134.2618, 35.5559], [134.1987, 35.5402], [134.1914, 35.5501], [134.1781, 35.5357], [134.1199, 35.5266]]]}, "properties": {"name": "鳥取県"}}]}