{"type": "FeatureCollection", "features": [{"type": "Feature", "geometry": {"type": "Polygon", "coordinates": [[[138.0363, 36.8081], [138.0339, 36.809], [138.0336, 36.8108], [138.0303, 36.8138], [138.0313, 36.8153], [138.0289, 36.8172], [138.0268, 36.8166], [138.0245, 36.8167], [138.0216, 36.8195], [138.0168, 36.819], [138.0114, 36.8233], [138.0087, 36.8228], [138.0071, 36.825], [138.0034, 36.8266], [138.0041, 36.8282], [138.0084, 36.832], [138.0098, 36.8326], [138.01, 36.8337], [138.0117, 36.836], [138.0132, 36.8366], [138.0155, 36.839], [138.0167, 36.8394], [138.0186, 36.8416], [138.02, 36.8424], [138.0188, 36.845], [138.0199, 36.8465], [138.0187, 36.8505], [138.0177, 36.8515], [138.0155, 36.8526], [138.0157, 36.8541], [138.015, 36.8563], [138.0154, 36.8573], [138.0134, 36.8606], [138.0171, 36.8606], [138.0208, 36.8635], [138.0224, 36.8678], [138.0252, 36.87], [138.0265, 36.8736], [138.0289, 36.875], [138.0293, 36.8764], [138.0317, 36.8783], [138.0325, 36.8809], [138.0328, 36.8862], [138.0312, 36.8913], [138.0286, 36.8923], [138.0267, 36.8925], [138.0239, 36.8909], [138.0219, 36.8905], [138.0159, 36.893], [138.0146, 36.8953], [138.016, 36.8975], [138.0157, 36.9016], [138.0137, 36.904], [138.0094, 36.9041], [138.0076, 36.9047], [138.0022, 36.9052], [137.9997, 36.9069], [137.9947, 36.9083], [137.9917, 36.911], [137.9859, 36.9098], [137.9842, 36.9089], [137.9806, 36.9087], [137.9777, 36.9095], [137.9763, 36.9085], [137.9694, 36.9109], [137.9684, 36.9105], [137.9685, 36.9085], [137.9658, 36.9045], [137.9639, 36.9042], [137.9623, 36.9022], [137.9593, 36.903], [137.9579, 36.9029], [137.9528, 36.9055], [137.9492, 36.9131], [137.9418, 36.9131], [137.9389, 36.9137], [137.9357, 36.9134], [137.9321, 36.9145], [137.9253, 36.9184], [137.9232, 36.9186], [137.9203, 36.9199], [137.916, 36.9182], [137.9131, 36.9176], [137.9109, 36.9179], [137.9098, 36.9171], [137.9038, 36.9152], [137.9021, 36.914], [137.8999, 36.9113], [137.8935, 36.91], [137.8903, 36.911], [137.8855, 36.911], [137.8829, 36.9122], [137.8785, 36.9128], [137.8748, 36.9159], [137.8727, 36.915], [137.8682, 36.9159], [137.8633, 36.9127], [137.8642, 36.9105], [137.8637, 36.9094], [137.8621, 36.9084], [137.8623, 36.9076], [137.8661, 36.906], [137.8696, 36.9034], [137.8716, 36.9029], [137.8718, 36.9023], [137.869, 36.8976], [137.8677, 36.8968], [137.8651, 36.8963], [137.8636, 36.8933], [137.862, 36.8923], [137.8616, 36.8913], [137.8627, 36.8899], [137.8667, 36.8869], [137.867, 36.8859], [137.866, 36.8841], [137.8682, 36.8806], [137.8687, 36.8775], [137.8719, 36.8764], [137.8737, 36.8747], [137.8764, 36.8736], [137.8782, 36.8735], [137.8768, 36.8704], [137.8756, 36.8692], [137.8755, 36.8681], [137.8765, 36.8666], [137.8736, 36.8636], [137.8722, 36.8635], [137.8707, 36.8627], [137.8684, 36.8628], [137.8678, 36.8612], [137.8657, 36.8608], [137.8627, 36.8568], [137.8617, 36.8565], [137.8606, 36.8544], [137.8577, 36.8528], [137.8572, 36.8505], [137.8558, 36.8494], [137.8559, 36.846], [137.857, 36.844], [137.8554, 36.8428], [137.8539, 36.8401], [137.8519, 36.8392], [137.8516, 36.838], [137.8488, 36.8372], [137.8454, 36.8347], [137.8439, 36.8313], [137.8439, 36.8298], [137.8398, 36.8272], [137.8352, 36.8226], [137.8338, 36.8206], [137.8318, 36.8197], [137.8312, 36.8182], [137.8327, 36.813], [137.8326, 36.811], [137.8318, 36.8106], [137.8315, 36.8095], [137.8295, 36.8076], [137.823, 36.8061], [137.823, 36.8027], [137.8211, 36.8016], [137.8199, 36.7984], [137.7993, 36.7884], [137.7935, 36.7867], [137.7913, 36.7794], [137.7845, 36.7743], [137.7819, 36.7731], [137.7758, 36.7738], [137.7729, 36.7721], [137.769, 36.7715], [137.7674, 36.7707], [137.7647, 36.7678], [137.7627, 36.767], [137.761, 36.7648], [137.7599, 36.7643], [137.7585, 36.7586], [137.7567, 36.7558], [137.7518, 36.7525], [137.7516, 36.751], [137.7555, 36.7457], [137.755, 36.7432], [137.7561, 36.7421], [137.7591, 36.7407], [137.7579, 36.7371], [137.7559, 36.736], [137.7559, 36.7346], [137.7542, 36.7332], [137.7542, 36.7317], [137.7555, 36.7311], [137.7552, 36.7294], [137.7535, 36.7277], [137.7509, 36.7266], [137.7511, 36.7229], [137.7525, 36.7194], [137.7525, 36.7167], [137.7511, 36.7142], [137.7512, 36.7111], [137.7503, 36.7082], [137.7507, 36.7069], [137.7498, 36.7049], [137.7508, 36.7028], [137.7506, 36.7009], [137.7519, 36.6999], [137.7551, 36.6985], [137.7556, 36.6967], [137.7565, 36.6956], [137.7562, 36.6935], [137.7528, 36.691], [137.7538, 36.6901], [137.7542, 36.6873], [137.7582, 36.6862], [137.7593, 36.685], [137.759, 36.6829], [137.7598, 36.6806], [137.7587, 36.6781], [137.7591, 36.6772], [137.7584, 36.6764], [137.7589, 36.6753], [137.7585, 36.6745], [137.7608, 36.6704], [137.7599, 36.6683], [137.7615, 36.6672], [137.7618, 36.6663], [137.7618, 36.6652], [137.7603, 36.6645], [137.7587, 36.6607], [137.7571, 36.6602], [137.7565, 36.659], [137.7533, 36.6578], [137.7541, 36.6553], [137.7548, 36.6549], [137.7562, 36.6523], [137.7555, 36.6509], [137.7561, 36.6469], [137.7551, 36.6454], [137.7546, 36.6422], [137.7537, 36.6413], [137.7542, 36.6384], [137.7531, 36.6376], [137.7533, 36.6364], [137.7522, 36.6351], [137.7525, 36.6336], [137.7513, 36.6292], [137.7514, 36.627], [137.7477, 36.6256], [137.7467, 36.6244], [137.7444, 36.617], [137.7441, 36.613], [137.7451, 36.6102], [137.7477, 36.6034], [137.7486, 36.603], [137.7492, 36.6016], [137.7508, 36.6002], [137.7512, 36.5976], [137.7528, 36.5944], [137.7524, 36.593], [137.7505, 36.5908], [137.7506, 36.589], [137.7497, 36.5879], [137.7472, 36.5866], [137.7389, 36.588], [137.7368, 36.5873], [137.734, 36.5884], [137.7331, 36.5879], [137.7306, 36.5878], [137.728, 36.5865], [137.7246, 36.5865], [137.7232, 36.5853], [137.7232, 36.5844], [137.7221, 36.5833], [137.7179, 36.5821], [137.7161, 36.5805], [137.7157, 36.5793], [137.7135, 36.578], [137.7134, 36.5771], [137.7091, 36.5756], [137.7071, 36.5736], [137.7018, 36.5709], [137.6953, 36.5688], [137.6938, 36.5689], [137.6904, 36.5642], [137.6875, 36.5619], [137.6893, 36.5537], [137.6883, 36.55], [137.6875, 36.5496], [137.6865, 36.5472], [137.6866, 36.546], [137.6848, 36.5444], [137.6856, 36.5428], [137.6845, 36.5382], [137.6873, 36.5363], [137.6918, 36.5374], [137.6955, 36.5372], [137.6971, 36.5378], [137.6986, 36.5377], [137.6987, 36.5372], [137.7016, 36.5363], [137.7041, 36.5366], [137.7067, 36.5359], [137.7104, 36.5357], [137.7099, 36.5344], [137.7084, 36.5336], [137.7076, 36.5325], [137.7028, 36.5245], [137.7055, 36.519], [137.7056, 36.5177], [137.7037, 36.5175], [137.7014, 36.5156], [137.6972, 36.5145], [137.6942, 36.5105], [137.6929, 36.5107], [137.6917, 36.5127], [137.6901, 36.5136], [137.6855, 36.5136], [137.6849, 36.5127], [137.6832, 36.5125], [137.6774, 36.5142], [137.6765, 36.512], [137.6755, 36.5112], [137.6726, 36.5102], [137.6703, 36.5103], [137.6689, 36.5094], [137.6682, 36.5069], [137.6671, 36.5062], [137.6674, 36.4959], [137.6667, 36.494], [137.6656, 36.493], [137.6648, 36.493], [137.6645, 36.4937], [137.6635, 36.4939], [137.6576, 36.493], [137.6532, 36.4901], [137.6519, 36.4882], [137.6519, 36.4852], [137.6507, 36.4798], [137.6515, 36.4796], [137.6525, 36.4778], [137.6531, 36.4776], [137.6533, 36.4752], [137.6566, 36.4705], [137.6559, 36.4697], [137.6558, 36.4676], [137.6547, 36.4647], [137.6553, 36.4593], [137.6541, 36.4585], [137.6517, 36.4585], [137.6492, 36.4548], [137.6453, 36.4545], [137.6439, 36.452], [137.644, 36.4506], [137.6432, 36.4487], [137.6399, 36.4459], [137.6385, 36.4372], [137.6376, 36.4369], [137.6372, 36.4354], [137.638, 36.432], [137.6365, 36.4295], [137.6365, 36.4284], [137.6337, 36.4264], [137.6331, 36.4249], [137.6284, 36.4237], [137.623, 36.4239], [137.6187, 36.4193], [137.6173, 36.4186], [137.6151, 36.4186], [137.6128, 36.4196], [137.6082, 36.4195], [137.6091, 36.418], [137.6082, 36.4164], [137.6085, 36.4155], [137.6071, 36.414], [137.6074, 36.413], [137.6047, 36.4123], [137.6038, 36.4108], [137.6039, 36.4087], [137.6056, 36.4045], [137.6053, 36.4025], [137.6007, 36.3995], [137.5968, 36.3945], [137.5937, 36.3934], [137.5934, 36.3914], [137.5923, 36.3897], [137.5875, 36.3899], [137.5868, 36.3888], [137.5865, 36.3836], [137.5874, 36.3821], [137.586, 36.3767], [137.5874, 36.3732], [137.5871, 36.372], [137.5938, 36.3688], [137.5952, 36.3691], [137.5969, 36.3703], [137.6001, 36.3702], [137.6028, 36.3695], [137.6039, 36.3683], [137.6054, 36.3681], [137.608, 36.3668], [137.6129, 36.3668], [137.6173, 36.3655], [137.6192, 36.3641], [137.6202, 36.3621], [137.6225, 36.3596], [137.6241, 36.3554], [137.6256, 36.3533], [137.6277, 36.3521], [137.6283, 36.3497], [137.6304, 36.3484], [137.6321, 36.3461], [137.6349, 36.3449], [137.6348, 36.3438], [137.6474, 36.342], [137.6456, 36.3413], [137.6461, 36.3304], [137.6483, 36.3294], [137.6505, 36.327], [137.6521, 36.3221], [137.6505, 36.3209], [137.6514, 36.3174], [137.6495, 36.3156], [137.649, 36.3124], [137.6495, 36.3112], [137.6487, 36.3091], [137.6508, 36.3063], [137.653, 36.3047], [137.6519, 36.3023], [137.6486, 36.3002], [137.6466, 36.2965], [137.6477, 36.2947], [137.6481, 36.2921], [137.6476, 36.2891], [137.6435, 36.2876], [137.6407, 36.2855], [137.6384, 36.285], [137.6356, 36.2824], [137.6317, 36.2802], [137.631, 36.2793], [137.6289, 36.2787], [137.6279, 36.2766], [137.627, 36.2759], [137.6263, 36.2723], [137.6253, 36.2711], [137.6233, 36.2702], [137.6209, 36.2677], [137.6206, 36.2666], [137.6172, 36.2648], [137.6149, 36.2649], [137.6147, 36.2624], [137.6129, 36.2584], [137.6102, 36.2553], [137.6068, 36.2532], [137.6073, 36.2516], [137.6059, 36.2489], [137.6002, 36.2461], [137.596, 36.242], [137.5951, 36.24], [137.5954, 36.2371], [137.5946, 36.2364], [137.5932, 36.2362], [137.5925, 36.2351], [137.5911, 36.2345], [137.5906, 36.2322], [137.5898, 36.2314], [137.5896, 36.2285], [137.5877, 36.2269], [137.5861, 36.2273], [137.5833, 36.227], [137.5835, 36.2245], [137.5844, 36.223], [137.583, 36.2204], [137.5779, 36.2191], [137.5753, 36.2202], [137.5735, 36.2198], [137.5742, 36.2174], [137.576, 36.2144], [137.5733, 36.2104], [137.5749, 36.2062], [137.5747, 36.2045], [137.5777, 36.2017], [137.5785, 36.1974], [137.5795, 36.1973], [137.581, 36.1953], [137.5908, 36.1911], [137.592, 36.1918], [137.5946, 36.1918], [137.5951, 36.1905], [137.5948, 36.1896], [137.5936, 36.1879], [137.5919, 36.1871], [137.5908, 36.1857], [137.591, 36.184], [137.5923, 36.1828], [137.5911, 36.1781], [137.5933, 36.1763], [137.5941, 36.173], [137.5951, 36.1723], [137.592, 36.1694], [137.5921, 36.1661], [137.591, 36.1641], [137.5831, 36.1603], [137.5778, 36.1596], [137.5745, 36.158], [137.5722, 36.1562], [137.5703, 36.1557], [137.5697, 36.1545], [137.5687, 36.1546], [137.5677, 36.1538], [137.5679, 36.1508], [137.567, 36.1471], [137.5652, 36.146], [137.5597, 36.1445], [137.5575, 36.1411], [137.5563, 36.1404], [137.5547, 36.1401], [137.5546, 36.1357], [137.5579, 36.1314], [137.5603, 36.1303], [137.5591, 36.1258], [137.5567, 36.1216], [137.5573, 36.1206], [137.5571, 36.1181], [137.5558, 36.1174], [137.5529, 36.117], [137.553, 36.1152], [137.551, 36.1141], [137.5502, 36.113], [137.5508, 36.1099], [137.5521, 36.1091], [137.5547, 36.1054], [137.5572, 36.1036], [137.5616, 36.1019], [137.5615, 36.0999], [137.563, 36.0982], [137.5646, 36.0974], [137.5676, 36.0969], [137.5685, 36.0945], [137.5713, 36.0911], [137.5723, 36.0883], [137.5737, 36.0874], [137.5761, 36.0869], [137.5778, 36.085], [137.5789, 36.0848], [137.5795, 36.0853], [137.5824, 36.0854], [137.5884, 36.0819], [137.5925, 36.081], [137.5948, 36.0791], [137.5955, 36.0765], [137.597, 36.0756], [137.601, 36.0764], [137.6027, 36.076], [137.6046, 36.0763], [137.6096, 36.0779], [137.6118, 36.0777], [137.6139, 36.0761], [137.6129, 36.0751], [137.6128, 36.0741], [137.6117, 36.0733], [137.6112, 36.0706], [137.6116, 36.0687], [137.6109, 36.0676], [137.6127, 36.0647], [137.6146, 36.0628], [137.6136, 36.0596], [137.6067, 36.0558], [137.6069, 36.0539], [137.6053, 36.052], [137.6055, 36.0486], [137.6026, 36.0469], [137.6012, 36.0467], [137.5977, 36.0424], [137.5983, 36.0368], [137.6002, 36.0285], [137.599, 36.0267], [137.5995, 36.0257], [137.5982, 36.0221], [137.5958, 36.0193], [137.5959, 36.0171], [137.594, 36.0146], [137.5947, 36.013], [137.5913, 36.0089], [137.5913, 36.008], [137.5904, 36.0066], [137.5872, 36.0054], [137.5845, 36.0032], [137.5806, 36.0013], [137.5759, 35.9968], [137.5757, 35.9954], [137.5696, 35.9956], [137.5649, 35.9926], [137.5625, 35.9902], [137.5506, 35.987], [137.5491, 35.9856], [137.5473, 35.9855], [137.5441, 35.9835], [137.5432, 35.9809], [137.5447, 35.9786], [137.5449, 35.9767], [137.5442, 35.9724], [137.5421, 35.9709], [137.5414, 35.9695], [137.542, 35.967], [137.5416, 35.9665], [137.5365, 35.9645], [137.5325, 35.9613], [137.5291, 35.9535], [137.5273, 35.9519], [137.5252, 35.9473], [137.5247, 35.9426], [137.5195, 35.9405], [137.5187, 35.9397], [137.5141, 35.9409], [137.5109, 35.9411], [137.5044, 35.9404], [137.5032, 35.9396], [137.4977, 35.9288], [137.4925, 35.9253], [137.4917, 35.9231], [137.4893, 35.9198], [137.4874, 35.9179], [137.4841, 35.9161], [137.4833, 35.9133], [137.4842, 35.9094], [137.4812, 35.9061], [137.481, 35.8996], [137.4794, 35.8971], [137.4765, 35.8963], [137.4764, 35.8941], [137.475, 35.8934], [137.4695, 35.8927], [137.4652, 35.8927], [137.4647, 35.8916], [137.4618, 35.8895], [137.4584, 35.8893], [137.4535, 35.8916], [137.451, 35.892], [137.4477, 35.8934], [137.4438, 35.8977], [137.4413, 35.8995], [137.4386, 35.9004], [137.4376, 35.9027], [137.4374, 35.9052], [137.4346, 35.9055], [137.4243, 35.9032], [137.422, 35.9042], [137.4193, 35.9044], [137.4171, 35.9035], [137.4146, 35.9015], [137.4075, 35.8997], [137.4048, 35.8982], [137.3994, 35.8968], [137.3976, 35.8958], [137.3926, 35.8951], [137.3903, 35.8942], [137.3852, 35.8938], [137.3829, 35.8928], [137.3809, 35.8925], [137.379, 35.8909], [137.3783, 35.8889], [137.3739, 35.8865], [137.3732, 35.8853], [137.3735, 35.8841], [137.3706, 35.8832], [137.3695, 35.8813], [137.3644, 35.8789], [137.3649, 35.8781], [137.3671, 35.8768], [137.3682, 35.8743], [137.3669, 35.8715], [137.3681, 35.8704], [137.3664, 35.8653], [137.3676, 35.8605], [137.3654, 35.8558], [137.3654, 35.8534], [137.3635, 35.8517], [137.3635, 35.8503], [137.3611, 35.8461], [137.3567, 35.8427], [137.355, 35.8423], [137.3524, 35.8427], [137.352, 35.8432], [137.3483, 35.8424], [137.3456, 35.8434], [137.3428, 35.843], [137.3409, 35.8441], [137.3359, 35.8442], [137.3319, 35.8403], [137.3303, 35.8334], [137.3302, 35.8289], [137.3271, 35.8257], [137.3282, 35.825], [137.3288, 35.8219], [137.3268, 35.8211], [137.3269, 35.8191], [137.3249, 35.8165], [137.3261, 35.8152], [137.3262, 35.8143], [137.3244, 35.812], [137.3265, 35.812], [137.3277, 35.8107], [137.3323, 35.8093], [137.3324, 35.808], [137.3316, 35.807], [137.3327, 35.8061], [137.3325, 35.8048], [137.3335, 35.8046], [137.3347, 35.8035], [137.3341, 35.802], [137.3357, 35.7994], [137.3369, 35.7986], [137.3399, 35.7979], [137.3438, 35.7986], [137.351, 35.8015], [137.3527, 35.8015], [137.354, 35.8013], [137.3603, 35.796], [137.3612, 35.7963], [137.3628, 35.7981], [137.367, 35.7991], [137.3693, 35.7986], [137.3733, 35.8004], [137.3809, 35.8012], [137.3838, 35.8002], [137.3858, 35.7988], [137.3898, 35.799], [137.3922, 35.7985], [137.3943, 35.7971], [137.3937, 35.7956], [137.3963, 35.7908], [137.3953, 35.7897], [137.3968, 35.7854], [137.3949, 35.7839], [137.3939, 35.782], [137.3911, 35.7805], [137.3922, 35.7786], [137.3933, 35.7777], [137.3949, 35.7774], [137.3961, 35.7764], [137.4001, 35.7754], [137.4113, 35.7772], [137.4168, 35.7761], [137.4177, 35.7743], [137.419, 35.7735], [137.422, 35.7739], [137.4234, 35.7751], [137.4266, 35.7715], [137.4285, 35.771], [137.4308, 35.7714], [137.4342, 35.771], [137.4337, 35.7672], [137.4371, 35.7637], [137.4378, 35.7608], [137.44, 35.7586], [137.4462, 35.7584], [137.4498, 35.7592], [137.4504, 35.7601], [137.4501, 35.7614], [137.4515, 35.762], [137.4525, 35.7634], [137.4534, 35.7622], [137.4574, 35.7611], [137.4596, 35.7613], [137.4619, 35.7583], [137.4648, 35.7564], [137.4644, 35.7542], [137.4655, 35.7497], [137.4664, 35.7486], [137.4677, 35.7481], [137.4681, 35.747], [137.4655, 35.7439], [137.4666, 35.7424], [137.4666, 35.7411], [137.4699, 35.7389], [137.4705, 35.7371], [137.4726, 35.7351], [137.473, 35.7339], [137.4783, 35.7305], [137.4791, 35.7266], [137.4853, 35.7248], [137.4865, 35.7217], [137.4877, 35.7146], [137.4857, 35.7098], [137.4857, 35.7058], [137.4912, 35.704], [137.4919, 35.7004], [137.4948, 35.6988], [137.4975, 35.6983], [137.4986, 35.6961], [137.4976, 35.694], [137.4981, 35.6926], [137.4973, 35.6884], [137.4984, 35.6872], [137.5002, 35.6871], [137.5019, 35.6849], [137.5044, 35.6844], [137.5058, 35.6828], [137.5078, 35.6822], [137.5099, 35.6823], [137.5121, 35.6803], [137.5125, 35.6787], [137.5145, 35.6777], [137.5159, 35.6777], [137.5173, 35.677], [137.519, 35.6775], [137.52, 35.6771], [137.5246, 35.6715], [137.5276, 35.6708], [137.5355, 35.6658], [137.5349, 35.6643], [137.5361, 35.6611], [137.5454, 35.6513], [137.545, 35.6492], [137.5397, 35.6467], [137.5394, 35.6439], [137.541, 35.6421], [137.5386, 35.6386], [137.5363, 35.6378], [137.5323, 35.6377], [137.5302, 35.6359], [137.528, 35.6359], [137.5266, 35.6343], [137.5263, 35.6318], [137.5279, 35.6303], [137.5277, 35.6288], [137.5249, 35.6276], [137.5238, 35.6261], [137.5228, 35.6229], [137.5234, 35.6211], [137.5226, 35.6194], [137.5197, 35.6197], [137.5168, 35.6183], [137.5165, 35.6162], [137.515, 35.614], [137.5153, 35.6123], [137.5142, 35.6104], [137.5137, 35.608], [137.5163, 35.6064], [137.5181, 35.6046], [137.5181, 35.6029], [137.5199, 35.6027], [137.5203, 35.6002], [137.5214, 35.5999], [137.5232, 35.5979], [137.5241, 35.5979], [137.5279, 35.5958], [137.5297, 35.5938], [137.5319, 35.5933], [137.5321, 35.5912], [137.5308, 35.59], [137.5309, 35.5892], [137.5318, 35.588], [137.5364, 35.587], [137.5379, 35.5846], [137.5465, 35.5872], [137.5488, 35.5871], [137.5508, 35.5877], [137.554, 35.5863], [137.5631, 35.5855], [137.5641, 35.5849], [137.5681, 35.5858], [137.5691, 35.5844], [137.5713, 35.5842], [137.5702, 35.5824], [137.5703, 35.5798], [137.5682, 35.5771], [137.5692, 35.5751], [137.5688, 35.5736], [137.567, 35.571], [137.5641, 35.5688], [137.5648, 35.566], [137.5664, 35.5661], [137.5669, 35.5649], [137.5709, 35.5629], [137.5723, 35.5607], [137.5719, 35.5597], [137.5727, 35.5581], [137.5715, 35.5571], [137.5706, 35.5538], [137.5723, 35.553], [137.5718, 35.5515], [137.5739, 35.5507], [137.5747, 35.5497], [137.5738, 35.5449], [137.5744, 35.5446], [137.5768, 35.5449], [137.5773, 35.5435], [137.5801, 35.5412], [137.5811, 35.5388], [137.5845, 35.539], [137.5871, 35.5385], [137.5903, 35.5352], [137.594, 35.5346], [137.5952, 35.5339], [137.5971, 35.5346], [137.5987, 35.5341], [137.6023, 35.5308], [137.6062, 35.5332], [137.6079, 35.5333], [137.6104, 35.5304], [137.6131, 35.5292], [137.616, 35.5265], [137.6186, 35.526], [137.6194, 35.5215], [137.6231, 35.5201], [137.6223, 35.5186], [137.6238, 35.5164], [137.6255, 35.5153], [137.6262, 35.5124], [137.6309, 35.5107], [137.6319, 35.5097], [137.632, 35.509], [137.6291, 35.5069], [137.6294, 35.5054], [137.6273, 35.5031], [137.6283, 35.5014], [137.6244, 35.5008], [137.6242, 35.4993], [137.6249, 35.4964], [137.6243, 35.4942], [137.6257, 35.4925], [137.6256, 35.4883], [137.6271, 35.486], [137.6269, 35.4848], [137.6296, 35.4834], [137.629, 35.4811], [137.6306, 35.4801], [137.6295, 35.4771], [137.631, 35.4763], [137.6314, 35.4751], [137.6323, 35.4745], [137.6316, 35.4702], [137.6292, 35.4686], [137.6285, 35.4675], [137.6264, 35.4681], [137.623, 35.4671], [137.6213, 35.4685], [137.6186, 35.4673], [137.6186, 35.4665], [137.6178, 35.4662], [137.6166, 35.4645], [137.6151, 35.4634], [137.6131, 35.463], [137.6102, 35.4588], [137.6073, 35.4582], [137.6062, 35.4563], [137.6042, 35.4559], [137.602, 35.4534], [137.5975, 35.4513], [137.593, 35.4472], [137.5959, 35.4444], [137.5984, 35.4429], [137.6013, 35.4394], [137.6038, 35.4394], [137.6083, 35.4379], [137.6096, 35.4358], [137.6157, 35.4304], [137.6178, 35.4267], [137.6165, 35.4256], [137.6157, 35.4236], [137.6203, 35.4173], [137.6199, 35.4148], [137.6219, 35.4119], [137.6234, 35.4119], [137.6254, 35.4109], [137.6321, 35.4108], [137.6323, 35.409], [137.6311, 35.407], [137.6318, 35.4061], [137.6329, 35.4057], [137.6345, 35.4035], [137.6346, 35.4006], [137.6336, 35.399], [137.6326, 35.399], [137.6313, 35.3977], [137.6285, 35.3972], [137.6237, 35.3944], [137.6195, 35.3934], [137.6185, 35.3919], [137.6145, 35.3925], [137.6132, 35.3917], [137.612, 35.3927], [137.6057, 35.394], [137.6029, 35.3936], [137.5963, 35.3941], [137.595, 35.3954], [137.593, 35.3936], [137.5901, 35.3939], [137.5887, 35.3944], [137.5879, 35.3954], [137.584, 35.3965], [137.5833, 35.3977], [137.581, 35.3981], [137.5799, 35.3994], [137.5776, 35.3999], [137.577, 35.4006], [137.5751, 35.4001], [137.576, 35.3979], [137.5763, 35.3927], [137.5772, 35.3902], [137.5789, 35.3901], [137.5814, 35.3908], [137.5864, 35.3894], [137.5883, 35.3857], [137.5906, 35.385], [137.5913, 35.3839], [137.5932, 35.3833], [137.5955, 35.3802], [137.5984, 35.3788], [137.5985, 35.3759], [137.5978, 35.3749], [137.5985, 35.3728], [137.5978, 35.3712], [137.5976, 35.3698], [137.5983, 35.369], [137.5976, 35.3661], [137.599, 35.3644], [137.5992, 35.3632], [137.6009, 35.3615], [137.6024, 35.3583], [137.6013, 35.3578], [137.6008, 35.3568], [137.601, 35.3554], [137.6023, 35.3547], [137.6024, 35.3541], [137.6007, 35.3537], [137.5997, 35.352], [137.6004, 35.3497], [137.5998, 35.3467], [137.6013, 35.3463], [137.6017, 35.3452], [137.6003, 35.3421], [137.6035, 35.3379], [137.6038, 35.3365], [137.6024, 35.3359], [137.6037, 35.3334], [137.6033, 35.3322], [137.6017, 35.3323], [137.6009, 35.331], [137.6002, 35.3314], [137.5984, 35.3312], [137.5975, 35.3319], [137.596, 35.3306], [137.5948, 35.3316], [137.5925, 35.33], [137.5915, 35.331], [137.5907, 35.331], [137.5913, 35.3282], [137.5883, 35.3261], [137.5876, 35.3237], [137.5857, 35.3231], [137.5829, 35.3212], [137.5836, 35.3189], [137.5819, 35.3183], [137.5797, 35.319], [137.5784, 35.3189], [137.5742, 35.3165], [137.5715, 35.3183], [137.5672, 35.3147], [137.5689, 35.3138], [137.569, 35.3132], [137.5673, 35.3126], [137.5656, 35.3135], [137.5644, 35.3132], [137.5646, 35.3118], [137.5656, 35.3112], [137.5651, 35.3107], [137.5628, 35.3113], [137.5606, 35.3095], [137.5597, 35.3095], [137.5586, 35.3106], [137.5569, 35.31], [137.5567, 35.3087], [137.5588, 35.3056], [137.5593, 35.3013], [137.5582, 35.299], [137.5581, 35.2969], [137.5564, 35.2957], [137.5619, 35.2895], [137.562, 35.2899], [137.5654, 35.2903], [137.5672, 35.2898], [137.5674, 35.2874], [137.5689, 35.2867], [137.5689, 35.2856], [137.5709, 35.2828], [137.5703, 35.282], [137.5665, 35.2811], [137.5654, 35.2801], [137.5652, 35.2786], [137.5641, 35.2777], [137.5614, 35.2773], [137.5573, 35.2748], [137.5555, 35.2743], [137.5558, 35.2722], [137.5569, 35.2715], [137.5577, 35.2697], [137.5566, 35.2689], [137.5577, 35.2675], [137.5578, 35.2651], [137.5521, 35.2599], [137.5479, 35.2596], [137.548, 35.2567], [137.546, 35.2529], [137.546, 35.2517], [137.5476, 35.2514], [137.5487, 35.25], [137.55, 35.2436], [137.5528, 35.2402], [137.5573, 35.2372], [137.5595, 35.2368], [137.5624, 35.2352], [137.5649, 35.233], [137.5683, 35.228], [137.5725, 35.2263], [137.5726, 35.224], [137.5746, 35.2234], [137.5757, 35.2213], [137.5755, 35.2205], [137.5769, 35.2204], [137.5788, 35.2195], [137.5778, 35.2169], [137.5784, 35.2158], [137.5769, 35.212], [137.5777, 35.2114], [137.5782, 35.2094], [137.5765, 35.2068], [137.577, 35.2052], [137.5767, 35.2026], [137.5777, 35.2018], [137.5775, 35.1994], [137.5787, 35.1985], [137.5808, 35.1984], [137.5833, 35.1998], [137.5872, 35.2], [137.591, 35.1994], [137.595, 35.2005], [137.5988, 35.2024], [137.6004, 35.2038], [137.603, 35.2046], [137.6038, 35.2058], [137.6031, 35.206], [137.6041, 35.2066], [137.6077, 35.2071], [137.6107, 35.2086], [137.6132, 35.2091], [137.6137, 35.21], [137.6153, 35.2105], [137.6182, 35.2099], [137.6202, 35.211], [137.6239, 35.2107], [137.6253, 35.211], [137.627, 35.2121], [137.6289, 35.212], [137.6326, 35.2127], [137.6339, 35.2125], [137.6355, 35.211], [137.6439, 35.2092], [137.6447, 35.2098], [137.6449, 35.2123], [137.6498, 35.2131], [137.6522, 35.2168], [137.6537, 35.2175], [137.6535, 35.2211], [137.6523, 35.2232], [137.6537, 35.2243], [137.654, 35.2267], [137.6562, 35.2283], [137.6594, 35.228], [137.6611, 35.2273], [137.6638, 35.2279], [137.6652, 35.2274], [137.668, 35.2273], [137.6723, 35.2293], [137.6737, 35.2313], [137.679, 35.2309], [137.6799, 35.2333], [137.6815, 35.2352], [137.6863, 35.2306], [137.6887, 35.2307], [137.6904, 35.2328], [137.6915, 35.2332], [137.6942, 35.2337], [137.6993, 35.2315], [137.7045, 35.234], [137.7055, 35.2338], [137.7117, 35.2289], [137.7157, 35.2299], [137.7169, 35.2298], [137.718, 35.2292], [137.7197, 35.2295], [137.7208, 35.2307], [137.722, 35.2307], [137.723, 35.228], [137.7218, 35.2267], [137.7221, 35.2261], [137.7209, 35.2255], [137.7214, 35.2234], [137.7231, 35.2219], [137.7254, 35.2222], [137.7277, 35.2211], [137.7293, 35.2211], [137.7305, 35.2221], [137.7353, 35.2227], [137.7367, 35.2217], [137.7384, 35.222], [137.7406, 35.2213], [137.741, 35.2201], [137.7436, 35.2189], [137.7449, 35.2191], [137.747, 35.2206], [137.748, 35.2197], [137.7493, 35.2195], [137.7507, 35.2209], [137.7523, 35.2201], [137.7542, 35.2208], [137.7558, 35.2205], [137.7572, 35.2215], [137.7597, 35.2222], [137.7605, 35.2209], [137.763, 35.2206], [137.765, 35.2186], [137.7683, 35.2185], [137.7677, 35.2177], [137.7692, 35.216], [137.7693, 35.2142], [137.7684, 35.2126], [137.7659, 35.2103], [137.7677, 35.2066], [137.7694, 35.2058], [137.7729, 35.2055], [137.7738, 35.205], [137.7736, 35.2032], [137.7776, 35.2036], [137.779, 35.2026], [137.7806, 35.2042], [137.7822, 35.2043], [137.7835, 35.2061], [137.7875, 35.2051], [137.7888, 35.2041], [137.7909, 35.2051], [137.7918, 35.2046], [137.7926, 35.2051], [137.7939, 35.2049], [137.7952, 35.2042], [137.7966, 35.2051], [137.7997, 35.2054], [137.8044, 35.2087], [137.8094, 35.21], [137.811, 35.2115], [137.8151, 35.2127], [137.816, 35.2139], [137.8196, 35.2148], [137.8213, 35.2157], [137.8254, 35.2158], [137.8262, 35.2162], [137.8383, 35.2128], [137.8382, 35.2139], [137.8367, 35.2155], [137.8374, 35.2163], [137.8382, 35.2165], [137.8389, 35.2156], [137.8394, 35.2158], [137.8392, 35.2168], [137.8415, 35.2163], [137.8418, 35.2172], [137.8437, 35.2176], [137.8438, 35.2188], [137.8452, 35.2191], [137.845, 35.2209], [137.8465, 35.2211], [137.8472, 35.222], [137.8504, 35.2213], [137.8518, 35.222], [137.8537, 35.2217], [137.8564, 35.2231], [137.8583, 35.2224], [137.859, 35.2235], [137.8604, 35.2228], [137.865, 35.2226], [137.8653, 35.2211], [137.8668, 35.2215], [137.8694, 35.2198], [137.8722, 35.2188], [137.8765, 35.2216], [137.8773, 35.2235], [137.8796, 35.2252], [137.8805, 35.2265], [137.8806, 35.2293], [137.8821, 35.2305], [137.8826, 35.2323], [137.8849, 35.2361], [137.8819, 35.2417], [137.8822, 35.2429], [137.8841, 35.244], [137.8825, 35.2481], [137.884, 35.25], [137.8878, 35.2511], [137.8882, 35.2519], [137.8895, 35.2523], [137.891, 35.2542], [137.8938, 35.2544], [137.8954, 35.2579], [137.8969, 35.2575], [137.898, 35.2566], [137.9, 35.2566], [137.9067, 35.2543], [137.9106, 35.2541], [137.9123, 35.2533], [137.9141, 35.254], [137.9187, 35.2544], [137.9201, 35.2572], [137.9223, 35.2595], [137.9246, 35.2605], [137.9247, 35.2626], [137.9258, 35.2642], [137.9264, 35.2689], [137.9278, 35.2693], [137.9284, 35.2702], [137.9293, 35.2756], [137.9328, 35.2761], [137.9365, 35.2757], [137.9402, 35.2763], [137.944, 35.2762], [137.9468, 35.2778], [137.9472, 35.2794], [137.9482, 35.2805], [137.9523, 35.2831], [137.9586, 35.2827], [137.964, 35.2845], [137.9659, 35.2839], [137.9667, 35.2826], [137.9706, 35.289], [137.9727, 35.2906], [137.9734, 35.2933], [137.9756, 35.2934], [137.981, 35.2923], [137.9826, 35.2926], [137.9846, 35.2957], [137.9911, 35.3002], [137.9925, 35.3018], [137.9964, 35.3022], [137.9986, 35.3034], [138.0011, 35.3028], [138.0057, 35.3044], [138.0154, 35.3031], [138.0186, 35.3011], [138.0196, 35.3014], [138.0238, 35.3054], [138.024, 35.3072], [138.0266, 35.3097], [138.0277, 35.3117], [138.026, 35.3159], [138.0263, 35.3205], [138.0289, 35.3217], [138.0311, 35.3221], [138.0339, 35.3244], [138.0392, 35.3263], [138.0385, 35.3299], [138.0374, 35.3312], [138.0379, 35.3333], [138.0431, 35.3353], [138.0482, 35.3351], [138.0511, 35.3358], [138.0543, 35.3384], [138.0552, 35.3398], [138.0555, 35.3439], [138.057, 35.344], [138.0591, 35.3451], [138.0613, 35.3472], [138.0687, 35.347], [138.0706, 35.3474], [138.0752, 35.3443], [138.0772, 35.3443], [138.0794, 35.3432], [138.0811, 35.3399], [138.0825, 35.3386], [138.0848, 35.3378], [138.087, 35.3378], [138.0919, 35.3398], [138.096, 35.3396], [138.0958, 35.3427], [138.0966, 35.3443], [138.0968, 35.347], [138.096, 35.3485], [138.094, 35.3497], [138.0939, 35.3506], [138.0946, 35.3519], [138.0963, 35.3529], [138.0968, 35.3542], [138.0983, 35.3545], [138.1, 35.3541], [138.1014, 35.3547], [138.1037, 35.3568], [138.1055, 35.3575], [138.1073, 35.3604], [138.1094, 35.3608], [138.1146, 35.3646], [138.1189, 35.3665], [138.1241, 35.368], [138.1258, 35.3676], [138.1297, 35.3653], [138.135, 35.3668], [138.138, 35.3687], [138.1402, 35.3691], [138.1417, 35.3699], [138.1416, 35.3736], [138.1438, 35.376], [138.1436, 35.3771], [138.1459, 35.3824], [138.1459, 35.3839], [138.1476, 35.3863], [138.1478, 35.3877], [138.1491, 35.3891], [138.1512, 35.3901], [138.153, 35.3972], [138.1492, 35.3998], [138.1488, 35.4009], [138.1445, 35.4061], [138.1401, 35.4056], [138.1349, 35.4079], [138.1343, 35.4095], [138.1344, 35.4123], [138.1351, 35.414], [138.1373, 35.4144], [138.1389, 35.4162], [138.1391, 35.419], [138.1384, 35.4202], [138.1397, 35.4228], [138.1386, 35.4235], [138.1367, 35.4236], [138.1325, 35.4261], [138.1306, 35.4264], [138.1291, 35.4272], [138.123, 35.4281], [138.1211, 35.4292], [138.1204, 35.4314], [138.1226, 35.4335], [138.1239, 35.4357], [138.1224, 35.4416], [138.1194, 35.4462], [138.1193, 35.4476], [138.1205, 35.45], [138.1205, 35.4518], [138.1198, 35.4534], [138.1225, 35.4566], [138.1234, 35.4566], [138.1243, 35.4554], [138.1316, 35.4534], [138.1368, 35.455], [138.1409, 35.4589], [138.1461, 35.4593], [138.1487, 35.4602], [138.1505, 35.4597], [138.1513, 35.4588], [138.154, 35.459], [138.1572, 35.4605], [138.1576, 35.4629], [138.1604, 35.4674], [138.1606, 35.469], [138.16, 35.4715], [138.157, 35.4728], [138.1563, 35.4743], [138.1569, 35.4785], [138.1587, 35.4827], [138.1583, 35.4866], [138.1647, 35.4937], [138.1624, 35.4946], [138.1588, 35.4942], [138.1552, 35.4952], [138.1479, 35.5004], [138.1445, 35.5007], [138.1427, 35.4997], [138.1403, 35.4998], [138.1395, 35.5012], [138.1409, 35.5044], [138.1436, 35.5064], [138.1441, 35.5098], [138.1462, 35.5126], [138.1464, 35.5189], [138.1413, 35.521], [138.139, 35.5207], [138.1389, 35.5231], [138.1422, 35.5254], [138.1432, 35.5273], [138.1471, 35.5299], [138.1478, 35.535], [138.1519, 35.5364], [138.1538, 35.5376], [138.1538, 35.5384], [138.1552, 35.5396], [138.1561, 35.5417], [138.1572, 35.5424], [138.1592, 35.5452], [138.1591, 35.5467], [138.1562, 35.5488], [138.156, 35.5522], [138.1542, 35.5534], [138.1531, 35.5536], [138.1517, 35.5529], [138.1474, 35.5544], [138.1414, 35.5551], [138.1461, 35.557], [138.1478, 35.5614], [138.151, 35.5663], [138.1519, 35.5722], [138.1525, 35.571], [138.1535, 35.5718], [138.1572, 35.573], [138.1603, 35.5764], [138.161, 35.5802], [138.1618, 35.5812], [138.1672, 35.5829], [138.171, 35.5823], [138.173, 35.5815], [138.1739, 35.5795], [138.1752, 35.5787], [138.1762, 35.5766], [138.1779, 35.575], [138.1821, 35.5745], [138.1841, 35.5731], [138.1896, 35.5767], [138.1901, 35.579], [138.1891, 35.5805], [138.1891, 35.5814], [138.1932, 35.5862], [138.1948, 35.5874], [138.1946, 35.5926], [138.1954, 35.5948], [138.2, 35.5989], [138.2015, 35.6036], [138.2027, 35.604], [138.2062, 35.6082], [138.2052, 35.6133], [138.2029, 35.6184], [138.2038, 35.6253], [138.2035, 35.6321], [138.208, 35.6332], [138.2104, 35.6343], [138.2161, 35.6403], [138.2188, 35.6443], [138.2175, 35.6449], [138.2176, 35.6465], [138.2166, 35.648], [138.21, 35.6528], [138.2082, 35.6561], [138.2077, 35.66], [138.2055, 35.6641], [138.2033, 35.6648], [138.2026, 35.666], [138.1988, 35.6694], [138.1936, 35.6721], [138.1944, 35.6749], [138.1928, 35.6774], [138.1934, 35.6808], [138.1922, 35.6824], [138.1926, 35.6831], [138.1916, 35.6853], [138.1936, 35.688], [138.1934, 35.6921], [138.1941, 35.6955], [138.1937, 35.6971], [138.1913, 35.7019], [138.1868, 35.7044], [138.1833, 35.7082], [138.1819, 35.7108], [138.1809, 35.7113], [138.1803, 35.7147], [138.1821, 35.7184], [138.1834, 35.7193], [138.1834, 35.7202], [138.1841, 35.7199], [138.1859, 35.7202], [138.1863, 35.7221], [138.1878, 35.7234], [138.1898, 35.7238], [138.1918, 35.7252], [138.1956, 35.7261], [138.1961, 35.7269], [138.1974, 35.7272], [138.2005, 35.733], [138.203, 35.7348], [138.2046, 35.7348], [138.2069, 35.7356], [138.2079, 35.737], [138.2122, 35.7401], [138.2123, 35.7413], [138.2132, 35.7412], [138.213, 35.7418], [138.2153, 35.7439], [138.2195, 35.7459], [138.2208, 35.748], [138.2205, 35.7492], [138.2219, 35.7505], [138.2253, 35.7519], [138.2274, 35.7536], [138.2297, 35.7534], [138.2309, 35.7548], [138.2329, 35.7555], [138.2343, 35.757], [138.2368, 35.7579], [138.236, 35.7585], [138.2329, 35.7632], [138.2291, 35.7645], [138.2276, 35.7655], [138.2247, 35.7657], [138.224, 35.7674], [138.2219, 35.7692], [138.2214, 35.7708], [138.2172, 35.7715], [138.2154, 35.7731], [138.215, 35.7749], [138.2139, 35.7748], [138.2122, 35.7757], [138.2103, 35.7773], [138.2102, 35.779], [138.209, 35.7807], [138.2062, 35.7826], [138.2025, 35.7812], [138.2007, 35.781], [138.1915, 35.7841], [138.1904, 35.7852], [138.1893, 35.788], [138.1852, 35.791], [138.1862, 35.7936], [138.1856, 35.7956], [138.1865, 35.7961], [138.1865, 35.7975], [138.1879, 35.8001], [138.1905, 35.8032], [138.1917, 35.804], [138.1935, 35.804], [138.1934, 35.8058], [138.1957, 35.8056], [138.1972, 35.8076], [138.1989, 35.8122], [138.1994, 35.8126], [138.2014, 35.812], [138.2038, 35.8147], [138.2056, 35.8159], [138.206, 35.8184], [138.2051, 35.8188], [138.2055, 35.8202], [138.2043, 35.8209], [138.2041, 35.8223], [138.2033, 35.8229], [138.205, 35.8244], [138.2037, 35.8255], [138.2046, 35.828], [138.2071, 35.8318], [138.2087, 35.8327], [138.2124, 35.8368], [138.2123, 35.8385], [138.2135, 35.8399], [138.2136, 35.8418], [138.2151, 35.8434], [138.2156, 35.8449], [138.2192, 35.8471], [138.2202, 35.8494], [138.2226, 35.8519], [138.2231, 35.8546], [138.227, 35.8576], [138.2293, 35.8675], [138.2305, 35.8712], [138.2321, 35.8735], [138.2324, 35.8759], [138.2367, 35.8801], [138.2386, 35.8827], [138.242, 35.8845], [138.2453, 35.8849], [138.2486, 35.8861], [138.2509, 35.8857], [138.2538, 35.8822], [138.2556, 35.8817], [138.26, 35.8792], [138.2659, 35.8748], [138.2666, 35.874], [138.2676, 35.8705], [138.2774, 35.8615], [138.2807, 35.8597], [138.2841, 35.8596], [138.284, 35.8603], [138.2849, 35.8612], [138.2859, 35.8614], [138.2889, 35.8637], [138.2897, 35.8655], [138.2928, 35.867], [138.2944, 35.8692], [138.2961, 35.8702], [138.2987, 35.8744], [138.3014, 35.8769], [138.3038, 35.8812], [138.3049, 35.8819], [138.3066, 35.8845], [138.3074, 35.8873], [138.3134, 35.8915], [138.322, 35.8999], [138.3235, 35.9021], [138.3263, 35.9033], [138.3283, 35.9063], [138.3286, 35.9079], [138.3304, 35.9098], [138.3313, 35.9141], [138.3351, 35.9203], [138.3368, 35.9208], [138.3372, 35.9225], [138.3387, 35.9245], [138.3417, 35.9257], [138.3438, 35.9295], [138.3443, 35.9337], [138.3456, 35.9369], [138.3451, 35.9417], [138.3514, 35.947], [138.3523, 35.9483], [138.3546, 35.9498], [138.3568, 35.9509], [138.36, 35.9509], [138.3596, 35.9559], [138.3616, 35.9584], [138.3609, 35.9603], [138.3618, 35.9624], [138.3649, 35.9648], [138.3691, 35.9669], [138.3704, 35.9709], [138.3728, 35.9718], [138.3816, 35.9716], [138.3842, 35.9692], [138.3916, 35.9662], [138.3945, 35.9657], [138.3984, 35.9643], [138.4013, 35.9647], [138.4084, 35.9625], [138.4146, 35.9593], [138.4169, 35.959], [138.4196, 35.9597], [138.4296, 35.9573], [138.4369, 35.9538], [138.4422, 35.9505], [138.4446, 35.9498], [138.4464, 35.947], [138.4499, 35.9456], [138.4522, 35.942], [138.4523, 35.9408], [138.4539, 35.9399], [138.4545, 35.9385], [138.4517, 35.933], [138.4503, 35.9323], [138.4498, 35.9311], [138.4475, 35.9294], [138.4487, 35.928], [138.4481, 35.926], [138.4484, 35.9252], [138.4469, 35.9249], [138.4473, 35.9236], [138.4445, 35.9225], [138.4446, 35.9214], [138.4456, 35.9202], [138.4453, 35.9188], [138.444, 35.918], [138.4452, 35.9172], [138.4463, 35.9144], [138.4489, 35.9131], [138.4487, 35.912], [138.4504, 35.9104], [138.45, 35.9092], [138.4511, 35.9082], [138.4517, 35.9062], [138.4529, 35.9056], [138.4544, 35.9026], [138.4542, 35.8993], [138.4553, 35.8996], [138.4563, 35.9009], [138.456, 35.9018], [138.4568, 35.9034], [138.4596, 35.9038], [138.463, 35.9025], [138.4654, 35.9001], [138.468, 35.8991], [138.4722, 35.896], [138.4736, 35.8966], [138.4783, 35.8973], [138.4794, 35.8981], [138.4814, 35.8978], [138.4829, 35.8987], [138.4854, 35.8981], [138.4879, 35.8962], [138.4901, 35.8965], [138.4911, 35.8986], [138.4927, 35.8996], [138.4955, 35.9035], [138.4959, 35.9076], [138.4943, 35.9113], [138.4963, 35.9118], [138.4977, 35.9115], [138.4996, 35.9126], [138.5016, 35.9119], [138.5028, 35.9124], [138.5036, 35.9149], [138.5046, 35.9156], [138.5047, 35.9177], [138.5055, 35.919], [138.5084, 35.9209], [138.5089, 35.922], [138.5105, 35.9225], [138.5128, 35.9202], [138.5164, 35.92], [138.5179, 35.919], [138.5219, 35.9187], [138.5291, 35.9147], [138.5311, 35.9158], [138.5392, 35.9144], [138.54, 35.9138], [138.5422, 35.9148], [138.5451, 35.9146], [138.5467, 35.9162], [138.5506, 35.9166], [138.554, 35.919], [138.5553, 35.9192], [138.557, 35.9181], [138.5566, 35.9165], [138.5572, 35.916], [138.564, 35.9171], [138.5669, 35.9163], [138.569, 35.9148], [138.5687, 35.9139], [138.5723, 35.9122], [138.5743, 35.9124], [138.5765, 35.9115], [138.5792, 35.913], [138.5811, 35.9172], [138.5853, 35.9185], [138.5891, 35.9178], [138.591, 35.9198], [138.5921, 35.9185], [138.5936, 35.9176], [138.5967, 35.9169], [138.5979, 35.9147], [138.6009, 35.9136], [138.6011, 35.9113], [138.6024, 35.9099], [138.6047, 35.9088], [138.6077, 35.9083], [138.6124, 35.9095], [138.6107, 35.9043], [138.6094, 35.9037], [138.6081, 35.9002], [138.6071, 35.8996], [138.6075, 35.8984], [138.6071, 35.897], [138.6077, 35.8959], [138.6051, 35.8939], [138.6061, 35.8921], [138.6059, 35.8851], [138.6065, 35.8834], [138.6065, 35.88], [138.6069, 35.8785], [138.6102, 35.8752], [138.6111, 35.8736], [138.6126, 35.8728], [138.6145, 35.8726], [138.6174, 35.8711], [138.6215, 35.8704], [138.6246, 35.8712], [138.628, 35.8733], [138.6315, 35.8712], [138.6341, 35.8702], [138.6361, 35.8717], [138.6406, 35.8732], [138.6426, 35.8748], [138.6458, 35.8738], [138.6497, 35.8735], [138.6521, 35.874], [138.656, 35.8759], [138.6581, 35.8758], [138.6602, 35.8739], [138.6628, 35.8732], [138.6658, 35.8737], [138.669, 35.8714], [138.6705, 35.8708], [138.6728, 35.8711], [138.676, 35.8702], [138.6796, 35.8765], [138.6804, 35.8792], [138.6824, 35.8814], [138.6838, 35.8862], [138.6834, 35.8884], [138.6854, 35.8898], [138.685, 35.8922], [138.6857, 35.894], [138.6879, 35.894], [138.6901, 35.8956], [138.692, 35.896], [138.6934, 35.8997], [138.6968, 35.8993], [138.6993, 35.9011], [138.7004, 35.9034], [138.702, 35.9034], [138.7057, 35.9061], [138.708, 35.9099], [138.7119, 35.9097], [138.7132, 35.9089], [138.7172, 35.9092], [138.7209, 35.908], [138.7243, 35.9082], [138.727, 35.9093], [138.7287, 35.9092], [138.7292, 35.9129], [138.7306, 35.9151], [138.7294, 35.9169], [138.728, 35.9179], [138.7297, 35.918], [138.7325, 35.9198], [138.7338, 35.9229], [138.7362, 35.9248], [138.7363, 35.9263], [138.7377, 35.927], [138.7376, 35.9279], [138.7386, 35.9289], [138.7393, 35.9331], [138.7376, 35.9364], [138.7394, 35.9391], [138.7348, 35.943], [138.7311, 35.9452], [138.7315, 35.947], [138.7305, 35.9503], [138.7292, 35.9514], [138.7271, 35.9565], [138.7254, 35.958], [138.7211, 35.9593], [138.7197, 35.9616], [138.7196, 35.9629], [138.7144, 35.9655], [138.712, 35.9697], [138.7115, 35.9724], [138.7126, 35.9747], [138.712, 35.9776], [138.7131, 35.9852], [138.7082, 35.9864], [138.7058, 35.9875], [138.7004, 35.9885], [138.6968, 35.9912], [138.6907, 35.9909], [138.6885, 35.992], [138.6864, 35.9948], [138.687, 35.996], [138.6865, 35.9977], [138.6872, 35.9987], [138.6871, 35.9998], [138.6853, 36.0018], [138.681, 36.0043], [138.6813, 36.006], [138.6798, 36.0091], [138.6808, 36.0106], [138.6798, 36.0116], [138.6758, 36.0115], [138.6709, 36.0123], [138.6686, 36.0115], [138.6639, 36.0118], [138.6621, 36.0115], [138.6613, 36.0164], [138.6569, 36.0167], [138.6535, 36.0188], [138.6505, 36.0185], [138.6477, 36.0198], [138.6462, 36.0199], [138.6451, 36.0239], [138.6437, 36.0242], [138.6419, 36.0259], [138.6396, 36.0261], [138.6362, 36.0277], [138.6319, 36.0272], [138.6315, 36.0284], [138.6346, 36.0333], [138.6356, 36.0367], [138.637, 36.0373], [138.638, 36.0391], [138.638, 36.0416], [138.6418, 36.0452], [138.6421, 36.0476], [138.6442, 36.05], [138.6424, 36.0532], [138.6427, 36.0573], [138.6417, 36.0597], [138.6429, 36.0612], [138.6424, 36.0624], [138.6431, 36.0672], [138.6426, 36.0689], [138.6405, 36.0711], [138.6403, 36.0749], [138.6391, 36.0753], [138.635, 36.0796], [138.633, 36.0801], [138.6325, 36.0844], [138.6302, 36.0862], [138.6303, 36.0885], [138.6307, 36.0916], [138.6349, 36.0926], [138.6357, 36.0953], [138.6373, 36.0972], [138.6388, 36.0961], [138.6407, 36.0973], [138.6444, 36.0985], [138.6451, 36.0994], [138.6448, 36.1034], [138.6478, 36.1064], [138.6465, 36.1073], [138.6464, 36.1099], [138.6424, 36.112], [138.6427, 36.1135], [138.6421, 36.1156], [138.6401, 36.1173], [138.644, 36.1195], [138.6451, 36.1195], [138.6452, 36.1204], [138.6446, 36.1212], [138.6411, 36.1217], [138.6395, 36.1238], [138.6375, 36.1238], [138.6373, 36.1289], [138.6364, 36.1313], [138.6343, 36.1341], [138.6309, 36.1328], [138.6298, 36.1332], [138.6269, 36.133], [138.6246, 36.1319], [138.6222, 36.1318], [138.6203, 36.1339], [138.6164, 36.1331], [138.614, 36.1343], [138.6124, 36.1334], [138.6081, 36.1363], [138.605, 36.1364], [138.6007, 36.1355], [138.5977, 36.1383], [138.5945, 36.1438], [138.5953, 36.1464], [138.5949, 36.1481], [138.593, 36.1502], [138.5931, 36.1532], [138.5903, 36.155], [138.5893, 36.158], [138.5876, 36.1593], [138.5872, 36.1608], [138.5838, 36.1606], [138.5825, 36.1618], [138.5805, 36.1623], [138.5799, 36.1631], [138.5811, 36.1652], [138.5804, 36.1657], [138.5804, 36.1668], [138.5788, 36.168], [138.5772, 36.1681], [138.5794, 36.1704], [138.5795, 36.1725], [138.5806, 36.174], [138.5805, 36.1757], [138.5814, 36.1763], [138.5811, 36.1775], [138.5834, 36.1789], [138.5839, 36.1773], [138.5869, 36.177], [138.5883, 36.179], [138.5904, 36.1786], [138.588, 36.1727], [138.5898, 36.1693], [138.5912, 36.169], [138.5927, 36.1668], [138.5947, 36.1657], [138.5991, 36.1655], [138.6047, 36.1641], [138.6077, 36.1614], [138.6097, 36.1614], [138.6087, 36.1638], [138.6089, 36.1651], [138.6134, 36.1685], [138.616, 36.1682], [138.6183, 36.1702], [138.6212, 36.1713], [138.6228, 36.1701], [138.6234, 36.1708], [138.6249, 36.1705], [138.6263, 36.1712], [138.6278, 36.1711], [138.6308, 36.1727], [138.6338, 36.1717], [138.6347, 36.171], [138.6359, 36.171], [138.6363, 36.172], [138.6371, 36.1748], [138.6358, 36.1761], [138.6358, 36.1775], [138.6297, 36.1833], [138.6298, 36.1852], [138.6279, 36.1885], [138.6271, 36.1916], [138.624, 36.1947], [138.623, 36.1969], [138.6262, 36.2007], [138.6289, 36.2019], [138.6292, 36.2028], [138.6302, 36.2036], [138.6324, 36.204], [138.6347, 36.2055], [138.6373, 36.2038], [138.6346, 36.2083], [138.6346, 36.2136], [138.6336, 36.2145], [138.6332, 36.216], [138.6315, 36.2172], [138.6287, 36.2156], [138.6271, 36.2159], [138.6238, 36.2144], [138.6219, 36.2148], [138.618, 36.2193], [138.6177, 36.2215], [138.6148, 36.2243], [138.6147, 36.2282], [138.6119, 36.2296], [138.6123, 36.231], [138.6117, 36.2315], [138.6125, 36.2409], [138.6118, 36.2412], [138.6114, 36.2429], [138.6102, 36.2442], [138.6075, 36.2449], [138.6074, 36.2463], [138.6031, 36.2478], [138.6023, 36.249], [138.6032, 36.2508], [138.6031, 36.2521], [138.605, 36.2545], [138.6049, 36.2591], [138.6043, 36.2598], [138.6043, 36.2617], [138.6032, 36.2624], [138.6056, 36.267], [138.6037, 36.2693], [138.6045, 36.272], [138.6031, 36.2731], [138.6035, 36.2748], [138.6004, 36.2782], [138.607, 36.2795], [138.6099, 36.2817], [138.6112, 36.2819], [138.6112, 36.2833], [138.6121, 36.2837], [138.6123, 36.2852], [138.613, 36.2856], [138.6143, 36.2855], [138.6149, 36.2861], [138.6164, 36.2857], [138.6166, 36.2864], [138.6197, 36.2868], [138.6211, 36.2864], [138.6244, 36.2882], [138.626, 36.288], [138.6271, 36.289], [138.6291, 36.2883], [138.6306, 36.2884], [138.6318, 36.2892], [138.6328, 36.2909], [138.6357, 36.2919], [138.6377, 36.2934], [138.6399, 36.2935], [138.6411, 36.2926], [138.6426, 36.2935], [138.6446, 36.2932], [138.6454, 36.2963], [138.6465, 36.2974], [138.6477, 36.2983], [138.6512, 36.299], [138.65, 36.3006], [138.6501, 36.3015], [138.6537, 36.3031], [138.653, 36.3049], [138.6537, 36.3072], [138.6533, 36.308], [138.6513, 36.3079], [138.6504, 36.312], [138.6492, 36.3125], [138.6476, 36.3145], [138.6489, 36.318], [138.6519, 36.3206], [138.6518, 36.3224], [138.653, 36.3242], [138.6529, 36.3265], [138.6517, 36.3275], [138.6531, 36.3301], [138.6516, 36.3305], [138.6513, 36.3316], [138.6504, 36.3321], [138.6509, 36.335], [138.6496, 36.338], [138.6498, 36.3416], [138.6512, 36.344], [138.65, 36.3457], [138.6501, 36.347], [138.6506, 36.3487], [138.6515, 36.3495], [138.65, 36.3523], [138.6512, 36.3547], [138.6541, 36.3571], [138.6542, 36.3581], [138.6522, 36.3595], [138.6523, 36.3626], [138.6547, 36.3658], [138.6565, 36.3673], [138.6571, 36.3689], [138.6536, 36.3723], [138.6517, 36.373], [138.651, 36.3765], [138.6496, 36.3792], [138.6522, 36.3853], [138.6517, 36.3876], [138.6522, 36.3912], [138.6517, 36.3935], [138.6523, 36.3956], [138.6493, 36.3983], [138.6484, 36.4], [138.6484, 36.4073], [138.6478, 36.4096], [138.6465, 36.411], [138.6435, 36.4118], [138.6426, 36.4125], [138.6419, 36.4143], [138.6363, 36.4176], [138.6327, 36.418], [138.6276, 36.4156], [138.626, 36.4157], [138.6212, 36.4165], [138.6182, 36.4205], [138.6167, 36.4205], [138.6129, 36.4226], [138.6074, 36.423], [138.6038, 36.4219], [138.6032, 36.4225], [138.6022, 36.4222], [138.6003, 36.4226], [138.5999, 36.4238], [138.5914, 36.4241], [138.5904, 36.4238], [138.5892, 36.421], [138.5866, 36.4202], [138.5845, 36.4224], [138.5837, 36.4225], [138.5759, 36.4205], [138.5736, 36.4192], [138.5652, 36.42], [138.5557, 36.4182], [138.5523, 36.4165], [138.5516, 36.4146], [138.549, 36.4134], [138.5464, 36.4081], [138.5437, 36.4055], [138.5404, 36.403], [138.5353, 36.4023], [138.5307, 36.4026], [138.5226, 36.406], [138.5175, 36.4076], [138.506, 36.4145], [138.5047, 36.4146], [138.5031, 36.4136], [138.4968, 36.414], [138.4925, 36.4132], [138.4909, 36.41], [138.4891, 36.4086], [138.4885, 36.4059], [138.489, 36.4027], [138.49, 36.4013], [138.4888, 36.4007], [138.4848, 36.4016], [138.4776, 36.4046], [138.475, 36.4037], [138.473, 36.4045], [138.4659, 36.4042], [138.4603, 36.4047], [138.4611, 36.408], [138.4601, 36.4098], [138.4572, 36.4126], [138.4582, 36.4177], [138.4571, 36.4203], [138.4515, 36.4212], [138.4494, 36.4202], [138.4464, 36.4198], [138.4414, 36.4233], [138.4273, 36.4264], [138.421, 36.4286], [138.4148, 36.4317], [138.4018, 36.4337], [138.4011, 36.4355], [138.4014, 36.439], [138.4007, 36.441], [138.401, 36.4463], [138.4035, 36.452], [138.4025, 36.4525], [138.3995, 36.4522], [138.3985, 36.453], [138.4011, 36.4566], [138.4008, 36.4597], [138.4, 36.4612], [138.4005, 36.4632], [138.4026, 36.4647], [138.4033, 36.4668], [138.4021, 36.4684], [138.401, 36.4688], [138.401, 36.4713], [138.3995, 36.4733], [138.401, 36.4772], [138.4001, 36.4793], [138.4006, 36.4813], [138.3968, 36.4844], [138.3981, 36.487], [138.3966, 36.4901], [138.3982, 36.4914], [138.3986, 36.494], [138.4018, 36.5011], [138.4058, 36.5073], [138.4045, 36.5108], [138.4039, 36.5146], [138.4028, 36.5161], [138.4039, 36.521], [138.4052, 36.5233], [138.4115, 36.527], [138.4126, 36.5289], [138.4139, 36.5331], [138.4135, 36.5345], [138.4125, 36.5351], [138.4124, 36.5379], [138.4115, 36.539], [138.4125, 36.5417], [138.4147, 36.5428], [138.4181, 36.5434], [138.4186, 36.5449], [138.4261, 36.5515], [138.4266, 36.5538], [138.4288, 36.5563], [138.4282, 36.5585], [138.4261, 36.56], [138.4287, 36.5639], [138.4283, 36.5689], [138.4271, 36.5702], [138.4245, 36.5716], [138.4231, 36.573], [138.4207, 36.5735], [138.4202, 36.5741], [138.4203, 36.5774], [138.4209, 36.5788], [138.4244, 36.582], [138.4254, 36.5848], [138.4273, 36.5881], [138.4266, 36.5942], [138.4292, 36.5981], [138.4313, 36.5993], [138.4361, 36.6004], [138.4384, 36.5994], [138.4412, 36.5999], [138.4413, 36.6007], [138.4402, 36.6033], [138.4387, 36.6055], [138.4415, 36.6107], [138.4448, 36.6101], [138.4506, 36.6107], [138.4548, 36.6138], [138.4565, 36.6168], [138.4561, 36.619], [138.4571, 36.6199], [138.4589, 36.6245], [138.4604, 36.6262], [138.4582, 36.6293], [138.4578, 36.6336], [138.4598, 36.6352], [138.4617, 36.6355], [138.4629, 36.6368], [138.4667, 36.6367], [138.4695, 36.6401], [138.4723, 36.642], [138.4732, 36.6443], [138.4764, 36.6446], [138.4791, 36.6441], [138.4814, 36.6452], [138.4848, 36.6443], [138.4866, 36.6423], [138.4902, 36.6413], [138.4976, 36.6438], [138.5019, 36.6444], [138.5038, 36.6454], [138.5041, 36.6468], [138.5064, 36.6468], [138.5078, 36.6483], [138.5118, 36.6466], [138.5147, 36.649], [138.5224, 36.6508], [138.5237, 36.6503], [138.5251, 36.6509], [138.5267, 36.6538], [138.5292, 36.6551], [138.5297, 36.6587], [138.5318, 36.6602], [138.5347, 36.6655], [138.5345, 36.6662], [138.5332, 36.6667], [138.526, 36.6688], [138.5222, 36.6729], [138.5183, 36.6757], [138.518, 36.6772], [138.5196, 36.6807], [138.5181, 36.6836], [138.5197, 36.6864], [138.5177, 36.6893], [138.5141, 36.6903], [138.5195, 36.6918], [138.5208, 36.694], [138.5234, 36.6944], [138.5285, 36.6968], [138.5307, 36.6972], [138.5338, 36.6966], [138.5366, 36.697], [138.5375, 36.6992], [138.5411, 36.7015], [138.5434, 36.7037], [138.5462, 36.7034], [138.5501, 36.7045], [138.5526, 36.7043], [138.557, 36.7061], [138.5599, 36.7064], [138.5616, 36.7058], [138.5655, 36.7062], [138.5661, 36.7059], [138.5683, 36.7066], [138.5695, 36.7057], [138.571, 36.7056], [138.5722, 36.7059], [138.5736, 36.7073], [138.5747, 36.7073], [138.5805, 36.7027], [138.5819, 36.702], [138.5839, 36.7017], [138.586, 36.703], [138.5888, 36.7074], [138.5922, 36.7086], [138.5932, 36.7098], [138.5926, 36.7108], [138.5934, 36.7127], [138.5956, 36.7147], [138.599, 36.7145], [138.602, 36.7128], [138.6029, 36.7109], [138.6044, 36.7105], [138.6052, 36.709], [138.6074, 36.707], [138.6108, 36.7065], [138.6113, 36.7078], [138.6128, 36.709], [138.6172, 36.7111], [138.6173, 36.7142], [138.6202, 36.7165], [138.6217, 36.7197], [138.624, 36.7209], [138.6279, 36.7209], [138.6299, 36.7198], [138.6354, 36.7206], [138.6384, 36.723], [138.6437, 36.7239], [138.6491, 36.7272], [138.6555, 36.7273], [138.6559, 36.7284], [138.6568, 36.7289], [138.6585, 36.7288], [138.6596, 36.7294], [138.6629, 36.7297], [138.6657, 36.7289], [138.6684, 36.7311], [138.6704, 36.7307], [138.6753, 36.7311], [138.6762, 36.7308], [138.6819, 36.7351], [138.6838, 36.7355], [138.6846, 36.7365], [138.6859, 36.7364], [138.6904, 36.7377], [138.6917, 36.7375], [138.6958, 36.7387], [138.6959, 36.74], [138.6945, 36.7442], [138.6938, 36.7451], [138.6917, 36.7461], [138.6921, 36.7516], [138.6909, 36.7538], [138.6914, 36.7585], [138.6879, 36.7657], [138.6853, 36.7665], [138.683, 36.7659], [138.68, 36.7662], [138.6776, 36.7681], [138.6745, 36.7698], [138.673, 36.77], [138.6701, 36.772], [138.6693, 36.7738], [138.6688, 36.7789], [138.6717, 36.7837], [138.6767, 36.7855], [138.678, 36.7855], [138.6793, 36.7867], [138.6815, 36.7875], [138.6838, 36.7879], [138.6874, 36.7912], [138.6878, 36.7924], [138.6893, 36.7931], [138.6884, 36.7959], [138.6888, 36.7981], [138.691, 36.8006], [138.6923, 36.8036], [138.6935, 36.8042], [138.6957, 36.808], [138.6957, 36.8089], [138.6943, 36.8106], [138.6892, 36.8136], [138.6876, 36.8158], [138.687, 36.8181], [138.6857, 36.8189], [138.6807, 36.82], [138.6797, 36.8208], [138.6807, 36.8241], [138.6903, 36.8333], [138.6904, 36.8374], [138.6916, 36.8413], [138.6901, 36.8462], [138.6926, 36.8497], [138.6927, 36.8513], [138.6935, 36.8526], [138.693, 36.8549], [138.6915, 36.8566], [138.6889, 36.858], [138.6885, 36.8606], [138.6873, 36.8614], [138.687, 36.8628], [138.6853, 36.8626], [138.6816, 36.8654], [138.6789, 36.8659], [138.6783, 36.8666], [138.6763, 36.8672], [138.6735, 36.8671], [138.6721, 36.8664], [138.6708, 36.8669], [138.6662, 36.8666], [138.6622, 36.868], [138.6577, 36.868], [138.6569, 36.8685], [138.6575, 36.8693], [138.6569, 36.8702], [138.6552, 36.8703], [138.6537, 36.8715], [138.6528, 36.8716], [138.6508, 36.8748], [138.6445, 36.8751], [138.6443, 36.8755], [138.6416, 36.876], [138.6407, 36.8788], [138.6379, 36.8803], [138.6361, 36.8803], [138.6351, 36.8796], [138.6348, 36.8807], [138.6356, 36.8834], [138.6286, 36.8834], [138.6262, 36.8823], [138.6254, 36.8824], [138.6225, 36.8861], [138.6215, 36.8895], [138.6196, 36.8901], [138.6175, 36.8917], [138.6183, 36.9001], [138.6211, 36.9039], [138.6127, 36.9086], [138.6025, 36.9076], [138.6004, 36.9068], [138.5984, 36.9074], [138.5964, 36.9071], [138.5907, 36.9143], [138.5885, 36.9138], [138.5896, 36.9184], [138.5915, 36.9231], [138.5916, 36.9252], [138.5884, 36.9262], [138.5872, 36.9261], [138.5868, 36.9277], [138.5852, 36.9285], [138.583, 36.9285], [138.583, 36.929], [138.5846, 36.9316], [138.5849, 36.9393], [138.586, 36.9412], [138.5855, 36.9463], [138.5869, 36.9549], [138.5864, 36.9567], [138.5855, 36.9575], [138.586, 36.959], [138.5852, 36.9602], [138.5865, 36.9618], [138.586, 36.965], [138.5873, 36.9659], [138.5865, 36.9678], [138.5869, 36.9705], [138.5858, 36.9726], [138.5873, 36.9749], [138.5866, 36.9763], [138.588, 36.9773], [138.5866, 36.9787], [138.5871, 36.9823], [138.586, 36.9867], [138.5866, 36.988], [138.5829, 36.991], [138.5814, 36.9929], [138.5773, 36.9949], [138.5757, 36.9963], [138.5732, 37.0045], [138.5705, 37.0053], [138.5705, 37.0097], [138.5691, 37.0136], [138.5695, 37.0155], [138.5657, 37.0212], [138.5632, 37.0206], [138.5618, 37.0222], [138.5595, 37.023], [138.5551, 37.0225], [138.5521, 37.0236], [138.5483, 37.0211], [138.5409, 37.022], [138.5395, 37.0209], [138.5364, 37.0211], [138.5319, 37.0231], [138.5305, 37.0242], [138.53, 37.0237], [138.5263, 37.0272], [138.5256, 37.0305], [138.5211, 37.0296], [138.5198, 37.0279], [138.5141, 37.0296], [138.5127, 37.0289], [138.5129, 37.028], [138.5114, 37.0279], [138.5106, 37.0272], [138.5089, 37.0277], [138.5077, 37.0264], [138.5061, 37.0265], [138.5056, 37.0259], [138.5037, 37.0262], [138.5017, 37.0251], [138.4993, 37.0266], [138.4969, 37.0264], [138.4948, 37.0238], [138.4937, 37.0234], [138.4923, 37.0212], [138.4902, 37.0203], [138.4874, 37.0202], [138.4859, 37.0207], [138.4828, 37.0198], [138.4822, 37.0214], [138.4811, 37.0215], [138.4779, 37.0202], [138.4751, 37.0198], [138.4732, 37.0185], [138.4706, 37.0185], [138.4686, 37.0178], [138.4652, 37.0188], [138.4618, 37.0184], [138.4572, 37.0198], [138.4552, 37.0197], [138.4542, 37.0171], [138.451, 37.0157], [138.4507, 37.0149], [138.447, 37.0142], [138.4456, 37.0134], [138.4424, 37.013], [138.4398, 37.0104], [138.4373, 37.0097], [138.4365, 37.0085], [138.4344, 37.0072], [138.4308, 37.006], [138.4271, 37.0065], [138.4233, 37.0054], [138.4198, 37.0034], [138.4184, 37.0034], [138.414, 37.002], [138.4124, 37.0026], [138.4115, 37.0016], [138.4112, 36.9988], [138.4102, 36.9983], [138.4085, 36.9988], [138.4065, 36.998], [138.4001, 36.9978], [138.3978, 36.9971], [138.3941, 36.9967], [138.3939, 36.9954], [138.3949, 36.9945], [138.3904, 36.9912], [138.3909, 36.9902], [138.3906, 36.9881], [138.3841, 36.9833], [138.3805, 36.9817], [138.3788, 36.9804], [138.38, 36.9782], [138.3822, 36.9764], [138.3792, 36.9734], [138.3758, 36.9722], [138.3758, 36.9708], [138.3744, 36.9684], [138.3731, 36.9675], [138.3716, 36.9652], [138.3693, 36.9638], [138.3671, 36.9594], [138.3683, 36.9572], [138.3637, 36.9531], [138.3647, 36.9507], [138.3635, 36.9462], [138.3648, 36.9454], [138.3647, 36.9445], [138.3632, 36.9426], [138.3624, 36.9424], [138.3623, 36.9416], [138.3607, 36.9411], [138.3598, 36.9401], [138.3583, 36.9374], [138.3578, 36.9339], [138.3571, 36.9329], [138.3552, 36.9328], [138.3533, 36.93], [138.3518, 36.9292], [138.3499, 36.9295], [138.349, 36.9292], [138.3453, 36.9231], [138.3432, 36.9209], [138.3418, 36.9219], [138.3393, 36.9223], [138.3372, 36.9251], [138.3349, 36.9252], [138.3296, 36.9271], [138.3249, 36.9257], [138.3229, 36.926], [138.32, 36.9248], [138.3177, 36.9252], [138.3159, 36.9241], [138.3146, 36.9218], [138.3126, 36.9215], [138.311, 36.9205], [138.3088, 36.9207], [138.3079, 36.9189], [138.3073, 36.9194], [138.3066, 36.9182], [138.3008, 36.9147], [138.3, 36.9133], [138.2981, 36.9125], [138.2964, 36.9107], [138.2949, 36.9076], [138.295, 36.9031], [138.2945, 36.9016], [138.2903, 36.8975], [138.2905, 36.8967], [138.2921, 36.8961], [138.2945, 36.8934], [138.2945, 36.89], [138.2953, 36.8886], [138.2966, 36.8875], [138.2982, 36.8872], [138.2994, 36.8863], [138.2981, 36.8837], [138.2938, 36.8794], [138.2928, 36.8766], [138.2932, 36.8732], [138.2899, 36.8717], [138.2883, 36.8695], [138.2895, 36.8687], [138.29, 36.867], [138.2919, 36.8656], [138.2926, 36.863], [138.2953, 36.8609], [138.2964, 36.8584], [138.2963, 36.8563], [138.2959, 36.8552], [138.2919, 36.854], [138.2924, 36.8525], [138.2917, 36.8513], [138.2906, 36.8526], [138.2894, 36.8528], [138.2887, 36.85], [138.2897, 36.8486], [138.2893, 36.8472], [138.288, 36.8468], [138.2876, 36.8459], [138.2821, 36.8442], [138.2793, 36.8427], [138.2763, 36.8422], [138.2756, 36.8411], [138.2747, 36.8408], [138.2719, 36.8425], [138.2706, 36.8442], [138.2703, 36.8469], [138.2712, 36.8494], [138.2717, 36.855], [138.2687, 36.8586], [138.2687, 36.8606], [138.2656, 36.8617], [138.2628, 36.8619], [138.2613, 36.8628], [138.2582, 36.8629], [138.2576, 36.868], [138.2549, 36.87], [138.2538, 36.87], [138.2491, 36.8654], [138.2385, 36.8637], [138.2372, 36.8642], [138.235, 36.8638], [138.2296, 36.8642], [138.2263, 36.8651], [138.2239, 36.8648], [138.2167, 36.8666], [138.2132, 36.8685], [138.2137, 36.8711], [138.2074, 36.8642], [138.2064, 36.8623], [138.2059, 36.8589], [138.2012, 36.8559], [138.1977, 36.855], [138.1955, 36.8538], [138.1914, 36.8538], [138.1895, 36.8524], [138.1847, 36.853], [138.183, 36.8525], [138.182, 36.8515], [138.18, 36.8514], [138.1771, 36.852], [138.1764, 36.8508], [138.1762, 36.848], [138.1741, 36.8472], [138.1727, 36.8476], [138.1715, 36.8473], [138.1691, 36.8452], [138.1631, 36.8444], [138.1561, 36.8452], [138.1507, 36.8466], [138.1475, 36.8495], [138.1404, 36.8473], [138.138, 36.8488], [138.1365, 36.8492], [138.1351, 36.8489], [138.1319, 36.8507], [138.1296, 36.8498], [138.1288, 36.8488], [138.1275, 36.8489], [138.1241, 36.8478], [138.1222, 36.849], [138.1186, 36.8487], [138.1173, 36.8498], [138.1148, 36.8507], [138.1141, 36.85], [138.112, 36.8496], [138.1101, 36.8469], [138.1072, 36.8455], [138.1063, 36.844], [138.1044, 36.844], [138.1027, 36.8432], [138.0993, 36.8438], [138.0987, 36.8428], [138.0978, 36.8429], [138.0971, 36.8421], [138.0963, 36.842], [138.0959, 36.8408], [138.093, 36.8401], [138.093, 36.8391], [138.0919, 36.838], [138.0921, 36.8363], [138.0907, 36.8366], [138.0903, 36.8359], [138.0886, 36.8357], [138.0879, 36.8347], [138.0859, 36.8344], [138.0848, 36.8323], [138.0814, 36.8301], [138.0807, 36.828], [138.0794, 36.8271], [138.0775, 36.8223], [138.0749, 36.8197], [138.0746, 36.8179], [138.0736, 36.818], [138.073, 36.817], [138.0738, 36.8145], [138.0733, 36.8139], [138.0752, 36.811], [138.0748, 36.8098], [138.0718, 36.8081], [138.0706, 36.8052], [138.0677, 36.8036], [138.0664, 36.8044], [138.0645, 36.8044], [138.0588, 36.8025], [138.0571, 36.8008], [138.0521, 36.8], [138.0515, 36.8036], [138.0522, 36.8066], [138.0516, 36.8075], [138.0478, 36.8094], [138.0456, 36.8098], [138.0415, 36.8078], [138.0363, 36.8081]]]}, "properties": {"name": "長野県"}}]}