{"type": "FeatureCollection", "features": [{"type": "Feature", "geometry": {"type": "MultiPolygon", "coordinates": [[[[140.5767, 38.3956], [140.5779, 38.3929], [140.5674, 38.3854], [140.5635, 38.3773], [140.5525, 38.3765], [140.5493, 38.3721], [140.5503, 38.371], [140.5439, 38.3661], [140.5444, 38.3639], [140.541, 38.3621], [140.5327, 38.3617], [140.5265, 38.3576], [140.5216, 38.3504], [140.5241, 38.3414], [140.5217, 38.3383], [140.5306, 38.325], [140.5285, 38.3225], [140.53, 38.3208], [140.5224, 38.315], [140.5203, 38.3086], [140.5168, 38.3111], [140.5042, 38.3141], [140.5044, 38.3085], [140.502, 38.3049], [140.4925, 38.3019], [140.4921, 38.2929], [140.497, 38.2833], [140.4891, 38.2796], [140.488, 38.2743], [140.473, 38.2717], [140.4711, 38.2693], [140.4729, 38.2606], [140.4689, 38.2561], [140.4725, 38.2522], [140.4691, 38.2427], [140.471, 38.2347], [140.4665, 38.2304], [140.4742, 38.2254], [140.4709, 38.2133], [140.4733, 38.2099], [140.4723, 38.2057], [140.4782, 38.1984], [140.48, 38.1813], [140.4697, 38.1707], [140.4666, 38.1565], [140.4516, 38.1508], [140.4442, 38.1416], [140.4425, 38.1364], [140.4457, 38.1299], [140.4302, 38.1269], [140.4248, 38.1211], [140.4256, 38.1151], [140.4173, 38.103], [140.4213, 38.0881], [140.4178, 38.0806], [140.4048, 38.0741], [140.4023, 38.0703], [140.3963, 38.0695], [140.3827, 38.0713], [140.3802, 38.0693], [140.3823, 38.0638], [140.3739, 38.0571], [140.3646, 38.0563], [140.3556, 38.0582], [140.3445, 38.0533], [140.3346, 38.0563], [140.3196, 38.0554], [140.3154, 38.0585], [140.3118, 38.0569], [140.3084, 38.0578], [140.3029, 38.0536], [140.3001, 38.0539], [140.297, 38.0571], [140.2923, 38.0557], [140.2885, 38.0593], [140.2821, 38.0595], [140.2775, 38.0567], [140.2828, 38.0504], [140.2818, 38.0439], [140.2792, 38.0436], [140.2758, 38.036], [140.276, 38.0287], [140.2812, 38.0257], [140.2817, 38.0199], [140.2868, 38.0086], [140.2895, 38.0073], [140.2766, 37.9936], [140.2747, 37.9823], [140.2842, 37.9731], [140.3023, 37.9691], [140.3085, 37.9636], [140.3143, 37.9644], [140.3165, 37.9582], [140.3282, 37.9586], [140.3341, 37.9514], [140.3361, 37.9551], [140.3423, 37.9516], [140.3512, 37.9502], [140.3556, 37.952], [140.3535, 37.9545], [140.355, 37.9578], [140.3591, 37.9589], [140.3642, 37.9587], [140.3842, 37.9523], [140.3855, 37.9652], [140.3882, 37.9695], [140.3985, 37.9745], [140.4074, 37.9736], [140.4092, 37.9638], [140.414, 37.9636], [140.4204, 37.9606], [140.429, 37.9545], [140.4382, 37.9541], [140.4445, 37.957], [140.4484, 37.951], [140.4558, 37.9504], [140.4616, 37.9527], [140.4657, 37.9492], [140.4748, 37.9468], [140.4674, 37.9382], [140.4694, 37.9178], [140.4766, 37.9069], [140.4878, 37.8996], [140.4971, 37.9002], [140.5041, 37.9056], [140.5156, 37.9033], [140.5174, 37.9078], [140.5206, 37.9075], [140.5221, 37.9091], [140.5313, 37.9057], [140.5511, 37.9105], [140.5532, 37.9094], [140.5613, 37.9107], [140.5638, 37.9126], [140.5624, 37.9144], [140.5647, 37.9154], [140.5627, 37.9182], [140.5668, 37.9221], [140.5705, 37.9186], [140.5743, 37.9177], [140.5753, 37.9147], [140.5827, 37.9097], [140.5866, 37.9103], [140.5912, 37.9063], [140.5964, 37.9064], [140.6008, 37.9105], [140.6102, 37.9115], [140.61, 37.9136], [140.6137, 37.9155], [140.6192, 37.9122], [140.6239, 37.9005], [140.6282, 37.8989], [140.6447, 37.8955], [140.6469, 37.8986], [140.6603, 37.901], [140.6675, 37.8947], [140.69, 37.8882], [140.6912, 37.8838], [140.6824, 37.8798], [140.6819, 37.8758], [140.6874, 37.8716], [140.6862, 37.8663], [140.6928, 37.8573], [140.6904, 37.8529], [140.6916, 37.8494], [140.6855, 37.847], [140.6864, 37.8436], [140.6841, 37.8393], [140.6792, 37.8361], [140.6842, 37.8307], [140.6831, 37.8283], [140.6864, 37.8198], [140.6852, 37.8156], [140.6915, 37.8105], [140.6919, 37.8074], [140.6953, 37.8044], [140.6942, 37.8035], [140.7035, 37.8032], [140.7106, 37.8009], [140.717, 37.7947], [140.7242, 37.7924], [140.7273, 37.7813], [140.7373, 37.7871], [140.7453, 37.7885], [140.7489, 37.7853], [140.7582, 37.7856], [140.7745, 37.7821], [140.7909, 37.7737], [140.7954, 37.7732], [140.8037, 37.7798], [140.7951, 37.781], [140.7871, 37.7892], [140.7834, 37.7898], [140.783, 37.7918], [140.7793, 37.7911], [140.7791, 37.7936], [140.7742, 37.7944], [140.7729, 37.7974], [140.7679, 37.7981], [140.7651, 37.7965], [140.7652, 37.7987], [140.7731, 37.8014], [140.7749, 37.8065], [140.79, 37.8022], [140.7918, 37.7997], [140.8059, 37.798], [140.8102, 37.7954], [140.8213, 37.7989], [140.8304, 37.7949], [140.8406, 37.7962], [140.8509, 37.7954], [140.8555, 37.7973], [140.8579, 37.8032], [140.8538, 37.807], [140.854, 37.8113], [140.8577, 37.8165], [140.8537, 37.8213], [140.8557, 37.8287], [140.8522, 37.8302], [140.855, 37.8339], [140.8536, 37.835], [140.8542, 37.8417], [140.8501, 37.8491], [140.8586, 37.8562], [140.8613, 37.8617], [140.8607, 37.8672], [140.8546, 37.8743], [140.862, 37.8804], [140.857, 37.8826], [140.8567, 37.8867], [140.8599, 37.8884], [140.8561, 37.8909], [140.8696, 37.8963], [140.88, 37.8977], [140.8997, 37.9044], [140.9016, 37.8976], [140.9117, 37.8967], [140.9148, 37.8982], [140.9198, 37.8947], [140.9202, 37.8924], [140.9238, 37.8922], [140.924, 37.8949], [140.9311, 37.8964], [140.9317, 37.9002], [140.9307, 37.9021], [140.9293, 37.9004], [140.9299, 37.9022], [140.9264, 37.9034], [140.9228, 37.9157], [140.9152, 37.9695], [140.9156, 37.9897], [140.9153, 37.9894], [140.9136, 37.9892], [140.9135, 37.9894], [140.9153, 37.9896], [140.9149, 37.9896], [140.9146, 37.9904], [140.9146, 37.9939], [140.916, 38.0106], [140.9221, 38.0345], [140.921, 38.0444], [140.9248, 38.0729], [140.931, 38.0998], [140.9461, 38.1431], [140.9565, 38.1637], [140.9639, 38.1735], [140.9451, 38.1808], [140.9474, 38.1831], [140.9597, 38.1753], [140.9636, 38.1748], [140.9618, 38.176], [140.9627, 38.1785], [140.9747, 38.2014], [141.0135, 38.2516], [141.0593, 38.2522], [141.0582, 38.2539], [141.0854, 38.2532], [141.1021, 38.2749], [141.0527, 38.278], [141.0521, 38.2796], [141.0636, 38.2821], [141.0634, 38.2863], [141.0734, 38.2945], [141.0784, 38.2955], [141.0855, 38.2933], [141.0849, 38.2955], [141.0878, 38.2957], [141.0871, 38.2983], [141.0894, 38.3003], [141.1091, 38.2999], [141.119, 38.3089], [141.1336, 38.3267], [141.1309, 38.3385], [141.1332, 38.3432], [141.132, 38.3501], [141.1415, 38.357], [141.1259, 38.3583], [141.1247, 38.3655], [141.0973, 38.3487], [141.0811, 38.3449], [141.0674, 38.3495], [141.0649, 38.3551], [141.0621, 38.355], [141.0613, 38.3651], [141.0628, 38.3642], [141.063, 38.3661], [141.0615, 38.3655], [141.0615, 38.3691], [141.0682, 38.37], [141.0697, 38.3658], [141.073, 38.3655], [141.072, 38.3684], [141.0704, 38.3675], [141.0683, 38.37], [141.0721, 38.3721], [141.0743, 38.3779], [141.0769, 38.379], [141.0771, 38.3772], [141.0747, 38.3767], [141.076, 38.3757], [141.0806, 38.3745], [141.0825, 38.3756], [141.0806, 38.3746], [141.0796, 38.3748], [141.0802, 38.3764], [141.0819, 38.3759], [141.0776, 38.3779], [141.0814, 38.3786], [141.0815, 38.3767], [141.0817, 38.3794], [141.0848, 38.3812], [141.0889, 38.3813], [141.0905, 38.3788], [141.0987, 38.3784], [141.0999, 38.376], [141.096, 38.376], [141.0965, 38.3747], [141.1034, 38.3727], [141.1024, 38.3703], [141.1045, 38.3705], [141.1051, 38.368], [141.1062, 38.3701], [141.1087, 38.3705], [141.107, 38.3727], [141.108, 38.3759], [141.1109, 38.3764], [141.1133, 38.3746], [141.1162, 38.3762], [141.1077, 38.38], [141.1061, 38.3862], [141.1155, 38.3806], [141.1194, 38.3807], [141.1204, 38.3788], [141.1262, 38.3801], [141.1325, 38.3778], [141.138, 38.3719], [141.1339, 38.363], [141.1311, 38.362], [141.1322, 38.3602], [141.139, 38.3611], [141.1386, 38.3598], [141.1412, 38.3594], [141.1438, 38.3606], [141.1496, 38.358], [141.1489, 38.3558], [141.1464, 38.3567], [141.1444, 38.3545], [141.1404, 38.3539], [141.1425, 38.3487], [141.1496, 38.3429], [141.1479, 38.339], [141.1452, 38.3388], [141.1426, 38.3425], [141.1421, 38.3396], [141.1387, 38.3393], [141.1377, 38.3406], [141.1365, 38.3392], [141.1345, 38.3427], [141.1344, 38.3395], [141.133, 38.341], [141.1314, 38.3388], [141.1344, 38.3355], [141.1326, 38.334], [141.1353, 38.3329], [141.1362, 38.3288], [141.1392, 38.3268], [141.1374, 38.3215], [141.1393, 38.3217], [141.1406, 38.3245], [141.1425, 38.3226], [141.1465, 38.325], [141.146, 38.3278], [141.1379, 38.3302], [141.1416, 38.3298], [141.1438, 38.3314], [141.1417, 38.3339], [141.144, 38.3321], [141.1479, 38.334], [141.1484, 38.3315], [141.1451, 38.3309], [141.1445, 38.332], [141.1434, 38.3307], [141.1545, 38.3219], [141.1565, 38.3223], [141.1562, 38.3247], [141.1574, 38.323], [141.1574, 38.3249], [141.1601, 38.3245], [141.1604, 38.327], [141.1653, 38.3279], [141.165, 38.3264], [141.1653, 38.3275], [141.1668, 38.3263], [141.1649, 38.3261], [141.1689, 38.3257], [141.169, 38.3231], [141.1747, 38.323], [141.1758, 38.3218], [141.1742, 38.3205], [141.1762, 38.321], [141.1775, 38.3193], [141.1774, 38.3211], [141.1794, 38.3208], [141.1772, 38.3214], [141.1771, 38.3235], [141.1821, 38.3222], [141.1764, 38.3257], [141.1719, 38.3253], [141.1717, 38.3289], [141.1705, 38.3281], [141.1669, 38.332], [141.17, 38.3383], [141.1678, 38.3369], [141.1677, 38.3391], [141.1697, 38.3388], [141.1679, 38.3403], [141.1694, 38.3447], [141.1669, 38.3425], [141.1657, 38.3442], [141.1673, 38.3456], [141.1639, 38.3455], [141.1671, 38.347], [141.1637, 38.3472], [141.1654, 38.3486], [141.1689, 38.3478], [141.1703, 38.3487], [141.1698, 38.3527], [141.1692, 38.3483], [141.1686, 38.3502], [141.1666, 38.3492], [141.1665, 38.3518], [141.1659, 38.3495], [141.162, 38.3517], [141.1672, 38.3545], [141.1639, 38.3539], [141.1651, 38.3551], [141.163, 38.3558], [141.1618, 38.3525], [141.16, 38.3534], [141.1627, 38.3482], [141.1587, 38.3503], [141.163, 38.3404], [141.1591, 38.3437], [141.1574, 38.3433], [141.1567, 38.3497], [141.1553, 38.348], [141.1541, 38.3492], [141.1581, 38.3519], [141.1583, 38.3613], [141.1638, 38.3688], [141.1932, 38.3855], [141.2225, 38.3981], [141.2404, 38.4036], [141.2513, 38.3819], [141.3186, 38.3842], [141.3182, 38.3958], [141.3137, 38.3956], [141.3149, 38.4115], [141.3248, 38.4119], [141.325, 38.4091], [141.3271, 38.4092], [141.3269, 38.412], [141.3555, 38.4143], [141.3637, 38.4119], [141.3639, 38.4095], [141.3646, 38.4125], [141.3673, 38.4129], [141.3708, 38.4166], [141.3728, 38.4157], [141.3669, 38.4102], [141.3689, 38.4076], [141.3684, 38.4033], [141.3654, 38.4028], [141.3676, 38.4024], [141.3699, 38.399], [141.3663, 38.3895], [141.3636, 38.3891], [141.3673, 38.3854], [141.3732, 38.3833], [141.381, 38.3858], [141.3804, 38.3833], [141.3872, 38.3843], [141.3901, 38.3858], [141.392, 38.3901], [141.3971, 38.3913], [141.3988, 38.3951], [141.4017, 38.3955], [141.4017, 38.3999], [141.4087, 38.4038], [141.4118, 38.3973], [141.4107, 38.3951], [141.4135, 38.3961], [141.4147, 38.3915], [141.419, 38.3969], [141.4231, 38.3949], [141.4309, 38.3992], [141.4328, 38.3951], [141.4283, 38.3898], [141.4248, 38.3887], [141.4225, 38.3846], [141.4253, 38.3822], [141.4276, 38.3826], [141.4273, 38.3805], [141.4305, 38.3805], [141.4327, 38.3832], [141.4342, 38.3814], [141.4379, 38.3815], [141.4383, 38.3793], [141.4331, 38.376], [141.4322, 38.3733], [141.4349, 38.3738], [141.4368, 38.3721], [141.44, 38.3755], [141.4452, 38.375], [141.4465, 38.3765], [141.4519, 38.3752], [141.4537, 38.3761], [141.4587, 38.3737], [141.4532, 38.3714], [141.4435, 38.3706], [141.4404, 38.3653], [141.4374, 38.3667], [141.432, 38.3639], [141.4297, 38.3648], [141.4238, 38.3582], [141.4239, 38.3557], [141.4183, 38.3545], [141.4167, 38.3561], [141.4143, 38.3546], [141.4177, 38.3532], [141.4179, 38.3508], [141.4205, 38.3504], [141.4156, 38.346], [141.4212, 38.3478], [141.4219, 38.3439], [141.4244, 38.3463], [141.428, 38.3459], [141.4311, 38.3481], [141.4333, 38.3447], [141.4305, 38.3411], [141.4331, 38.3425], [141.4334, 38.3409], [141.436, 38.3412], [141.4408, 38.3444], [141.4394, 38.3464], [141.4423, 38.3485], [141.4416, 38.3507], [141.4446, 38.3512], [141.446, 38.3541], [141.4484, 38.3534], [141.4472, 38.3502], [141.4496, 38.3488], [141.4501, 38.3402], [141.4547, 38.3446], [141.4537, 38.3478], [141.4567, 38.3475], [141.4573, 38.3509], [141.4614, 38.3513], [141.4613, 38.3524], [141.465, 38.3413], [141.4631, 38.3357], [141.467, 38.3344], [141.4719, 38.3351], [141.4742, 38.3297], [141.4726, 38.328], [141.4716, 38.3293], [141.4688, 38.3272], [141.4668, 38.328], [141.4665, 38.3264], [141.4696, 38.3255], [141.4676, 38.3232], [141.4587, 38.3227], [141.4536, 38.3187], [141.4522, 38.3194], [141.4495, 38.3151], [141.4559, 38.3151], [141.4595, 38.3127], [141.4598, 38.3095], [141.4675, 38.306], [141.4709, 38.3082], [141.4681, 38.3155], [141.4703, 38.3204], [141.4724, 38.3199], [141.47, 38.3153], [141.4781, 38.3055], [141.4836, 38.3082], [141.488, 38.307], [141.4896, 38.3088], [141.4964, 38.3052], [141.4917, 38.2955], [141.4936, 38.2924], [141.4979, 38.2921], [141.5021, 38.2955], [141.5039, 38.2941], [141.503, 38.2953], [141.5065, 38.2981], [141.5089, 38.2968], [141.5091, 38.2927], [141.5046, 38.2928], [141.51, 38.2925], [141.5086, 38.2868], [141.5118, 38.2749], [141.515, 38.2752], [141.5188, 38.2716], [141.5203, 38.2731], [141.5223, 38.2712], [141.5248, 38.2725], [141.523, 38.2745], [141.5267, 38.2762], [141.5235, 38.2782], [141.5256, 38.2801], [141.5239, 38.2817], [141.5263, 38.2899], [141.5254, 38.2957], [141.5281, 38.2964], [141.5303, 38.3008], [141.5372, 38.301], [141.5409, 38.3083], [141.5397, 38.3193], [141.5325, 38.3187], [141.5316, 38.3211], [141.5284, 38.3216], [141.5281, 38.3239], [141.525, 38.3252], [141.5262, 38.3287], [141.531, 38.3294], [141.53, 38.3331], [141.5344, 38.3396], [141.5244, 38.3476], [141.5228, 38.3511], [141.5244, 38.3556], [141.5194, 38.3593], [141.5218, 38.362], [141.5182, 38.3629], [141.5196, 38.3668], [141.5148, 38.3689], [141.5147, 38.3712], [141.5091, 38.3696], [141.5081, 38.3714], [141.5049, 38.3705], [141.5023, 38.3722], [141.5017, 38.3699], [141.4983, 38.3686], [141.4947, 38.3703], [141.4952, 38.3717], [141.491, 38.3675], [141.4903, 38.3686], [141.4853, 38.3674], [141.4874, 38.3681], [141.4816, 38.3754], [141.4848, 38.3799], [141.489, 38.3797], [141.4878, 38.3826], [141.4913, 38.3797], [141.4947, 38.3821], [141.4964, 38.3808], [141.4985, 38.3827], [141.5024, 38.3821], [141.5047, 38.3844], [141.5073, 38.3841], [141.5058, 38.3863], [141.5094, 38.3892], [141.5077, 38.3898], [141.5122, 38.3915], [141.5167, 38.39], [141.5158, 38.3866], [141.5207, 38.3881], [141.5219, 38.3904], [141.5243, 38.3884], [141.5232, 38.3898], [141.526, 38.3895], [141.5263, 38.3843], [141.5311, 38.3811], [141.5342, 38.385], [141.5331, 38.3867], [141.5405, 38.3888], [141.5378, 38.3916], [141.5377, 38.3946], [141.5409, 38.3957], [141.5381, 38.3974], [141.539, 38.4009], [141.5343, 38.4026], [141.5309, 38.3974], [141.5238, 38.3981], [141.5217, 38.3943], [141.5192, 38.3955], [141.5174, 38.3937], [141.517, 38.3953], [141.5138, 38.3931], [141.5109, 38.3997], [141.5072, 38.3972], [141.5053, 38.4004], [141.5035, 38.3995], [141.5011, 38.4014], [141.5012, 38.4069], [141.5048, 38.4102], [141.5024, 38.4163], [141.5005, 38.4145], [141.4999, 38.416], [141.4966, 38.4115], [141.4929, 38.4122], [141.4927, 38.4097], [141.4899, 38.4089], [141.4917, 38.4094], [141.4906, 38.4056], [141.4838, 38.4045], [141.4812, 38.3989], [141.4755, 38.3992], [141.4728, 38.3941], [141.4695, 38.3943], [141.4684, 38.3974], [141.4656, 38.3989], [141.4715, 38.405], [141.4696, 38.4067], [141.4708, 38.4063], [141.4705, 38.4067], [141.4722, 38.4079], [141.4724, 38.4058], [141.4729, 38.4068], [141.4727, 38.4077], [141.4719, 38.4084], [141.4746, 38.4138], [141.4704, 38.4154], [141.4746, 38.4186], [141.4742, 38.4215], [141.4712, 38.4254], [141.4631, 38.4237], [141.4659, 38.4283], [141.4652, 38.4315], [141.4618, 38.434], [141.4632, 38.4364], [141.4617, 38.4341], [141.4598, 38.4343], [141.4545, 38.4412], [141.4479, 38.4412], [141.4472, 38.4439], [141.4485, 38.4457], [141.4527, 38.4437], [141.4553, 38.446], [141.4558, 38.4442], [141.4575, 38.4444], [141.4572, 38.4461], [141.4601, 38.4465], [141.4663, 38.4405], [141.4643, 38.4374], [141.4739, 38.4409], [141.4752, 38.4382], [141.4767, 38.4403], [141.4792, 38.4404], [141.4813, 38.4367], [141.4848, 38.437], [141.4872, 38.4424], [141.4899, 38.4431], [141.4885, 38.4405], [141.4941, 38.4404], [141.4929, 38.4374], [141.4944, 38.4371], [141.4965, 38.4407], [141.4944, 38.4431], [141.5016, 38.4435], [141.5078, 38.4465], [141.5092, 38.4443], [141.5092, 38.4487], [141.5126, 38.4501], [141.5108, 38.4509], [141.5118, 38.4529], [141.509, 38.4536], [141.5088, 38.4495], [141.5018, 38.4471], [141.5018, 38.4512], [141.4974, 38.449], [141.4971, 38.4525], [141.4941, 38.4538], [141.4946, 38.4565], [141.5002, 38.4579], [141.5014, 38.4608], [141.4989, 38.4616], [141.493, 38.4599], [141.492, 38.4627], [141.4866, 38.4609], [141.4762, 38.4638], [141.476, 38.468], [141.4778, 38.4674], [141.4835, 38.4713], [141.4889, 38.469], [141.495, 38.476], [141.5, 38.4787], [141.496, 38.4801], [141.4953, 38.4847], [141.4923, 38.4851], [141.4907, 38.4887], [141.4934, 38.4923], [141.4961, 38.493], [141.4963, 38.5004], [141.4891, 38.4987], [141.4902, 38.4997], [141.4867, 38.502], [141.4873, 38.5035], [141.4888, 38.5024], [141.4893, 38.5051], [141.4856, 38.5103], [141.473, 38.5182], [141.4672, 38.5134], [141.4621, 38.5126], [141.4668, 38.5155], [141.4695, 38.5213], [141.4832, 38.5199], [141.4857, 38.5161], [141.4939, 38.5116], [141.494, 38.5089], [141.4984, 38.5113], [141.5033, 38.5085], [141.5048, 38.5116], [141.5133, 38.5132], [141.5137, 38.5089], [141.5161, 38.5066], [141.516, 38.5042], [141.5122, 38.5036], [141.5149, 38.5031], [141.5161, 38.5006], [141.5148, 38.4931], [141.517, 38.4923], [141.5231, 38.4959], [141.5252, 38.4947], [141.5238, 38.4896], [141.5269, 38.4905], [141.5291, 38.4882], [141.5339, 38.4903], [141.5351, 38.4873], [141.5357, 38.49], [141.5377, 38.4906], [141.5333, 38.4961], [141.5358, 38.4967], [141.5369, 38.4995], [141.539, 38.4981], [141.5425, 38.5048], [141.539, 38.5027], [141.5366, 38.5079], [141.5337, 38.5093], [141.5392, 38.5114], [141.5381, 38.5151], [141.5406, 38.5185], [141.5481, 38.522], [141.5454, 38.5221], [141.5461, 38.5246], [141.5418, 38.5253], [141.5418, 38.5274], [141.54, 38.5269], [141.5377, 38.5303], [141.5388, 38.532], [141.5357, 38.5317], [141.5368, 38.5334], [141.5326, 38.532], [141.5304, 38.5331], [141.5318, 38.5394], [141.5345, 38.5411], [141.5346, 38.5472], [141.5325, 38.5467], [141.5322, 38.5491], [141.5278, 38.5465], [141.526, 38.5472], [141.5202, 38.5396], [141.5166, 38.5404], [141.5152, 38.5457], [141.5078, 38.5382], [141.5112, 38.535], [141.5098, 38.5335], [141.5088, 38.5348], [141.5066, 38.5331], [141.5016, 38.5367], [141.4995, 38.5357], [141.4993, 38.5328], [141.4935, 38.5333], [141.4916, 38.5348], [141.4941, 38.5357], [141.4892, 38.5374], [141.4855, 38.542], [141.4882, 38.5548], [141.4834, 38.5541], [141.4798, 38.5593], [141.4781, 38.557], [141.4764, 38.5576], [141.4786, 38.5639], [141.4759, 38.5602], [141.4632, 38.5641], [141.4609, 38.5751], [141.4586, 38.5762], [141.4623, 38.5778], [141.4657, 38.5823], [141.4705, 38.582], [141.4764, 38.5848], [141.4797, 38.5817], [141.4847, 38.5839], [141.4851, 38.5823], [141.4872, 38.5831], [141.4895, 38.5876], [141.4908, 38.5867], [141.4911, 38.589], [141.4939, 38.5892], [141.4917, 38.5906], [141.4949, 38.5921], [141.4946, 38.5895], [141.4988, 38.5917], [141.4988, 38.5906], [141.5003, 38.5939], [141.5042, 38.5942], [141.502, 38.5999], [141.5035, 38.601], [141.5013, 38.601], [141.5021, 38.6036], [141.5082, 38.6006], [141.5083, 38.5982], [141.5108, 38.6016], [141.5085, 38.6042], [141.5098, 38.6029], [141.5106, 38.605], [141.5176, 38.6039], [141.5212, 38.6077], [141.5203, 38.6093], [141.5241, 38.6092], [141.526, 38.6166], [141.5282, 38.618], [141.5266, 38.6199], [141.529, 38.626], [141.5267, 38.627], [141.5304, 38.637], [141.528, 38.638], [141.5242, 38.636], [141.5201, 38.6385], [141.5198, 38.637], [141.5186, 38.6401], [141.5128, 38.6369], [141.51, 38.6368], [141.5097, 38.6393], [141.5078, 38.6393], [141.5055, 38.637], [141.5052, 38.6386], [141.5029, 38.6387], [141.5042, 38.6417], [141.5008, 38.6404], [141.4972, 38.6415], [141.4974, 38.6453], [141.4918, 38.6421], [141.4883, 38.6448], [141.4841, 38.6416], [141.4771, 38.6457], [141.4706, 38.6447], [141.4644, 38.6479], [141.4623, 38.6465], [141.4615, 38.6417], [141.4591, 38.6421], [141.4579, 38.6398], [141.4568, 38.6428], [141.4524, 38.6447], [141.4508, 38.6432], [141.443, 38.6434], [141.4405, 38.6468], [141.4428, 38.6472], [141.4433, 38.6509], [141.4503, 38.6576], [141.4461, 38.6626], [141.4468, 38.6687], [141.4435, 38.6735], [141.4473, 38.6722], [141.448, 38.6741], [141.448, 38.6722], [141.451, 38.6715], [141.4487, 38.6721], [141.4487, 38.6739], [141.4521, 38.6745], [141.4514, 38.672], [141.4525, 38.6745], [141.458, 38.6704], [141.4562, 38.6701], [141.4612, 38.6701], [141.4624, 38.6663], [141.4633, 38.6679], [141.4613, 38.6701], [141.4654, 38.6713], [141.4647, 38.674], [141.4676, 38.6735], [141.4661, 38.671], [141.4747, 38.68], [141.4783, 38.6773], [141.4807, 38.6776], [141.4815, 38.6741], [141.4837, 38.676], [141.4873, 38.6758], [141.4883, 38.6781], [141.4899, 38.6762], [141.4882, 38.6757], [141.4923, 38.6764], [141.4938, 38.6734], [141.4971, 38.6804], [141.4898, 38.6898], [141.4924, 38.691], [141.4929, 38.6894], [141.4971, 38.6897], [141.4996, 38.6958], [141.5005, 38.6895], [141.5061, 38.6909], [141.5101, 38.6847], [141.5109, 38.6878], [141.5132, 38.6869], [141.5187, 38.6932], [141.5174, 38.6981], [141.5201, 38.6998], [141.5218, 38.699], [141.5201, 38.7021], [141.5226, 38.7023], [141.5218, 38.7041], [141.5241, 38.7052], [141.5202, 38.708], [141.5238, 38.7102], [141.5265, 38.7087], [141.5248, 38.7141], [141.5218, 38.7159], [141.5239, 38.7166], [141.5244, 38.7154], [141.5288, 38.7181], [141.536, 38.7108], [141.5346, 38.709], [141.5365, 38.7051], [141.5378, 38.7092], [141.5409, 38.7089], [141.5413, 38.7064], [141.5452, 38.7112], [141.5539, 38.7084], [141.5573, 38.7056], [141.5555, 38.705], [141.5581, 38.7044], [141.5549, 38.7036], [141.5591, 38.701], [141.5544, 38.6979], [141.5541, 38.6954], [141.5597, 38.6897], [141.562, 38.6913], [141.5599, 38.6955], [141.5644, 38.6978], [141.5652, 38.7004], [141.5628, 38.7035], [141.5661, 38.7057], [141.5664, 38.711], [141.5588, 38.7148], [141.5601, 38.715], [141.5568, 38.7195], [141.5585, 38.72], [141.5582, 38.7224], [141.56, 38.7221], [141.5585, 38.724], [141.5619, 38.723], [141.5634, 38.7252], [141.5666, 38.7258], [141.5653, 38.7292], [141.5612, 38.7304], [141.5654, 38.7331], [141.5656, 38.7398], [141.561, 38.7395], [141.5594, 38.7373], [141.553, 38.7389], [141.5518, 38.7358], [141.5458, 38.7336], [141.5439, 38.7358], [141.5479, 38.7359], [141.5472, 38.7403], [141.5453, 38.7411], [141.5444, 38.7392], [141.5429, 38.7405], [141.5409, 38.7395], [141.5391, 38.7422], [141.5356, 38.74], [141.5362, 38.7432], [141.5407, 38.7439], [141.5398, 38.7475], [141.538, 38.7495], [141.5347, 38.7471], [141.5331, 38.7501], [141.5302, 38.7483], [141.5296, 38.751], [141.5319, 38.7502], [141.5325, 38.7518], [141.5286, 38.7521], [141.5274, 38.7539], [141.5305, 38.7526], [141.5282, 38.7549], [141.5287, 38.7572], [141.5269, 38.7573], [141.529, 38.759], [141.5238, 38.7607], [141.5196, 38.76], [141.5215, 38.7636], [141.516, 38.7652], [141.5154, 38.7681], [141.5207, 38.7888], [141.5233, 38.7906], [141.528, 38.7907], [141.5294, 38.7943], [141.5345, 38.7946], [141.5391, 38.7982], [141.5431, 38.7961], [141.5462, 38.8005], [141.5464, 38.7987], [141.5478, 38.7997], [141.5502, 38.7982], [141.5513, 38.8021], [141.555, 38.8006], [141.5559, 38.8024], [141.5574, 38.8017], [141.5585, 38.8032], [141.5563, 38.8042], [141.5585, 38.8084], [141.5569, 38.8063], [141.5546, 38.8073], [141.5588, 38.8123], [141.5681, 38.8133], [141.5718, 38.8075], [141.5724, 38.8103], [141.5784, 38.8133], [141.5765, 38.8171], [141.5751, 38.8157], [141.5746, 38.8188], [141.5777, 38.8231], [141.5864, 38.8245], [141.5897, 38.8233], [141.5877, 38.8227], [141.5906, 38.8209], [141.592, 38.8255], [141.5964, 38.8294], [141.6036, 38.8276], [141.6044, 38.8311], [141.6027, 38.8303], [141.6022, 38.8327], [141.5964, 38.8368], [141.5958, 38.8348], [141.594, 38.8357], [141.5957, 38.8342], [141.5906, 38.8343], [141.5931, 38.8358], [141.5905, 38.8355], [141.5868, 38.8465], [141.5864, 38.8451], [141.5831, 38.8484], [141.5832, 38.8567], [141.5847, 38.8564], [141.5867, 38.8579], [141.5834, 38.8567], [141.5858, 38.8582], [141.5854, 38.867], [141.592, 38.8698], [141.5879, 38.8719], [141.5899, 38.8732], [141.5875, 38.8736], [141.5913, 38.8792], [141.5902, 38.8855], [141.5827, 38.8892], [141.5933, 38.885], [141.5942, 38.8885], [141.5854, 38.8935], [141.5794, 38.901], [141.5796, 38.9049], [141.575, 38.9062], [141.5777, 38.9074], [141.5812, 38.9065], [141.5818, 38.9102], [141.5845, 38.9092], [141.5867, 38.9112], [141.5876, 38.8976], [141.5877, 38.899], [141.5896, 38.8968], [141.5877, 38.8973], [141.5881, 38.8946], [141.5965, 38.8929], [141.5973, 38.8939], [141.602, 38.8839], [141.6036, 38.8856], [141.6035, 38.8831], [141.6019, 38.8834], [141.6046, 38.8799], [141.6083, 38.8801], [141.6116, 38.8866], [141.6127, 38.8814], [141.6149, 38.8817], [141.6147, 38.8879], [141.6207, 38.8901], [141.621, 38.8928], [141.6287, 38.8927], [141.6308, 38.8909], [141.6301, 38.8941], [141.6243, 38.8952], [141.6233, 38.8998], [141.6292, 38.8955], [141.632, 38.8988], [141.6309, 38.9015], [141.6383, 38.9023], [141.6343, 38.8998], [141.6331, 38.8961], [141.6372, 38.8937], [141.6351, 38.8913], [141.636, 38.8888], [141.6414, 38.8899], [141.6367, 38.8851], [141.6415, 38.8839], [141.6423, 38.8822], [141.645, 38.8843], [141.6429, 38.8784], [141.6483, 38.8796], [141.6462, 38.876], [141.6511, 38.8732], [141.6505, 38.8719], [141.6495, 38.8726], [141.6499, 38.87], [141.6549, 38.8664], [141.6578, 38.8664], [141.6563, 38.8627], [141.6606, 38.8615], [141.6618, 38.8637], [141.6667, 38.8611], [141.6692, 38.8621], [141.6683, 38.86], [141.671, 38.8599], [141.6729, 38.8567], [141.6746, 38.8582], [141.6733, 38.8602], [141.6753, 38.8635], [141.6729, 38.8656], [141.6734, 38.8679], [141.6686, 38.87], [141.671, 38.8739], [141.6669, 38.8754], [141.6672, 38.8774], [141.6639, 38.8785], [141.6645, 38.8811], [141.6626, 38.8819], [141.6652, 38.8833], [141.6625, 38.8888], [141.6649, 38.8906], [141.6684, 38.889], [141.6672, 38.8927], [141.6632, 38.8924], [141.6653, 38.8956], [141.6638, 38.8975], [141.6604, 38.8963], [141.658, 38.8998], [141.6513, 38.9023], [141.6548, 38.9071], [141.6524, 38.9071], [141.6522, 38.9092], [141.6493, 38.9089], [141.6477, 38.911], [141.6511, 38.9126], [141.6505, 38.9166], [141.6529, 38.9193], [141.6487, 38.9206], [141.6487, 38.923], [141.6447, 38.9227], [141.6449, 38.9259], [141.6423, 38.9285], [141.6389, 38.9272], [141.6344, 38.9301], [141.6431, 38.9329], [141.6427, 38.9402], [141.6483, 38.9421], [141.6398, 38.9424], [141.64, 38.946], [141.6374, 38.9469], [141.6391, 38.9494], [141.6366, 38.9488], [141.6368, 38.9511], [141.6355, 38.9522], [141.6342, 38.9506], [141.632, 38.9535], [141.6325, 38.9583], [141.6411, 38.9542], [141.6441, 38.9553], [141.6418, 38.9562], [141.642, 38.9589], [141.6372, 38.9646], [141.6378, 38.9626], [141.6322, 38.9635], [141.6334, 38.9654], [141.6352, 38.9647], [141.6338, 38.9692], [141.6243, 38.9713], [141.6045, 38.9854], [141.5868, 38.9887], [141.575, 38.987], [141.5672, 38.9959], [141.5599, 38.994], [141.5562, 38.9961], [141.554, 38.9949], [141.5483, 38.9963], [141.5368, 38.9954], [141.5228, 38.9914], [141.5165, 38.9982], [141.5175, 39.0018], [141.5088, 39.0029], [141.5067, 38.9999], [141.4902, 38.998], [141.486, 38.9903], [141.4838, 38.9783], [141.4862, 38.9714], [141.4899, 38.9685], [141.4899, 38.9574], [141.4943, 38.955], [141.4899, 38.9503], [141.491, 38.944], [141.4851, 38.9357], [141.4852, 38.9323], [141.4916, 38.9217], [141.4891, 38.9173], [141.4926, 38.9144], [141.489, 38.9071], [141.4829, 38.9024], [141.4724, 38.8975], [141.4704, 38.8949], [141.4666, 38.8945], [141.4655, 38.8918], [141.4673, 38.8887], [141.4651, 38.8848], [141.4547, 38.8797], [141.4508, 38.8759], [141.4541, 38.8656], [141.4523, 38.862], [141.4659, 38.8568], [141.4639, 38.8532], [141.4544, 38.8472], [141.4501, 38.838], [141.4543, 38.8224], [141.4531, 38.8186], [141.4586, 38.8141], [141.4543, 38.811], [141.4512, 38.812], [141.4464, 38.8106], [141.4383, 38.8127], [141.4341, 38.8113], [141.4315, 38.8123], [141.4295, 38.8107], [141.4311, 38.8066], [141.4332, 38.8077], [141.4363, 38.8058], [141.4328, 38.7914], [141.4355, 38.7872], [141.4399, 38.786], [141.4377, 38.7823], [141.4302, 38.7831], [141.4297, 38.7812], [141.4212, 38.7798], [141.423, 38.772], [141.4162, 38.7701], [141.4134, 38.7766], [141.4157, 38.7796], [141.4152, 38.7862], [141.4106, 38.7857], [141.4052, 38.7888], [141.3966, 38.7903], [141.3975, 38.7954], [141.3939, 38.8], [141.3898, 38.7986], [141.3867, 38.8001], [141.3789, 38.7961], [141.3712, 38.8075], [141.3658, 38.8095], [141.362, 38.8082], [141.3597, 38.8107], [141.3525, 38.8127], [141.3411, 38.8088], [141.3411, 38.8065], [141.3339, 38.8072], [141.3323, 38.812], [141.3204, 38.8185], [141.3173, 38.8231], [141.3112, 38.8226], [141.3066, 38.8194], [141.3072, 38.8087], [141.3023, 38.8035], [141.3019, 38.799], [141.3041, 38.7977], [141.3046, 38.7935], [141.2968, 38.7936], [141.286, 38.7974], [141.2838, 38.7973], [141.2801, 38.7927], [141.2745, 38.7944], [141.2725, 38.797], [141.2685, 38.7935], [141.2687, 38.7884], [141.263, 38.7877], [141.2635, 38.7801], [141.2586, 38.7765], [141.2559, 38.7716], [141.2574, 38.7614], [141.2542, 38.7595], [141.2528, 38.7611], [141.2477, 38.7604], [141.2479, 38.7585], [141.2409, 38.7579], [141.2412, 38.7558], [141.2356, 38.7564], [141.2307, 38.7543], [141.2287, 38.7527], [141.236, 38.7487], [141.2323, 38.7475], [141.2152, 38.7492], [141.2073, 38.757], [141.2085, 38.7612], [141.2061, 38.7696], [141.2012, 38.7714], [141.1956, 38.777], [141.1864, 38.7798], [141.1808, 38.7847], [141.1788, 38.7823], [141.1734, 38.7813], [141.1729, 38.7784], [141.1707, 38.7793], [141.1682, 38.7774], [141.1634, 38.7822], [141.1606, 38.7817], [141.1502, 38.7859], [141.1455, 38.7847], [141.1383, 38.791], [141.1406, 38.7955], [141.1426, 38.8123], [141.1399, 38.8146], [141.1343, 38.8125], [141.13, 38.8129], [141.1292, 38.8157], [141.1232, 38.8165], [141.1261, 38.8218], [141.1239, 38.8255], [141.1203, 38.8261], [141.1161, 38.8224], [141.109, 38.8251], [141.1046, 38.823], [141.1033, 38.8307], [141.1046, 38.8375], [141.1125, 38.838], [141.1204, 38.8352], [141.125, 38.8367], [141.13, 38.8399], [141.1325, 38.8452], [141.1379, 38.8475], [141.1465, 38.856], [141.1456, 38.8698], [141.14, 38.8776], [141.1357, 38.8768], [141.1292, 38.8794], [141.118, 38.8806], [141.1141, 38.8781], [141.108, 38.8777], [141.1027, 38.8803], [141.1024, 38.8847], [141.0987, 38.8848], [141.0935, 38.8878], [141.0887, 38.8836], [141.085, 38.8839], [141.0747, 38.8795], [141.0715, 38.8818], [141.0616, 38.8839], [141.0574, 38.8821], [141.0519, 38.8832], [141.0457, 38.88], [141.0434, 38.8766], [141.037, 38.8768], [141.0329, 38.8779], [141.0298, 38.8835], [141.0219, 38.8816], [141.021, 38.8867], [141.0166, 38.8851], [141.0133, 38.8811], [141.0094, 38.8815], [141.0049, 38.8787], [141.0008, 38.8816], [140.9954, 38.8803], [140.994, 38.877], [140.9897, 38.8743], [140.9857, 38.8753], [140.9804, 38.8834], [140.9703, 38.8881], [140.9726, 38.8908], [140.9709, 38.8947], [140.9679, 38.8964], [140.9658, 38.9011], [140.962, 38.9023], [140.9617, 38.9059], [140.9576, 38.9083], [140.9507, 38.9096], [140.9495, 38.9114], [140.9468, 38.9104], [140.9436, 38.9149], [140.9397, 38.9163], [140.9347, 38.9151], [140.9308, 38.9177], [140.9315, 38.9203], [140.9263, 38.9216], [140.9222, 38.9186], [140.922, 38.9144], [140.9203, 38.9163], [140.9142, 38.9168], [140.9151, 38.9204], [140.9129, 38.9206], [140.9129, 38.9251], [140.9104, 38.9275], [140.9036, 38.9291], [140.8939, 38.9275], [140.8872, 38.9289], [140.8848, 38.9274], [140.8816, 38.9279], [140.8646, 38.9414], [140.8421, 38.9492], [140.8376, 38.9577], [140.8247, 38.9644], [140.8108, 38.9643], [140.8007, 38.9619], [140.7938, 38.964], [140.7819, 38.9586], [140.7767, 38.9592], [140.7644, 38.9568], [140.7586, 38.9582], [140.7451, 38.956], [140.7313, 38.949], [140.7266, 38.944], [140.727, 38.9407], [140.7229, 38.9366], [140.7226, 38.9336], [140.7161, 38.9274], [140.7124, 38.9269], [140.7118, 38.9238], [140.7084, 38.9233], [140.7074, 38.9205], [140.7034, 38.9207], [140.7003, 38.9241], [140.6928, 38.9192], [140.686, 38.9177], [140.6802, 38.9129], [140.677, 38.9057], [140.673, 38.9034], [140.6709, 38.8969], [140.6534, 38.8914], [140.6526, 38.8885], [140.6449, 38.8883], [140.6404, 38.8835], [140.6372, 38.8829], [140.6346, 38.8868], [140.6295, 38.8892], [140.6209, 38.8903], [140.6138, 38.8941], [140.6099, 38.8927], [140.6064, 38.8867], [140.5974, 38.885], [140.59, 38.8893], [140.5899, 38.8859], [140.5863, 38.8839], [140.5852, 38.8804], [140.5792, 38.8809], [140.5722, 38.8781], [140.5697, 38.8747], [140.5623, 38.8736], [140.5547, 38.876], [140.5534, 38.8826], [140.5469, 38.8888], [140.5455, 38.8857], [140.5472, 38.8808], [140.5435, 38.8765], [140.5411, 38.8763], [140.5388, 38.8714], [140.5402, 38.8621], [140.5532, 38.859], [140.5564, 38.8555], [140.5589, 38.8474], [140.5663, 38.8481], [140.5736, 38.8426], [140.5823, 38.8405], [140.5862, 38.8366], [140.5906, 38.8364], [140.5929, 38.8277], [140.5988, 38.8253], [140.5994, 38.8176], [140.5954, 38.8128], [140.5977, 38.8086], [140.5957, 38.8023], [140.5989, 38.7997], [140.5991, 38.7919], [140.6033, 38.789], [140.6034, 38.7838], [140.6104, 38.7827], [140.6153, 38.7777], [140.6274, 38.774], [140.636, 38.7776], [140.6397, 38.7767], [140.6467, 38.7692], [140.6431, 38.7648], [140.6348, 38.7607], [140.6314, 38.7474], [140.6207, 38.739], [140.6219, 38.7372], [140.62, 38.7302], [140.6071, 38.7222], [140.6092, 38.7094], [140.6058, 38.7035], [140.6231, 38.7003], [140.6206, 38.6964], [140.6245, 38.6872], [140.6213, 38.685], [140.6193, 38.6736], [140.6142, 38.6691], [140.6121, 38.6639], [140.6135, 38.6618], [140.6095, 38.6606], [140.6061, 38.6556], [140.6043, 38.6509], [140.6057, 38.6489], [140.6008, 38.6395], [140.5969, 38.6392], [140.5882, 38.6339], [140.5794, 38.6359], [140.5757, 38.6393], [140.5733, 38.6377], [140.5694, 38.6382], [140.5628, 38.6481], [140.5545, 38.6473], [140.5547, 38.6461], [140.5458, 38.6493], [140.5374, 38.6356], [140.5537, 38.6122], [140.5618, 38.6077], [140.5616, 38.6048], [140.5583, 38.6027], [140.5585, 38.5978], [140.5693, 38.5941], [140.5683, 38.5893], [140.5729, 38.5852], [140.573, 38.5775], [140.5752, 38.5718], [140.5783, 38.5704], [140.5783, 38.5678], [140.5664, 38.5603], [140.5699, 38.5561], [140.5641, 38.5457], [140.5542, 38.5414], [140.5558, 38.5299], [140.5622, 38.5267], [140.5677, 38.5277], [140.5716, 38.5257], [140.5677, 38.5205], [140.5698, 38.5151], [140.5634, 38.5107], [140.5692, 38.5056], [140.5671, 38.5014], [140.5733, 38.4972], [140.5738, 38.4949], [140.5974, 38.4875], [140.599, 38.4848], [140.6043, 38.4823], [140.6027, 38.4788], [140.6079, 38.47], [140.6063, 38.4632], [140.6079, 38.4582], [140.6203, 38.4567], [140.6194, 38.4547], [140.6135, 38.4536], [140.6084, 38.4452], [140.604, 38.4438], [140.5972, 38.4374], [140.5924, 38.4417], [140.5905, 38.4392], [140.5836, 38.4398], [140.5806, 38.4371], [140.5823, 38.4341], [140.5795, 38.4232], [140.5713, 38.4137], [140.5747, 38.3966], [140.5767, 38.3956]]], [[[141.4218, 38.3026], [141.4203, 38.3032], [141.4217, 38.3052], [141.4197, 38.3059], [141.4223, 38.3065], [141.4216, 38.3095], [141.4155, 38.3123], [141.4091, 38.3049], [141.4125, 38.2993], [141.4062, 38.2903], [141.4085, 38.285], [141.4171, 38.289], [141.4204, 38.2877], [141.4241, 38.2917], [141.4291, 38.292], [141.4294, 38.2944], [141.4269, 38.2962], [141.4283, 38.2942], [141.4241, 38.2943], [141.4237, 38.2962], [141.4262, 38.2961], [141.4231, 38.2979], [141.4218, 38.3026]]], [[[141.4353, 38.2913], [141.4332, 38.2898], [141.4363, 38.2878], [141.4353, 38.2913]]], [[[141.4215, 38.3809], [141.4172, 38.3769], [141.4201, 38.3762], [141.4213, 38.3775], [141.4234, 38.3761], [141.427, 38.38], [141.4215, 38.3809]]], [[[141.3782, 38.3831], [141.3757, 38.3813], [141.3784, 38.3812], [141.3782, 38.3831]]], [[[141.514, 38.5561], [141.5103, 38.5496], [141.5162, 38.5547], [141.514, 38.5561]]], [[[141.5688, 38.3138], [141.5519, 38.3064], [141.5479, 38.3032], [141.5477, 38.3006], [141.5515, 38.2952], [141.5499, 38.294], [141.5519, 38.2932], [141.553, 38.2865], [141.5577, 38.282], [141.5682, 38.2764], [141.573, 38.2717], [141.5724, 38.2701], [141.5766, 38.2688], [141.5777, 38.2718], [141.5862, 38.2774], [141.5813, 38.2801], [141.5837, 38.281], [141.5836, 38.2833], [141.5794, 38.2868], [141.5898, 38.3017], [141.5812, 38.3058], [141.5682, 38.3084], [141.5715, 38.3122], [141.5688, 38.3138]]], [[[141.487, 38.2687], [141.4874, 38.2705], [141.4821, 38.2754], [141.4824, 38.2775], [141.4753, 38.2804], [141.4752, 38.2818], [141.4704, 38.2837], [141.4667, 38.2804], [141.4616, 38.2837], [141.4601, 38.2827], [141.4631, 38.2763], [141.4614, 38.2741], [141.4596, 38.2744], [141.4598, 38.2763], [141.4595, 38.2744], [141.4565, 38.2737], [141.4596, 38.2729], [141.4572, 38.268], [141.4666, 38.2686], [141.4645, 38.2653], [141.4681, 38.2667], [141.4722, 38.2637], [141.4715, 38.2607], [141.4734, 38.2605], [141.4752, 38.256], [141.474, 38.2551], [141.4789, 38.2502], [141.4814, 38.2517], [141.4841, 38.2498], [141.4881, 38.251], [141.49, 38.2491], [141.4944, 38.251], [141.4975, 38.2466], [141.5015, 38.246], [141.4967, 38.251], [141.4991, 38.2571], [141.4962, 38.2585], [141.4973, 38.2575], [141.495, 38.2554], [141.4931, 38.2597], [141.4897, 38.2597], [141.4904, 38.2641], [141.487, 38.2687]]], [[[141.5298, 38.3598], [141.5295, 38.3574], [141.5316, 38.3584], [141.5298, 38.3598]]], [[[141.5272, 38.358], [141.5249, 38.3571], [141.5268, 38.3564], [141.5272, 38.358]]], [[[141.4761, 38.303], [141.4751, 38.3008], [141.4767, 38.301], [141.4761, 38.303]]], [[[141.6305, 38.8401], [141.6337, 38.8382], [141.6374, 38.8396], [141.6331, 38.8459], [141.6363, 38.8483], [141.6275, 38.848], [141.6231, 38.8507], [141.623, 38.8538], [141.6265, 38.8549], [141.6261, 38.8533], [141.6277, 38.8561], [141.6224, 38.8587], [141.6221, 38.861], [141.6248, 38.8639], [141.6283, 38.8644], [141.6301, 38.863], [141.6326, 38.8649], [141.6344, 38.8674], [141.6313, 38.872], [141.6346, 38.8744], [141.6297, 38.8792], [141.6277, 38.8784], [141.6276, 38.8828], [141.6249, 38.8833], [141.6241, 38.8855], [141.6186, 38.8789], [141.6053, 38.8777], [141.6014, 38.8738], [141.6059, 38.8677], [141.6128, 38.8654], [141.6128, 38.8642], [141.6066, 38.865], [141.6046, 38.8605], [141.6065, 38.8554], [141.6137, 38.8491], [141.6135, 38.847], [141.6104, 38.8476], [141.6174, 38.8416], [141.6156, 38.8386], [141.6197, 38.8377], [141.6206, 38.835], [141.6233, 38.835], [141.624, 38.8303], [141.6266, 38.8376], [141.6305, 38.8401]]], [[[141.6416, 38.8453], [141.6402, 38.8442], [141.6429, 38.8412], [141.6441, 38.843], [141.6416, 38.8453]]], [[[141.6388, 38.8518], [141.6373, 38.8501], [141.6398, 38.8486], [141.6388, 38.8518]]], [[[141.1354, 38.3474], [141.134, 38.3476], [141.138, 38.3435], [141.1354, 38.3474]]], [[[141.1585, 38.3209], [141.1549, 38.3211], [141.155, 38.3184], [141.1611, 38.3166], [141.1585, 38.3209]]], [[[141.1875, 38.3158], [141.1865, 38.3171], [141.185, 38.3152], [141.1875, 38.3158]]], [[[141.0767, 38.3642], [141.0755, 38.3654], [141.0748, 38.3636], [141.077, 38.3622], [141.0784, 38.3631], [141.0775, 38.3651], [141.0767, 38.3642]]], [[[141.0796, 38.3667], [141.0818, 38.3642], [141.0849, 38.3643], [141.0851, 38.3633], [141.0881, 38.3647], [141.0873, 38.3657], [141.0862, 38.3645], [141.0828, 38.3647], [141.0796, 38.3667]]], [[[141.5308, 38.4491], [141.5293, 38.4505], [141.5324, 38.4546], [141.5282, 38.4548], [141.5268, 38.4525], [141.5245, 38.4537], [141.5267, 38.4559], [141.5261, 38.4596], [141.5232, 38.4608], [141.5225, 38.4641], [141.5159, 38.4653], [141.5151, 38.4624], [141.5174, 38.4611], [141.5162, 38.4571], [141.5185, 38.4577], [141.5203, 38.454], [141.5179, 38.4541], [141.5163, 38.4521], [141.5177, 38.4511], [141.5157, 38.4506], [141.5184, 38.4488], [141.5185, 38.4429], [141.5215, 38.4415], [141.5203, 38.439], [141.5241, 38.4393], [141.5252, 38.4415], [141.5255, 38.4399], [141.5276, 38.44], [141.5261, 38.4371], [141.5301, 38.4377], [141.5305, 38.4409], [141.5348, 38.4438], [141.5308, 38.4491]]], [[[141.5144, 38.4598], [141.512, 38.4584], [141.5151, 38.4584], [141.5144, 38.4598]]], [[[141.5062, 38.4097], [141.5058, 38.4084], [141.5075, 38.4092], [141.5062, 38.4097]]], [[[141.5939, 38.3999], [141.5909, 38.4011], [141.5894, 38.3973], [141.5932, 38.3957], [141.5993, 38.3977], [141.5964, 38.3997], [141.5965, 38.4027], [141.5943, 38.4005], [141.5916, 38.4027], [141.5939, 38.3999]]], [[[141.6062, 38.3918], [141.6016, 38.3895], [141.6026, 38.3877], [141.6002, 38.3856], [141.6045, 38.3866], [141.6062, 38.3918]]], [[[141.5938, 38.4242], [141.5913, 38.4224], [141.595, 38.4225], [141.5938, 38.4242]]], [[[141.5496, 38.4043], [141.5486, 38.4023], [141.5504, 38.4023], [141.5496, 38.4043]]], [[[141.5539, 38.4049], [141.5539, 38.4064], [141.5513, 38.403], [141.5529, 38.4026], [141.5539, 38.4049]]], [[[141.4895, 38.6528], [141.4871, 38.65], [141.4907, 38.6511], [141.4895, 38.6528]]]]}, "properties": {"name": "宮城県"}}]}