{"type": "FeatureCollection", "features": [{"type": "Feature", "geometry": {"type": "MultiPolygon", "coordinates": [[[[134.5723, 34.0591], [134.5783, 34.0579], [134.5809, 34.0597], [134.5819, 34.0563], [134.5912, 34.054], [134.5884, 34.0552], [134.5905, 34.0564], [134.5943, 34.053], [134.5976, 34.0535], [134.5996, 34.0571], [134.6033, 34.0557], [134.6034, 34.0515], [134.6066, 34.062], [134.5991, 34.0665], [134.6005, 34.0693], [134.5974, 34.0753], [134.5958, 34.0764], [134.5972, 34.073], [134.5954, 34.0754], [134.5942, 34.074], [134.5796, 34.0793], [134.5848, 34.089], [134.6032, 34.0835], [134.607, 34.1002], [134.6014, 34.1031], [134.5984, 34.1113], [134.6008, 34.1074], [134.6094, 34.104], [134.6015, 34.1075], [134.6052, 34.1215], [134.6076, 34.1253], [134.6123, 34.1238], [134.6162, 34.1288], [134.6233, 34.1282], [134.624, 34.131], [134.6205, 34.1324], [134.6218, 34.1372], [134.6175, 34.138], [134.6223, 34.142], [134.6143, 34.1427], [134.6189, 34.1467], [134.6211, 34.1457], [134.619, 34.1467], [134.6348, 34.1664], [134.6421, 34.1802], [134.6402, 34.1822], [134.6245, 34.1807], [134.6191, 34.1857], [134.6159, 34.1841], [134.6175, 34.1864], [134.612, 34.1904], [134.6151, 34.1944], [134.622, 34.1858], [134.6255, 34.1868], [134.6259, 34.2026], [134.6317, 34.2138], [134.6302, 34.2158], [134.638, 34.2246], [134.6364, 34.2274], [134.6415, 34.2347], [134.651, 34.239], [134.6435, 34.2368], [134.6433, 34.2396], [134.637, 34.2367], [134.6357, 34.2345], [134.638, 34.2345], [134.6352, 34.2326], [134.6235, 34.2328], [134.6257, 34.2317], [134.6193, 34.2307], [134.6168, 34.2325], [134.619, 34.2375], [134.615, 34.241], [134.6179, 34.2435], [134.6159, 34.2482], [134.6061, 34.252], [134.5934, 34.2427], [134.588, 34.2302], [134.5862, 34.2324], [134.5904, 34.2377], [134.589, 34.2396], [134.5684, 34.2357], [134.5659, 34.2306], [134.5686, 34.2271], [134.573, 34.2266], [134.5723, 34.2225], [134.5712, 34.2246], [134.5685, 34.2226], [134.5677, 34.2251], [134.5586, 34.2215], [134.5415, 34.2264], [134.5067, 34.2261], [134.4861, 34.2202], [134.4716, 34.2088], [134.4529, 34.2055], [134.4402, 34.2079], [134.4388, 34.1904], [134.4292, 34.1831], [134.4306, 34.179], [134.4339, 34.1781], [134.4334, 34.1684], [134.4255, 34.1657], [134.4194, 34.1576], [134.4129, 34.157], [134.4118, 34.161], [134.4024, 34.168], [134.3946, 34.1636], [134.3852, 34.165], [134.383, 34.172], [134.3756, 34.1718], [134.3584, 34.1843], [134.3514, 34.1855], [134.348, 34.1839], [134.3443, 34.1726], [134.3339, 34.1755], [134.3283, 34.1732], [134.3148, 34.1773], [134.3085, 34.1709], [134.2979, 34.1686], [134.2922, 34.179], [134.2865, 34.1799], [134.2772, 34.1763], [134.2658, 34.1832], [134.2599, 34.1835], [134.2548, 34.1801], [134.2469, 34.1791], [134.2437, 34.181], [134.2287, 34.181], [134.2268, 34.178], [134.2207, 34.18], [134.2045, 34.1728], [134.1986, 34.1756], [134.1951, 34.1719], [134.1864, 34.1724], [134.1774, 34.1766], [134.1737, 34.1754], [134.1738, 34.1774], [134.1636, 34.17], [134.1462, 34.165], [134.1436, 34.1582], [134.1353, 34.1514], [134.1393, 34.1339], [134.1227, 34.1188], [134.1194, 34.1204], [134.1028, 34.115], [134.0936, 34.1147], [134.0794, 34.1211], [134.0707, 34.1128], [134.0615, 34.1112], [134.0575, 34.116], [134.0508, 34.1181], [134.0421, 34.1103], [134.0398, 34.1008], [134.0311, 34.0976], [134.0254, 34.0919], [134.0264, 34.0853], [134.0097, 34.0867], [134.0023, 34.0814], [134.0013, 34.0753], [133.9942, 34.0726], [133.9808, 34.0753], [133.9726, 34.0729], [133.9686, 34.0814], [133.9598, 34.0821], [133.9565, 34.0882], [133.9445, 34.093], [133.9443, 34.1017], [133.9375, 34.108], [133.9396, 34.1149], [133.9312, 34.1156], [133.9218, 34.1143], [133.9115, 34.1044], [133.9038, 34.1007], [133.9006, 34.101], [133.8929, 34.1081], [133.8672, 34.1002], [133.8644, 34.1046], [133.8585, 34.1053], [133.8422, 34.095], [133.8334, 34.0976], [133.8219, 34.092], [133.8235, 34.0861], [133.8187, 34.0798], [133.8201, 34.074], [133.8174, 34.0722], [133.8141, 34.0733], [133.7982, 34.0697], [133.79, 34.0757], [133.7919, 34.0785], [133.7784, 34.0793], [133.7728, 34.0727], [133.7685, 34.0734], [133.7645, 34.0708], [133.7587, 34.0611], [133.7485, 34.0534], [133.7287, 34.0441], [133.7222, 34.0345], [133.7215, 34.0225], [133.7092, 34.0157], [133.7009, 34.0181], [133.6919, 34.0131], [133.6792, 34.0121], [133.6851, 34.0069], [133.6855, 34.0033], [133.6775, 33.9945], [133.6751, 33.9836], [133.6821, 33.9835], [133.6814, 33.9791], [133.6842, 33.9766], [133.6804, 33.9704], [133.6832, 33.9688], [133.6829, 33.9648], [133.6924, 33.9628], [133.6876, 33.9556], [133.6929, 33.9468], [133.6903, 33.9418], [133.6764, 33.9329], [133.6756, 33.9264], [133.6857, 33.9257], [133.6905, 33.9166], [133.6774, 33.9094], [133.6745, 33.9031], [133.6778, 33.893], [133.6617, 33.8855], [133.6629, 33.8705], [133.6667, 33.8661], [133.6733, 33.8643], [133.6773, 33.8586], [133.6948, 33.8564], [133.7013, 33.85], [133.7079, 33.8517], [133.7183, 33.8494], [133.7381, 33.8499], [133.7409, 33.8427], [133.7484, 33.8367], [133.7567, 33.8365], [133.7762, 33.8423], [133.7863, 33.8421], [133.7885, 33.8364], [133.8183, 33.8371], [133.8284, 33.8448], [133.8384, 33.8453], [133.8443, 33.8377], [133.8538, 33.8345], [133.8565, 33.8283], [133.8694, 33.8149], [133.8724, 33.8062], [133.8833, 33.8053], [133.8872, 33.8029], [133.8935, 33.8053], [133.902, 33.7935], [133.9081, 33.795], [133.9133, 33.7902], [133.9193, 33.7978], [133.925, 33.8005], [133.9413, 33.7992], [133.9474, 33.8036], [133.9527, 33.8152], [133.9512, 33.8291], [133.9625, 33.8357], [133.9747, 33.8364], [133.9853, 33.8406], [133.9903, 33.8277], [133.9983, 33.8209], [134.0126, 33.8218], [134.0332, 33.8284], [134.037, 33.8151], [134.0332, 33.8095], [134.0468, 33.799], [134.046, 33.7896], [134.0581, 33.781], [134.0592, 33.7622], [134.0561, 33.7515], [134.0618, 33.7355], [134.0663, 33.7341], [134.0687, 33.729], [134.0653, 33.7199], [134.0704, 33.712], [134.0657, 33.7088], [134.065, 33.6983], [134.0567, 33.6941], [134.0583, 33.691], [134.0673, 33.6887], [134.0999, 33.6949], [134.1227, 33.6962], [134.1333, 33.6938], [134.1478, 33.6859], [134.1636, 33.6882], [134.1748, 33.6844], [134.1762, 33.6763], [134.1688, 33.6706], [134.1753, 33.6615], [134.1715, 33.6578], [134.1843, 33.6486], [134.1704, 33.6417], [134.1637, 33.6351], [134.1522, 33.6317], [134.1495, 33.6271], [134.1549, 33.6231], [134.1522, 33.6173], [134.1559, 33.6116], [134.1611, 33.6127], [134.176, 33.6075], [134.1699, 33.6016], [134.1706, 33.5969], [134.1847, 33.5893], [134.1887, 33.5814], [134.1879, 33.5758], [134.1924, 33.5742], [134.1956, 33.5686], [134.1933, 33.5616], [134.2013, 33.5621], [134.2178, 33.5681], [134.2376, 33.5521], [134.2413, 33.5563], [134.2494, 33.5526], [134.2586, 33.5535], [134.2624, 33.5569], [134.2703, 33.5549], [134.2737, 33.5607], [134.2817, 33.5613], [134.296, 33.5576], [134.2964, 33.553], [134.3007, 33.5553], [134.3066, 33.5537], [134.3053, 33.5489], [134.3088, 33.5497], [134.3078, 33.547], [134.3129, 33.5454], [134.3163, 33.547], [134.3186, 33.5453], [134.3161, 33.5452], [134.317, 33.5416], [134.3238, 33.54], [134.3207, 33.5464], [134.3136, 33.5496], [134.32, 33.5556], [134.3165, 33.5558], [134.318, 33.5569], [134.315, 33.5586], [134.3127, 33.5562], [134.3127, 33.5622], [134.3086, 33.561], [134.3121, 33.5625], [134.3085, 33.5625], [134.3078, 33.5666], [134.3115, 33.577], [134.3191, 33.5777], [134.3171, 33.5808], [134.3216, 33.5827], [134.3239, 33.5806], [134.3294, 33.5822], [134.3388, 33.578], [134.3637, 33.5803], [134.3494, 33.5839], [134.3337, 33.5813], [134.3322, 33.584], [134.3639, 33.5885], [134.3646, 33.5914], [134.3597, 33.5928], [134.3649, 33.5919], [134.3616, 33.595], [134.3651, 33.6031], [134.3731, 33.6101], [134.383, 33.6144], [134.3849, 33.6199], [134.3886, 33.6185], [134.3895, 33.6215], [134.3818, 33.6263], [134.3758, 33.6236], [134.3677, 33.6262], [134.3645, 33.6242], [134.3623, 33.6281], [134.3637, 33.6289], [134.3635, 33.6286], [134.3635, 33.6279], [134.3636, 33.6287], [134.3667, 33.6293], [134.3675, 33.627], [134.3668, 33.6293], [134.3646, 33.6324], [134.3701, 33.6298], [134.3682, 33.6325], [134.3705, 33.6346], [134.3744, 33.6332], [134.3736, 33.6313], [134.3771, 33.633], [134.3782, 33.639], [134.3853, 33.6415], [134.3877, 33.6471], [134.3922, 33.6479], [134.3893, 33.6505], [134.3963, 33.6502], [134.3972, 33.6569], [134.4, 33.6552], [134.4032, 33.6601], [134.4101, 33.6543], [134.4173, 33.6566], [134.4163, 33.6602], [134.4207, 33.6619], [134.4175, 33.6625], [134.4179, 33.6647], [134.4221, 33.6651], [134.4203, 33.6678], [134.4224, 33.6681], [134.4226, 33.6641], [134.4232, 33.6659], [134.4262, 33.6648], [134.4219, 33.6629], [134.4249, 33.6636], [134.4256, 33.6606], [134.4294, 33.6638], [134.439, 33.6632], [134.4418, 33.6659], [134.4417, 33.6634], [134.4475, 33.6709], [134.4529, 33.6712], [134.4568, 33.6751], [134.4648, 33.6774], [134.4658, 33.6802], [134.4869, 33.687], [134.4891, 33.6886], [134.4869, 33.6906], [134.492, 33.6909], [134.4913, 33.6933], [134.4985, 33.6956], [134.5026, 33.6943], [134.5045, 33.6992], [134.5084, 33.6977], [134.5144, 33.7024], [134.5168, 33.7014], [134.5165, 33.7055], [134.5263, 33.7079], [134.535, 33.7155], [134.5433, 33.719], [134.5417, 33.7234], [134.5445, 33.7249], [134.5407, 33.7274], [134.5421, 33.7301], [134.5361, 33.731], [134.5344, 33.7275], [134.5339, 33.7328], [134.5426, 33.7306], [134.5429, 33.7362], [134.5464, 33.7379], [134.5513, 33.7354], [134.5532, 33.7418], [134.5564, 33.7413], [134.5577, 33.7377], [134.5547, 33.7341], [134.5613, 33.7351], [134.5638, 33.732], [134.5668, 33.7326], [134.567, 33.7416], [134.5709, 33.7439], [134.5725, 33.7523], [134.5754, 33.7538], [134.5718, 33.7572], [134.573, 33.7595], [134.5698, 33.7602], [134.5714, 33.7669], [134.5741, 33.7652], [134.5725, 33.7641], [134.5804, 33.762], [134.5807, 33.7707], [134.5844, 33.7718], [134.5863, 33.7678], [134.5917, 33.7679], [134.5931, 33.7731], [134.5926, 33.768], [134.5959, 33.7647], [134.6019, 33.7638], [134.6018, 33.7718], [134.6111, 33.7756], [134.6088, 33.7805], [134.6137, 33.7824], [134.6173, 33.7804], [134.6198, 33.7867], [134.6322, 33.7848], [134.636, 33.7865], [134.6412, 33.7806], [134.6408, 33.7894], [134.65, 33.7892], [134.6689, 33.8019], [134.6757, 33.8022], [134.6831, 33.8064], [134.6895, 33.8059], [134.6958, 33.8127], [134.7184, 33.8203], [134.7217, 33.824], [134.7294, 33.8241], [134.7503, 33.8345], [134.7434, 33.8373], [134.7452, 33.8407], [134.7426, 33.8424], [134.7384, 33.8397], [134.7321, 33.84], [134.7189, 33.8313], [134.7158, 33.8365], [134.7112, 33.8344], [134.7003, 33.8365], [134.6987, 33.8329], [134.6948, 33.8318], [134.6911, 33.8336], [134.6792, 33.8309], [134.6789, 33.8341], [134.6843, 33.834], [134.6881, 33.8388], [134.6914, 33.8384], [134.6965, 33.8426], [134.7005, 33.8412], [134.7207, 33.8452], [134.7176, 33.8485], [134.7095, 33.8508], [134.7044, 33.8484], [134.6973, 33.8506], [134.6913, 33.8484], [134.6919, 33.8539], [134.6768, 33.8842], [134.6779, 33.888], [134.684, 33.8916], [134.688, 33.901], [134.6923, 33.9011], [134.6907, 33.9021], [134.6931, 33.9038], [134.6925, 33.9005], [134.6988, 33.9062], [134.6979, 33.9096], [134.7031, 33.9138], [134.6992, 33.9171], [134.7017, 33.9219], [134.7066, 33.9257], [134.7114, 33.9245], [134.7049, 33.9315], [134.7111, 33.931], [134.7032, 33.9333], [134.6993, 33.9519], [134.6933, 33.9517], [134.6822, 33.9594], [134.6683, 33.9621], [134.6623, 33.9714], [134.6617, 33.9679], [134.6593, 33.9687], [134.6619, 33.9719], [134.6532, 33.9831], [134.649, 33.9972], [134.6392, 34.0078], [134.632, 34.0114], [134.626, 34.009], [134.6253, 34.0028], [134.6295, 34.0034], [134.631, 34.0006], [134.6284, 34], [134.6328, 33.9984], [134.6285, 33.9998], [134.6299, 33.9964], [134.6345, 33.9934], [134.6257, 33.9968], [134.6269, 33.991], [134.6224, 33.9952], [134.617, 33.9913], [134.6106, 33.9909], [134.609, 33.9921], [134.6143, 33.9968], [134.6127, 33.998], [134.6068, 33.9961], [134.5986, 34], [134.5993, 34.0037], [134.5962, 34.0055], [134.5998, 34.0138], [134.5982, 34.0167], [134.6008, 34.0187], [134.5979, 34.0197], [134.5986, 34.0229], [134.5883, 34.0293], [134.5893, 34.0321], [134.5962, 34.0328], [134.5959, 34.035], [134.5883, 34.0343], [134.5849, 34.0384], [134.5845, 34.0361], [134.5772, 34.0343], [134.5786, 34.0365], [134.5712, 34.0391], [134.5746, 34.0404], [134.5694, 34.0416], [134.5727, 34.0434], [134.5786, 34.0414], [134.5795, 34.0435], [134.5792, 34.0412], [134.5888, 34.0384], [134.5918, 34.0389], [134.5941, 34.0434], [134.5918, 34.039], [134.5888, 34.0385], [134.591, 34.0446], [134.5879, 34.0454], [134.5893, 34.0492], [134.5919, 34.0488], [134.5907, 34.0453], [134.5936, 34.0439], [134.5961, 34.0493], [134.5846, 34.0534], [134.5736, 34.0533], [134.5768, 34.0559], [134.5723, 34.0591]]], [[[134.7119, 33.857], [134.7098, 33.8578], [134.7097, 33.8527], [134.7148, 33.8555], [134.7149, 33.8573], [134.7119, 33.857]]], [[[134.7427, 33.8523], [134.7288, 33.8475], [134.7411, 33.8494], [134.7427, 33.8523]]], [[[134.821, 33.8564], [134.8185, 33.8574], [134.812, 33.851], [134.807, 33.8516], [134.8101, 33.8501], [134.8046, 33.8433], [134.802, 33.8428], [134.7972, 33.8486], [134.7916, 33.8467], [134.7973, 33.8459], [134.8026, 33.8392], [134.8058, 33.8407], [134.8052, 33.8435], [134.8107, 33.8394], [134.8191, 33.8435], [134.8161, 33.8464], [134.8208, 33.8492], [134.821, 33.8564]]], [[[134.4857, 33.6454], [134.4821, 33.6403], [134.4876, 33.6355], [134.4806, 33.6366], [134.4817, 33.6332], [134.4968, 33.6297], [134.5058, 33.641], [134.5006, 33.6403], [134.4993, 33.6376], [134.4857, 33.6454]]], [[[134.4222, 33.638], [134.4216, 33.6309], [134.4255, 33.6292], [134.4264, 33.6367], [134.4222, 33.638]]], [[[134.4513, 33.6411], [134.4446, 33.6389], [134.4487, 33.6367], [134.4513, 33.6411]]], [[[134.5928, 33.7631], [134.5902, 33.761], [134.5912, 33.7583], [134.5936, 33.7589], [134.5928, 33.7631]]], [[[134.3679, 33.5895], [134.3659, 33.5882], [134.3689, 33.5881], [134.3679, 33.5895]]], [[[134.3187, 33.5593], [134.3168, 33.5592], [134.3208, 33.559], [134.3187, 33.5593]]]]}, "properties": {"name": "徳島県"}}]}