{"type": "FeatureCollection", "features": [{"type": "Feature", "geometry": {"type": "Polygon", "coordinates": [[[139.4257, 36.3238], [139.4241, 36.3234], [139.4226, 36.326], [139.4226, 36.3232], [139.4208, 36.3227], [139.42, 36.3243], [139.421, 36.3248], [139.4191, 36.3272], [139.418, 36.3271], [139.4176, 36.3256], [139.4164, 36.327], [139.4155, 36.3268], [139.4142, 36.3252], [139.4148, 36.3241], [139.4165, 36.3238], [139.4157, 36.3225], [139.4187, 36.3216], [139.4156, 36.3199], [139.4152, 36.3183], [139.417, 36.3171], [139.4156, 36.3162], [139.4169, 36.3148], [139.4162, 36.3143], [139.4171, 36.3131], [139.4196, 36.3131], [139.4223, 36.3082], [139.425, 36.3075], [139.4262, 36.3081], [139.4301, 36.3056], [139.4277, 36.3053], [139.4266, 36.3038], [139.4306, 36.3009], [139.4302, 36.2967], [139.427, 36.2963], [139.4269, 36.295], [139.4298, 36.2959], [139.436, 36.2921], [139.436, 36.2948], [139.4376, 36.2972], [139.4438, 36.2939], [139.4437, 36.2882], [139.4562, 36.288], [139.458, 36.2887], [139.4605, 36.2871], [139.4607, 36.285], [139.464, 36.2823], [139.4685, 36.2802], [139.4674, 36.2799], [139.4685, 36.2785], [139.4632, 36.2793], [139.4609, 36.2776], [139.4581, 36.2769], [139.4597, 36.2744], [139.4623, 36.2734], [139.4619, 36.2724], [139.4638, 36.2713], [139.4666, 36.2716], [139.4689, 36.2703], [139.4721, 36.2705], [139.4727, 36.2727], [139.4714, 36.274], [139.4712, 36.2758], [139.4742, 36.2765], [139.4758, 36.2757], [139.4753, 36.2733], [139.4761, 36.2725], [139.4795, 36.272], [139.4809, 36.271], [139.4841, 36.273], [139.4837, 36.2743], [139.4886, 36.2763], [139.4912, 36.2757], [139.4924, 36.2739], [139.4945, 36.2743], [139.4953, 36.2756], [139.5008, 36.2764], [139.5025, 36.2804], [139.5036, 36.2812], [139.5057, 36.2807], [139.5082, 36.2785], [139.5128, 36.2782], [139.5152, 36.2811], [139.5201, 36.2807], [139.5256, 36.2842], [139.5326, 36.28], [139.5361, 36.2799], [139.5369, 36.2813], [139.5402, 36.28], [139.5394, 36.2771], [139.5439, 36.2755], [139.5484, 36.2808], [139.5501, 36.2784], [139.551, 36.2783], [139.5519, 36.2797], [139.553, 36.2796], [139.5557, 36.2769], [139.5535, 36.274], [139.5625, 36.2669], [139.5706, 36.2682], [139.5722, 36.2671], [139.5771, 36.2667], [139.5849, 36.2692], [139.6084, 36.2681], [139.6126, 36.2698], [139.6156, 36.2736], [139.6189, 36.2743], [139.6208, 36.2741], [139.6253, 36.2715], [139.6324, 36.2712], [139.6339, 36.2702], [139.6354, 36.2667], [139.6373, 36.2649], [139.6416, 36.2669], [139.6442, 36.2657], [139.6425, 36.2633], [139.6367, 36.2616], [139.6313, 36.2565], [139.6308, 36.255], [139.6315, 36.2537], [139.6336, 36.2535], [139.6345, 36.2526], [139.6369, 36.2471], [139.6417, 36.2423], [139.6418, 36.2355], [139.6433, 36.2345], [139.6455, 36.2396], [139.6489, 36.2376], [139.6485, 36.2385], [139.6498, 36.2403], [139.6506, 36.2394], [139.6501, 36.2386], [139.651, 36.2393], [139.6539, 36.2368], [139.6536, 36.2347], [139.6546, 36.2356], [139.6545, 36.2342], [139.6553, 36.2339], [139.6539, 36.2319], [139.6561, 36.231], [139.6589, 36.2314], [139.6577, 36.2302], [139.6588, 36.2299], [139.6629, 36.2306], [139.6626, 36.2297], [139.6595, 36.2283], [139.6613, 36.2247], [139.6589, 36.2211], [139.6655, 36.2234], [139.667, 36.2166], [139.6693, 36.2153], [139.6698, 36.2136], [139.6695, 36.2126], [139.6653, 36.2108], [139.6639, 36.2089], [139.6641, 36.2074], [139.6677, 36.2066], [139.672, 36.209], [139.6743, 36.209], [139.677, 36.2017], [139.6793, 36.2007], [139.6822, 36.2009], [139.6841, 36.2032], [139.6856, 36.2037], [139.6881, 36.2003], [139.692, 36.2073], [139.6988, 36.2059], [139.6982, 36.2033], [139.7016, 36.2032], [139.7022, 36.2039], [139.7063, 36.2016], [139.7076, 36.2062], [139.7083, 36.2061], [139.7087, 36.2073], [139.708, 36.2075], [139.708, 36.2088], [139.7058, 36.2092], [139.707, 36.2104], [139.7078, 36.2108], [139.7099, 36.21], [139.7098, 36.2092], [139.7111, 36.2102], [139.7152, 36.2098], [139.7163, 36.2112], [139.7191, 36.2113], [139.7202, 36.2106], [139.7195, 36.2087], [139.72, 36.2078], [139.7267, 36.2061], [139.7272, 36.2013], [139.7495, 36.2116], [139.7551, 36.2152], [139.7587, 36.2186], [139.7746, 36.2235], [139.781, 36.2263], [139.7853, 36.2265], [139.7856, 36.2277], [139.8221, 36.2394], [139.8221, 36.2417], [139.8267, 36.2475], [139.8283, 36.2517], [139.8316, 36.2651], [139.8349, 36.2706], [139.8414, 36.276], [139.8408, 36.2791], [139.8364, 36.2873], [139.8353, 36.2941], [139.8393, 36.3003], [139.8419, 36.3021], [139.8434, 36.3057], [139.8446, 36.306], [139.8463, 36.3095], [139.8495, 36.3118], [139.8531, 36.3117], [139.8541, 36.3108], [139.8577, 36.3104], [139.8627, 36.3129], [139.865, 36.3156], [139.8674, 36.3136], [139.8682, 36.3143], [139.8696, 36.3137], [139.8709, 36.3142], [139.871, 36.315], [139.8722, 36.3148], [139.8718, 36.3178], [139.8727, 36.3178], [139.8717, 36.3181], [139.8743, 36.3209], [139.8754, 36.3205], [139.8746, 36.3232], [139.8811, 36.3229], [139.882, 36.3199], [139.8782, 36.314], [139.8789, 36.3101], [139.8816, 36.3094], [139.8852, 36.3119], [139.8901, 36.3105], [139.8916, 36.3092], [139.8946, 36.31], [139.8952, 36.3091], [139.8969, 36.3099], [139.8991, 36.3067], [139.8955, 36.3043], [139.8946, 36.3049], [139.8938, 36.3043], [139.8937, 36.3018], [139.8948, 36.3018], [139.8948, 36.3006], [139.8975, 36.3001], [139.9001, 36.3016], [139.9008, 36.2991], [139.9039, 36.2989], [139.9059, 36.2971], [139.9058, 36.2999], [139.9093, 36.3015], [139.91, 36.3035], [139.912, 36.3031], [139.9156, 36.3087], [139.9153, 36.3096], [139.9119, 36.3097], [139.9108, 36.3122], [139.9127, 36.327], [139.9121, 36.3342], [139.9103, 36.3348], [139.9103, 36.3365], [139.9125, 36.3351], [139.9154, 36.3368], [139.9159, 36.3387], [139.9187, 36.3391], [139.9223, 36.3417], [139.9292, 36.3435], [139.9353, 36.3433], [139.9348, 36.3455], [139.9436, 36.347], [139.9436, 36.3478], [139.945, 36.3479], [139.945, 36.3486], [139.9463, 36.3491], [139.9647, 36.3508], [139.9649, 36.356], [139.964, 36.3561], [139.966, 36.3604], [139.965, 36.3611], [139.9662, 36.3628], [139.9655, 36.3636], [139.9659, 36.3688], [139.9675, 36.369], [139.9677, 36.3701], [139.9696, 36.3709], [139.9733, 36.3786], [139.9744, 36.3777], [139.9746, 36.3743], [139.9761, 36.3728], [139.9784, 36.3722], [139.9794, 36.3698], [139.983, 36.3703], [139.9828, 36.3695], [139.9843, 36.3692], [139.984, 36.3681], [139.9904, 36.367], [139.9921, 36.3694], [140.0011, 36.3682], [140.0023, 36.3691], [140.0025, 36.3703], [140.0037, 36.3705], [140.0011, 36.3737], [140.0004, 36.3766], [140.0088, 36.375], [140.0109, 36.373], [140.0117, 36.3733], [140.0127, 36.3761], [140.0146, 36.3774], [140.0165, 36.3765], [140.0151, 36.3765], [140.0144, 36.3748], [140.0156, 36.3745], [140.0158, 36.3759], [140.0165, 36.3753], [140.0165, 36.3761], [140.0196, 36.3758], [140.0214, 36.3768], [140.0219, 36.3757], [140.0265, 36.3754], [140.0272, 36.3769], [140.0299, 36.3767], [140.0306, 36.3779], [140.0351, 36.3781], [140.0385, 36.3768], [140.0401, 36.3751], [140.0481, 36.3756], [140.0519, 36.3779], [140.0551, 36.3781], [140.057, 36.3798], [140.0607, 36.3801], [140.061, 36.3809], [140.0638, 36.382], [140.067, 36.3873], [140.0689, 36.3887], [140.0687, 36.3921], [140.0659, 36.3945], [140.065, 36.397], [140.0649, 36.4008], [140.0664, 36.404], [140.0681, 36.4031], [140.0766, 36.404], [140.0799, 36.4031], [140.0811, 36.4034], [140.0849, 36.4014], [140.0852, 36.3993], [140.0882, 36.3981], [140.0924, 36.4014], [140.0962, 36.3983], [140.0992, 36.398], [140.1014, 36.3969], [140.0995, 36.3948], [140.1004, 36.394], [140.103, 36.3943], [140.1051, 36.3949], [140.1091, 36.398], [140.1112, 36.398], [140.11, 36.4018], [140.1106, 36.404], [140.1093, 36.4058], [140.1097, 36.4072], [140.1152, 36.4102], [140.1205, 36.4112], [140.1241, 36.4141], [140.1275, 36.4139], [140.1324, 36.4149], [140.1353, 36.4131], [140.1402, 36.412], [140.1442, 36.414], [140.1486, 36.4066], [140.1565, 36.3981], [140.1592, 36.398], [140.1653, 36.4001], [140.1687, 36.399], [140.1759, 36.3988], [140.1782, 36.3974], [140.1808, 36.3975], [140.1853, 36.3985], [140.1861, 36.4013], [140.1889, 36.4022], [140.1894, 36.404], [140.1926, 36.4049], [140.1928, 36.4068], [140.1956, 36.4091], [140.1974, 36.4119], [140.1983, 36.4157], [140.2032, 36.4209], [140.2024, 36.4239], [140.2034, 36.4287], [140.2017, 36.4296], [140.2012, 36.4315], [140.202, 36.4328], [140.2013, 36.4377], [140.2062, 36.4465], [140.2028, 36.4504], [140.2026, 36.4542], [140.2071, 36.4569], [140.2071, 36.4616], [140.2082, 36.4643], [140.213, 36.4671], [140.212, 36.471], [140.2166, 36.479], [140.2194, 36.4805], [140.2218, 36.4805], [140.2234, 36.4818], [140.2243, 36.4842], [140.2273, 36.4866], [140.2265, 36.4888], [140.2298, 36.4912], [140.2312, 36.4975], [140.2311, 36.4993], [140.2294, 36.5019], [140.2307, 36.5029], [140.2348, 36.5028], [140.2359, 36.5048], [140.2411, 36.5027], [140.2411, 36.5051], [140.2426, 36.5063], [140.2426, 36.5076], [140.2446, 36.5071], [140.2491, 36.5077], [140.2474, 36.5149], [140.2516, 36.5148], [140.2537, 36.5162], [140.2602, 36.5174], [140.2594, 36.5195], [140.2549, 36.522], [140.2526, 36.5249], [140.253, 36.5279], [140.2499, 36.5305], [140.2477, 36.5344], [140.2472, 36.5375], [140.248, 36.5387], [140.2481, 36.5443], [140.247, 36.5479], [140.251, 36.5519], [140.2517, 36.554], [140.2438, 36.5628], [140.2452, 36.5651], [140.2472, 36.5646], [140.2457, 36.5672], [140.2472, 36.5682], [140.245, 36.5725], [140.2423, 36.5744], [140.2444, 36.5754], [140.2457, 36.5821], [140.2443, 36.5826], [140.2434, 36.5847], [140.2443, 36.5865], [140.2437, 36.5884], [140.2457, 36.5915], [140.2471, 36.5969], [140.2492, 36.5995], [140.2493, 36.6033], [140.2481, 36.6055], [140.2485, 36.6105], [140.2458, 36.614], [140.245, 36.6182], [140.2399, 36.6249], [140.2362, 36.623], [140.2349, 36.6234], [140.2354, 36.6275], [140.2336, 36.6343], [140.2364, 36.6344], [140.2426, 36.6366], [140.2414, 36.6432], [140.2391, 36.6457], [140.2409, 36.6493], [140.2407, 36.6515], [140.238, 36.6542], [140.237, 36.654], [140.2355, 36.6575], [140.2292, 36.6622], [140.2298, 36.6632], [140.2318, 36.6634], [140.2327, 36.6659], [140.2312, 36.6701], [140.2274, 36.6721], [140.2224, 36.6731], [140.2215, 36.6743], [140.2217, 36.6776], [140.2237, 36.6768], [140.2249, 36.6775], [140.2232, 36.6835], [140.2201, 36.6841], [140.2205, 36.6873], [140.2234, 36.6888], [140.2264, 36.692], [140.228, 36.6964], [140.2308, 36.6995], [140.2335, 36.7001], [140.2408, 36.699], [140.2417, 36.6978], [140.2437, 36.6976], [140.2467, 36.7023], [140.2538, 36.702], [140.2561, 36.703], [140.2601, 36.7012], [140.2628, 36.7024], [140.268, 36.7022], [140.2709, 36.7049], [140.2715, 36.7068], [140.2747, 36.7081], [140.2771, 36.707], [140.2811, 36.7077], [140.2855, 36.7123], [140.29, 36.712], [140.2924, 36.7127], [140.2872, 36.7185], [140.2877, 36.7229], [140.2866, 36.7234], [140.2874, 36.7253], [140.2833, 36.7341], [140.2796, 36.7359], [140.2773, 36.7388], [140.2737, 36.7397], [140.2708, 36.7424], [140.2691, 36.7424], [140.2667, 36.7458], [140.2643, 36.7478], [140.2622, 36.7483], [140.2591, 36.7531], [140.2596, 36.7548], [140.2567, 36.757], [140.2549, 36.7599], [140.2553, 36.7645], [140.2568, 36.7661], [140.2588, 36.766], [140.261, 36.7675], [140.2594, 36.7702], [140.2538, 36.7743], [140.2544, 36.7752], [140.256, 36.7754], [140.2574, 36.7772], [140.2553, 36.7788], [140.2555, 36.7805], [140.2535, 36.7823], [140.2536, 36.7834], [140.2607, 36.7869], [140.2637, 36.7862], [140.2663, 36.7904], [140.2657, 36.7941], [140.2645, 36.7946], [140.2664, 36.796], [140.267, 36.7992], [140.2658, 36.8035], [140.2646, 36.8041], [140.2648, 36.8085], [140.2632, 36.8101], [140.2649, 36.8126], [140.2666, 36.8132], [140.2674, 36.818], [140.2661, 36.8222], [140.2671, 36.8244], [140.2649, 36.8281], [140.2657, 36.8289], [140.2622, 36.8329], [140.263, 36.8358], [140.2612, 36.838], [140.2572, 36.8383], [140.2553, 36.8405], [140.2549, 36.8427], [140.2566, 36.8479], [140.2529, 36.8494], [140.2515, 36.8526], [140.2541, 36.8601], [140.2535, 36.8634], [140.2547, 36.8671], [140.2542, 36.8694], [140.2564, 36.8736], [140.2538, 36.8777], [140.2539, 36.8821], [140.2552, 36.8838], [140.2529, 36.886], [140.2542, 36.8914], [140.2528, 36.8962], [140.2515, 36.8972], [140.2503, 36.9016], [140.2505, 36.9056], [140.2486, 36.909], [140.2501, 36.9157], [140.2485, 36.9212], [140.2524, 36.9285], [140.257, 36.9323], [140.2607, 36.9334], [140.2641, 36.9333], [140.2635, 36.9353], [140.2618, 36.936], [140.2616, 36.9375], [140.2551, 36.9386], [140.2537, 36.9408], [140.2516, 36.9419], [140.2471, 36.9417], [140.2462, 36.9427], [140.2427, 36.9435], [140.2428, 36.9447], [140.2405, 36.9463], [140.2413, 36.952], [140.2431, 36.9533], [140.2446, 36.9572], [140.2484, 36.9588], [140.2528, 36.963], [140.2521, 36.9667], [140.2489, 36.9682], [140.2438, 36.9738], [140.2437, 36.9769], [140.2446, 36.9781], [140.2438, 36.9789], [140.2468, 36.9801], [140.2482, 36.982], [140.2511, 36.9834], [140.2499, 36.9869], [140.2505, 36.9884], [140.2461, 36.9898], [140.244, 36.9914], [140.2436, 36.9925], [140.2444, 36.994], [140.2434, 36.9961], [140.2409, 36.9967], [140.2402, 37.0003], [140.2439, 37.0018], [140.2462, 37.0049], [140.2462, 37.0081], [140.2448, 37.01], [140.251, 37.0089], [140.252, 37.0102], [140.2508, 37.011], [140.2512, 37.0144], [140.2501, 37.015], [140.2489, 37.0184], [140.2501, 37.0219], [140.2491, 37.0235], [140.2495, 37.0249], [140.2488, 37.0257], [140.2444, 37.0254], [140.2422, 37.0237], [140.2334, 37.0231], [140.2305, 37.0241], [140.2237, 37.0236], [140.2229, 37.0213], [140.2219, 37.0201], [140.2202, 37.0201], [140.2197, 37.019], [140.2183, 37.0191], [140.2175, 37.0211], [140.2152, 37.0197], [140.213, 37.0196], [140.2092, 37.0227], [140.2064, 37.0239], [140.2033, 37.0241], [140.2016, 37.0269], [140.1994, 37.0283], [140.1987, 37.0311], [140.1994, 37.0331], [140.1955, 37.0365], [140.1984, 37.0382], [140.2002, 37.0471], [140.1981, 37.0506], [140.195, 37.0517], [140.1931, 37.0556], [140.1907, 37.0566], [140.1919, 37.058], [140.1935, 37.058], [140.1948, 37.0603], [140.1942, 37.0625], [140.1948, 37.0635], [140.1933, 37.0655], [140.1911, 37.0656], [140.1863, 37.0678], [140.185, 37.0692], [140.1778, 37.0692], [140.1743, 37.0714], [140.173, 37.0703], [140.1722, 37.0705], [140.1658, 37.0783], [140.1629, 37.0799], [140.1583, 37.0808], [140.1546, 37.0853], [140.1533, 37.0859], [140.1535, 37.087], [140.1577, 37.0891], [140.1565, 37.0915], [140.1494, 37.0927], [140.1509, 37.0945], [140.1482, 37.0961], [140.1485, 37.0975], [140.1372, 37.1066], [140.1348, 37.1037], [140.1314, 37.1033], [140.1277, 37.1039], [140.1256, 37.1077], [140.1221, 37.1082], [140.1208, 37.1088], [140.1208, 37.1099], [140.1184, 37.11], [140.1177, 37.1119], [140.1149, 37.1125], [140.1091, 37.1164], [140.1076, 37.1188], [140.1052, 37.1207], [140.1021, 37.1212], [140.1003, 37.1234], [140.0975, 37.1242], [140.0945, 37.1236], [140.0936, 37.1242], [140.0889, 37.1215], [140.0771, 37.1254], [140.0671, 37.1263], [140.065, 37.1274], [140.0641, 37.1266], [140.0632, 37.1274], [140.0618, 37.1271], [140.0593, 37.1253], [140.0569, 37.1261], [140.057, 37.1271], [140.0554, 37.1277], [140.055, 37.1287], [140.049, 37.1315], [140.0458, 37.1366], [140.0407, 37.1375], [140.0387, 37.1385], [140.0385, 37.1393], [140.033, 37.1401], [140.0308, 37.139], [140.0267, 37.1398], [140.0262, 37.1414], [140.0231, 37.1431], [140.0191, 37.1414], [140.0191, 37.1404], [140.0173, 37.1393], [140.0099, 37.1418], [140.004, 37.1417], [140.0022, 37.1427], [139.9996, 37.1426], [139.996, 37.1438], [139.9902, 37.1426], [139.9787, 37.147], [139.9723, 37.1473], [139.9697, 37.1487], [139.9672, 37.1478], [139.9631, 37.1485], [139.9619, 37.1499], [139.9611, 37.1534], [139.9546, 37.155], [139.9453, 37.1539], [139.9437, 37.1526], [139.9335, 37.1537], [139.9286, 37.151], [139.9246, 37.1519], [139.9202, 37.1505], [139.9164, 37.1477], [139.9127, 37.1483], [139.9109, 37.1478], [139.907, 37.1492], [139.9037, 37.1529], [139.9019, 37.1539], [139.8945, 37.1532], [139.8894, 37.1513], [139.8881, 37.15], [139.885, 37.1498], [139.8767, 37.146], [139.8721, 37.1464], [139.8689, 37.1476], [139.8663, 37.1472], [139.8614, 37.1412], [139.8565, 37.1378], [139.8516, 37.1371], [139.8476, 37.1394], [139.8401, 37.1357], [139.8389, 37.1332], [139.8317, 37.1336], [139.8299, 37.1303], [139.8281, 37.1291], [139.8282, 37.1266], [139.8189, 37.1219], [139.8188, 37.1192], [139.8152, 37.1172], [139.8163, 37.111], [139.8211, 37.1086], [139.8182, 37.0963], [139.82, 37.0923], [139.82, 37.0869], [139.8219, 37.0852], [139.8111, 37.0859], [139.8088, 37.0849], [139.7875, 37.0907], [139.7831, 37.0897], [139.7799, 37.09], [139.7779, 37.089], [139.7746, 37.0917], [139.7736, 37.0884], [139.7706, 37.0848], [139.7707, 37.0837], [139.765, 37.08], [139.7633, 37.0778], [139.7633, 37.0759], [139.7546, 37.0741], [139.753, 37.073], [139.7529, 37.0706], [139.752, 37.0702], [139.7462, 37.0707], [139.7439, 37.0721], [139.7412, 37.0718], [139.7397, 37.0727], [139.7373, 37.0726], [139.7362, 37.0705], [139.7329, 37.0687], [139.7288, 37.0699], [139.7265, 37.0688], [139.7242, 37.0699], [139.7228, 37.0694], [139.7171, 37.0705], [139.718, 37.0684], [139.711, 37.0684], [139.7081, 37.0642], [139.7055, 37.0639], [139.7002, 37.0594], [139.6982, 37.0611], [139.692, 37.0626], [139.689, 37.061], [139.6863, 37.0611], [139.6846, 37.0603], [139.6843, 37.0592], [139.6802, 37.0587], [139.6765, 37.0567], [139.6712, 37.0559], [139.6711, 37.0482], [139.6685, 37.0463], [139.6687, 37.0436], [139.6677, 37.0421], [139.6659, 37.0417], [139.6647, 37.04], [139.6558, 37.042], [139.6519, 37.0374], [139.6437, 37.036], [139.6386, 37.0322], [139.6328, 37.0322], [139.631, 37.0338], [139.6254, 37.0332], [139.6231, 37.0288], [139.6255, 37.026], [139.6188, 37.0197], [139.6192, 37.0166], [139.6172, 37.0153], [139.6132, 37.0148], [139.6113, 37.0137], [139.6052, 37.0146], [139.6027, 37.0159], [139.6, 37.0142], [139.5987, 37.012], [139.5956, 37.0117], [139.5926, 37.0137], [139.5905, 37.0135], [139.5877, 37.0155], [139.5852, 37.0148], [139.5821, 37.0151], [139.5816, 37.0115], [139.5794, 37.0074], [139.5796, 37.0051], [139.5764, 37.0019], [139.572, 37.0015], [139.5647, 36.9968], [139.5568, 36.9966], [139.5546, 36.9925], [139.5496, 36.9926], [139.548, 36.9937], [139.5447, 36.991], [139.5433, 36.9879], [139.5406, 36.9871], [139.5352, 36.9807], [139.5328, 36.9819], [139.5267, 36.9803], [139.5237, 36.9816], [139.521, 36.9793], [139.5144, 36.9775], [139.5123, 36.9752], [139.5091, 36.9741], [139.504, 36.9695], [139.4943, 36.9679], [139.4931, 36.9681], [139.4914, 36.9707], [139.4891, 36.9715], [139.4842, 36.9756], [139.4734, 36.9716], [139.4615, 36.9709], [139.4598, 36.9698], [139.4599, 36.9682], [139.4584, 36.9658], [139.4579, 36.9613], [139.459, 36.959], [139.4572, 36.9565], [139.457, 36.9542], [139.4545, 36.953], [139.4527, 36.9507], [139.4481, 36.9494], [139.4461, 36.9477], [139.4417, 36.9476], [139.441, 36.9448], [139.4345, 36.9419], [139.4353, 36.9404], [139.435, 36.936], [139.4299, 36.9292], [139.4299, 36.9279], [139.4312, 36.9268], [139.4307, 36.9261], [139.4274, 36.9242], [139.4238, 36.9247], [139.4204, 36.924], [139.4187, 36.9255], [139.4139, 36.9261], [139.412, 36.9277], [139.408, 36.9265], [139.4037, 36.9239], [139.3991, 36.92], [139.3966, 36.9143], [139.3933, 36.9108], [139.3935, 36.9092], [139.3956, 36.9068], [139.3944, 36.9037], [139.3867, 36.9002], [139.3837, 36.8998], [139.3817, 36.8982], [139.3793, 36.898], [139.3735, 36.8937], [139.3707, 36.8882], [139.3712, 36.885], [139.3723, 36.8835], [139.369, 36.8801], [139.3703, 36.8784], [139.3675, 36.8773], [139.3627, 36.8778], [139.3606, 36.8749], [139.358, 36.8783], [139.3563, 36.8777], [139.3574, 36.8766], [139.3583, 36.8724], [139.3571, 36.8676], [139.3577, 36.8655], [139.3552, 36.8617], [139.3557, 36.8584], [139.3487, 36.853], [139.3491, 36.8525], [139.3528, 36.8492], [139.3569, 36.8482], [139.3597, 36.8486], [139.364, 36.8473], [139.3666, 36.8411], [139.3722, 36.8401], [139.3744, 36.8384], [139.3772, 36.8389], [139.3811, 36.8367], [139.3865, 36.8358], [139.3875, 36.834], [139.3906, 36.8328], [139.392, 36.8328], [139.3926, 36.8347], [139.3971, 36.835], [139.4013, 36.8323], [139.4051, 36.8317], [139.4063, 36.8295], [139.4055, 36.8281], [139.4066, 36.827], [139.4043, 36.8254], [139.4029, 36.8225], [139.3985, 36.8212], [139.3941, 36.818], [139.3916, 36.8151], [139.3912, 36.8129], [139.3936, 36.8098], [139.3896, 36.8072], [139.3884, 36.8053], [139.3835, 36.8058], [139.3822, 36.8048], [139.3778, 36.8042], [139.3776, 36.8022], [139.3757, 36.8], [139.3759, 36.7973], [139.378, 36.7961], [139.378, 36.792], [139.3757, 36.7909], [139.3767, 36.7884], [139.3761, 36.7859], [139.3715, 36.7832], [139.3673, 36.7836], [139.3623, 36.7806], [139.3606, 36.7761], [139.3592, 36.7749], [139.3537, 36.7742], [139.3529, 36.7734], [139.3544, 36.7691], [139.3526, 36.7652], [139.3508, 36.7636], [139.3551, 36.7605], [139.3546, 36.7532], [139.3556, 36.7512], [139.3622, 36.7479], [139.3718, 36.747], [139.3694, 36.7453], [139.3679, 36.7428], [139.3676, 36.7389], [139.3664, 36.7374], [139.367, 36.7357], [139.365, 36.7331], [139.3643, 36.7295], [139.3657, 36.7256], [139.3669, 36.7247], [139.3648, 36.723], [139.3644, 36.7192], [139.3597, 36.7167], [139.3611, 36.7135], [139.3586, 36.7133], [139.3578, 36.7115], [139.3555, 36.71], [139.3564, 36.7072], [139.3526, 36.7044], [139.349, 36.7002], [139.3436, 36.6973], [139.3412, 36.6943], [139.3369, 36.6923], [139.3393, 36.6855], [139.3368, 36.6819], [139.3393, 36.6785], [139.3363, 36.677], [139.3348, 36.6743], [139.3357, 36.6703], [139.3339, 36.6676], [139.3345, 36.6657], [139.3305, 36.6637], [139.3293, 36.6602], [139.3267, 36.6571], [139.3286, 36.653], [139.3265, 36.6508], [139.3289, 36.6478], [139.3287, 36.6456], [139.3305, 36.6426], [139.3281, 36.6334], [139.3296, 36.6276], [139.3321, 36.6267], [139.3336, 36.6275], [139.3381, 36.6273], [139.3398, 36.6262], [139.3457, 36.6258], [139.347, 36.6196], [139.3525, 36.615], [139.3592, 36.6137], [139.3634, 36.6143], [139.3678, 36.6125], [139.3701, 36.6129], [139.3718, 36.6119], [139.3793, 36.6131], [139.3829, 36.6119], [139.3871, 36.6118], [139.3917, 36.6063], [139.3979, 36.602], [139.4046, 36.6045], [139.4065, 36.6044], [139.4056, 36.6071], [139.4038, 36.6088], [139.4123, 36.6081], [139.4172, 36.6047], [139.4256, 36.6031], [139.4273, 36.601], [139.4361, 36.6017], [139.4382, 36.604], [139.4439, 36.606], [139.4456, 36.6075], [139.4511, 36.6064], [139.4527, 36.6036], [139.4557, 36.6046], [139.4575, 36.6062], [139.4615, 36.6055], [139.4652, 36.6065], [139.4713, 36.6029], [139.4709, 36.601], [139.4746, 36.5947], [139.4738, 36.5908], [139.4745, 36.5897], [139.4763, 36.5873], [139.4802, 36.5858], [139.4836, 36.5822], [139.4825, 36.5809], [139.4825, 36.578], [139.4739, 36.5732], [139.4742, 36.5664], [139.4724, 36.565], [139.4698, 36.5657], [139.4692, 36.5646], [139.4656, 36.5635], [139.4652, 36.5609], [139.4632, 36.5598], [139.4622, 36.5579], [139.4626, 36.5565], [139.4611, 36.5529], [139.4572, 36.5531], [139.4519, 36.5495], [139.4464, 36.5515], [139.4452, 36.5513], [139.4434, 36.5525], [139.4392, 36.5508], [139.4368, 36.5415], [139.4381, 36.5405], [139.4362, 36.5393], [139.4376, 36.5359], [139.4366, 36.5338], [139.4343, 36.5336], [139.4346, 36.5328], [139.4385, 36.5317], [139.4427, 36.5316], [139.4411, 36.5302], [139.4418, 36.5288], [139.4399, 36.5255], [139.4376, 36.5249], [139.4347, 36.5223], [139.4346, 36.5194], [139.4329, 36.519], [139.4326, 36.5171], [139.4314, 36.5172], [139.4317, 36.5158], [139.4302, 36.513], [139.4284, 36.5125], [139.4271, 36.5106], [139.4214, 36.509], [139.4239, 36.5066], [139.4223, 36.504], [139.4189, 36.5023], [139.4195, 36.5001], [139.4177, 36.4949], [139.4192, 36.4948], [139.42, 36.4938], [139.4226, 36.4938], [139.4214, 36.4905], [139.428, 36.4905], [139.4258, 36.4847], [139.4296, 36.4819], [139.4296, 36.4785], [139.4306, 36.4781], [139.4312, 36.4755], [139.4303, 36.4744], [139.4313, 36.4739], [139.4316, 36.4722], [139.4306, 36.4712], [139.4319, 36.4711], [139.4352, 36.4742], [139.438, 36.475], [139.4367, 36.4671], [139.4353, 36.4643], [139.4324, 36.4637], [139.4291, 36.4611], [139.4311, 36.4605], [139.4313, 36.4576], [139.4259, 36.4595], [139.4211, 36.4569], [139.418, 36.4589], [139.418, 36.4607], [139.4149, 36.4619], [139.4112, 36.4585], [139.408, 36.4584], [139.4106, 36.4555], [139.4119, 36.4553], [139.4119, 36.4501], [139.4071, 36.4454], [139.4049, 36.4456], [139.4045, 36.4406], [139.4026, 36.4369], [139.3943, 36.4341], [139.3949, 36.4309], [139.3941, 36.4289], [139.3923, 36.4283], [139.3917, 36.4244], [139.3884, 36.4222], [139.3864, 36.422], [139.3851, 36.4195], [139.3821, 36.4185], [139.3802, 36.4153], [139.3785, 36.4144], [139.3754, 36.4057], [139.377, 36.4041], [139.375, 36.4003], [139.3689, 36.3968], [139.3683, 36.3929], [139.3666, 36.3906], [139.365, 36.3899], [139.3649, 36.3879], [139.3611, 36.3846], [139.3612, 36.3835], [139.3659, 36.3796], [139.3675, 36.3771], [139.3679, 36.3717], [139.3667, 36.371], [139.3678, 36.3691], [139.374, 36.3647], [139.3754, 36.3624], [139.3883, 36.3555], [139.392, 36.3493], [139.3946, 36.347], [139.401, 36.343], [139.4049, 36.342], [139.4121, 36.3383], [139.4135, 36.3378], [139.4156, 36.3391], [139.4164, 36.3388], [139.4262, 36.3272], [139.4257, 36.3238]]]}, "properties": {"name": "栃木県"}}]}