{"type": "FeatureCollection", "features": [{"type": "Feature", "geometry": {"type": "Polygon", "coordinates": [[[135.3902, 34.638], [135.389, 34.6086], [135.4005, 34.6085], [135.404, 34.548], [135.393, 34.5324], [135.378, 34.5322], [135.3654, 34.515], [135.3593, 34.5173], [135.3529, 34.5064], [135.3654, 34.5017], [135.3179, 34.444], [135.3316, 34.4325], [135.3249, 34.4369], [135.3228, 34.4244], [135.3185, 34.431], [135.3138, 34.4266], [135.322, 34.422], [135.3096, 34.4171], [135.3103, 34.423], [135.2942, 34.4147], [135.2592, 34.4437], [135.2518, 34.4442], [135.2565, 34.4461], [135.2543, 34.4459], [135.2331, 34.4316], [135.2367, 34.4386], [135.2259, 34.4388], [135.2329, 34.4435], [135.2399, 34.4385], [135.2522, 34.4466], [135.2416, 34.4554], [135.2009, 34.4282], [135.1981, 34.4235], [135.2027, 34.4264], [135.2089, 34.4201], [135.2215, 34.4334], [135.2291, 34.4308], [135.2191, 34.4222], [135.2277, 34.4135], [135.2633, 34.4373], [135.2939, 34.4144], [135.293, 34.4069], [135.2776, 34.388], [135.2741, 34.3915], [135.2488, 34.377], [135.2179, 34.3443], [135.1715, 34.3377], [135.1529, 34.3311], [135.1402, 34.3177], [135.13, 34.321], [135.1306, 34.3262], [135.1205, 34.3236], [135.1227, 34.3199], [135.1161, 34.3228], [135.092, 34.315], [135.097, 34.308], [135.106, 34.309], [135.0967, 34.2968], [135.1105, 34.2721], [135.1259, 34.2774], [135.137, 34.2736], [135.147, 34.2837], [135.1548, 34.2813], [135.1536, 34.2742], [135.1716, 34.2807], [135.1837, 34.2787], [135.2053, 34.2884], [135.2081, 34.3081], [135.2248, 34.3009], [135.2544, 34.3157], [135.2721, 34.312], [135.2826, 34.318], [135.2932, 34.2991], [135.303, 34.3043], [135.3041, 34.3138], [135.3301, 34.3171], [135.328, 34.3239], [135.3389, 34.3292], [135.3375, 34.335], [135.3623, 34.3292], [135.3968, 34.3304], [135.409, 34.3417], [135.4248, 34.3399], [135.434, 34.3487], [135.4655, 34.3473], [135.4847, 34.3629], [135.5019, 34.35], [135.5034, 34.3364], [135.5089, 34.3367], [135.5769, 34.3762], [135.5935, 34.375], [135.5976, 34.3803], [135.6143, 34.3766], [135.6197, 34.3846], [135.6543, 34.3836], [135.68, 34.408], [135.6644, 34.4237], [135.6788, 34.4328], [135.6871, 34.4501], [135.6851, 34.4856], [135.673, 34.5031], [135.6773, 34.5255], [135.6619, 34.5303], [135.6594, 34.5441], [135.65, 34.5441], [135.6572, 34.5624], [135.6733, 34.5708], [135.6718, 34.5793], [135.6819, 34.585], [135.6755, 34.6022], [135.6541, 34.6033], [135.65, 34.6085], [135.6572, 34.6115], [135.6641, 34.6504], [135.6791, 34.6778], [135.6732, 34.702], [135.7042, 34.7236], [135.6968, 34.7437], [135.71, 34.7532], [135.7096, 34.7802], [135.7201, 34.7746], [135.7296, 34.7769], [135.7463, 34.804], [135.735, 34.8204], [135.7241, 34.8232], [135.7073, 34.8496], [135.6946, 34.8479], [135.6756, 34.8996], [135.6486, 34.9095], [135.6534, 34.9178], [135.6428, 34.9308], [135.6243, 34.9352], [135.6149, 34.9278], [135.5995, 34.9284], [135.6188, 34.9584], [135.6133, 34.9712], [135.5923, 34.9661], [135.5826, 34.9768], [135.5727, 34.9713], [135.5787, 34.9558], [135.5631, 34.9536], [135.5573, 34.9347], [135.5637, 34.9424], [135.5643, 34.9323], [135.5718, 34.9391], [135.5812, 34.9371], [135.5813, 34.9225], [135.5722, 34.9164], [135.5408, 34.9153], [135.538, 34.9255], [135.5165, 34.9343], [135.5147, 34.9443], [135.4936, 34.9411], [135.4809, 34.95], [135.4872, 34.957], [135.4817, 34.965], [135.4903, 34.9676], [135.4834, 34.9818], [135.4928, 34.9893], [135.4398, 35.0079], [135.4227, 35.0017], [135.4097, 35.0117], [135.4034, 35.0069], [135.3816, 35.0103], [135.38, 35.0396], [135.3499, 35.0513], [135.3305, 35.0353], [135.3398, 35.0259], [135.3549, 35.0246], [135.3525, 34.9904], [135.3594, 34.9831], [135.3494, 34.979], [135.3462, 34.9651], [135.3598, 34.9542], [135.3855, 34.9543], [135.3932, 34.9419], [135.4174, 34.9418], [135.4184, 34.934], [135.4418, 34.9395], [135.4524, 34.9298], [135.4689, 34.9267], [135.4639, 34.9186], [135.4393, 34.9206], [135.4184, 34.9086], [135.4274, 34.9061], [135.4322, 34.893], [135.446, 34.8972], [135.4317, 34.8568], [135.4168, 34.8525], [135.4242, 34.837], [135.4158, 34.8177], [135.4235, 34.8021], [135.4428, 34.7913], [135.4446, 34.7686], [135.4598, 34.7513], [135.4597, 34.7333], [135.4481, 34.7338], [135.4468, 34.719], [135.4097, 34.6997], [135.3886, 34.6745], [135.4105, 34.6804], [135.3868, 34.6723], [135.3447, 34.6216], [135.3902, 34.638]]]}, "properties": {"name": "大阪府"}}]}