{"type": "FeatureCollection", "features": [{"type": "Feature", "geometry": {"type": "MultiPolygon", "coordinates": [[[[127.6527, 26.1764], [127.64, 26.1766], [127.6431, 26.1733], [127.6499, 26.1752], [127.6562, 26.1733], [127.6484, 26.1738], [127.6486, 26.1691], [127.6525, 26.1692], [127.654, 26.1661], [127.6493, 26.1661], [127.6496, 26.1642], [127.6552, 26.1636], [127.6456, 26.1597], [127.6471, 26.1533], [127.6499, 26.1555], [127.6516, 26.1525], [127.6679, 26.1542], [127.6693, 26.1522], [127.6649, 26.1512], [127.6663, 26.1493], [127.648, 26.1453], [127.651, 26.1349], [127.649, 26.1338], [127.6527, 26.1268], [127.6507, 26.1268], [127.6536, 26.1258], [127.6581, 26.1279], [127.6558, 26.1273], [127.6532, 26.1352], [127.6558, 26.1358], [127.6554, 26.1338], [127.6602, 26.1368], [127.6609, 26.1342], [127.6575, 26.1317], [127.6685, 26.1335], [127.6683, 26.1296], [127.6669, 26.1324], [127.6612, 26.1286], [127.6647, 26.1264], [127.6626, 26.1248], [127.6694, 26.1258], [127.661, 26.1193], [127.6602, 26.1158], [127.6648, 26.1146], [127.6594, 26.1047], [127.6568, 26.0842], [127.6588, 26.0807], [127.6733, 26.0785], [127.6774, 26.0746], [127.697, 26.0872], [127.7081, 26.0903], [127.7145, 26.0873], [127.7249, 26.0903], [127.7273, 26.0967], [127.7344, 26.0991], [127.748, 26.1189], [127.7558, 26.1198], [127.7596, 26.1246], [127.7603, 26.123], [127.7628, 26.1239], [127.7604, 26.1233], [127.7623, 26.1251], [127.7602, 26.1292], [127.7629, 26.1251], [127.768, 26.1266], [127.7695, 26.1325], [127.7723, 26.132], [127.7699, 26.128], [127.7768, 26.1293], [127.7767, 26.1317], [127.7721, 26.1331], [127.7755, 26.1351], [127.7865, 26.1322], [127.7923, 26.1346], [127.8038, 26.1478], [127.8065, 26.1468], [127.8068, 26.1495], [127.8069, 26.1461], [127.8104, 26.1489], [127.8086, 26.1521], [127.8198, 26.1577], [127.8258, 26.1664], [127.8839, 26.1563], [127.8852, 26.152], [127.9105, 26.1716], [127.9682, 26.2093], [127.9454, 26.2408], [127.9541, 26.2562], [127.9214, 26.2949], [127.9866, 26.2946], [127.9889, 26.3001], [127.9924, 26.2984], [127.9961, 26.3005], [127.9923, 26.3045], [127.9902, 26.303], [128.0019, 26.3309], [128.0062, 26.4066], [128.0011, 26.4044], [127.9675, 26.4681], [127.9911, 26.4751], [127.9898, 26.4807], [128.001, 26.4828], [128.0009, 26.4943], [127.9943, 26.4989], [127.9912, 26.5051], [127.999, 26.5093], [127.9995, 26.5113], [128.0016, 26.511], [128.0021, 26.5145], [128.0028, 26.512], [128.0014, 26.5107], [128.0003, 26.511], [128.0001, 26.5098], [128.0036, 26.5053], [128.0068, 26.5064], [128.0048, 26.5099], [128.0047, 26.5121], [128.0058, 26.5131], [128.0057, 26.5146], [128.0061, 26.5134], [128.005, 26.5117], [128.0079, 26.5143], [128.0108, 26.5151], [128.0256, 26.5106], [128.033, 26.5144], [128.0294, 26.521], [128.0345, 26.5171], [128.0367, 26.5207], [128.0529, 26.5206], [128.0506, 26.5259], [128.0466, 26.5269], [128.0452, 26.5357], [128.0337, 26.5536], [128.0361, 26.5516], [128.0418, 26.5546], [128.0439, 26.5479], [128.0502, 26.5474], [128.0567, 26.5513], [128.0629, 26.5522], [128.0635, 26.5495], [128.0649, 26.553], [128.0687, 26.5488], [128.077, 26.5465], [128.0877, 26.5366], [128.0948, 26.5343], [128.0949, 26.5354], [128.0908, 26.5384], [128.0904, 26.5399], [128.0919, 26.5377], [128.0935, 26.5409], [128.0956, 26.5418], [128.1017, 26.539], [128.1006, 26.5436], [128.1104, 26.5509], [128.1264, 26.5553], [128.1386, 26.5535], [128.1364, 26.5667], [128.1511, 26.5685], [128.1438, 26.5733], [128.1359, 26.5884], [128.1298, 26.5899], [128.1233, 26.6043], [128.1302, 26.6008], [128.1386, 26.6], [128.1359, 26.5987], [128.1382, 26.5989], [128.139, 26.601], [128.1442, 26.6036], [128.1409, 26.599], [128.1521, 26.5976], [128.1551, 26.6089], [128.1455, 26.6224], [128.149, 26.63], [128.1598, 26.6307], [128.1674, 26.6286], [128.1663, 26.6272], [128.1694, 26.6288], [128.1787, 26.6266], [128.1825, 26.6237], [128.2126, 26.6261], [128.2167, 26.6291], [128.2384, 26.6318], [128.2466, 26.6431], [128.2501, 26.6433], [128.2526, 26.6481], [128.251, 26.6516], [128.2552, 26.6542], [128.2568, 26.6598], [128.2595, 26.6573], [128.2637, 26.6593], [128.2647, 26.6679], [128.274, 26.6709], [128.2786, 26.6756], [128.2798, 26.6916], [128.2836, 26.694], [128.282, 26.6968], [128.2866, 26.6963], [128.294, 26.7016], [128.2909, 26.7082], [128.2995, 26.7122], [128.2978, 26.7159], [128.2946, 26.7147], [128.2896, 26.7167], [128.2947, 26.7151], [128.2957, 26.7195], [128.3035, 26.7217], [128.3063, 26.7299], [128.3184, 26.7341], [128.3214, 26.7418], [128.3192, 26.7402], [128.3185, 26.7423], [128.3228, 26.7427], [128.3178, 26.7432], [128.3204, 26.743], [128.32, 26.7463], [128.3269, 26.7495], [128.3272, 26.7565], [128.3248, 26.7539], [128.3201, 26.7568], [128.3255, 26.7658], [128.3202, 26.7729], [128.324, 26.7734], [128.3266, 26.781], [128.3227, 26.7889], [128.3168, 26.791], [128.3176, 26.7944], [128.3217, 26.7956], [128.3165, 26.8067], [128.3203, 26.8131], [128.3143, 26.8199], [128.3163, 26.822], [128.3088, 26.8233], [128.3056, 26.8285], [128.3059, 26.8447], [128.3004, 26.847], [128.2961, 26.8444], [128.2935, 26.8465], [128.2962, 26.8439], [128.2912, 26.8401], [128.2894, 26.8452], [128.2922, 26.8455], [128.2857, 26.8463], [128.2805, 26.8509], [128.2802, 26.8562], [128.276, 26.8552], [128.2619, 26.8664], [128.2648, 26.8733], [128.2575, 26.8757], [128.2498, 26.871], [128.2441, 26.8587], [128.2533, 26.8509], [128.2533, 26.8482], [128.2513, 26.8505], [128.2523, 26.8481], [128.2536, 26.8482], [128.2528, 26.8408], [128.2341, 26.812], [128.2306, 26.804], [128.2323, 26.7977], [128.2262, 26.7972], [128.2234, 26.7886], [128.2047, 26.7754], [128.2039, 26.7664], [128.1978, 26.768], [128.1906, 26.7617], [128.1844, 26.7494], [128.1778, 26.7495], [128.1792, 26.7481], [128.1623, 26.7429], [128.1531, 26.7459], [128.1505, 26.7413], [128.1566, 26.739], [128.1604, 26.7281], [128.1686, 26.7301], [128.1607, 26.7278], [128.1566, 26.7186], [128.1467, 26.7136], [128.144, 26.7086], [128.1174, 26.7024], [128.1043, 26.6843], [128.0983, 26.6801], [128.105, 26.6731], [128.1041, 26.6676], [128.1014, 26.6702], [128.0975, 26.6678], [128.1036, 26.6645], [128.1012, 26.6611], [128.0969, 26.662], [128.0911, 26.6534], [128.0797, 26.6445], [128.0714, 26.6442], [128.0527, 26.6351], [128.034, 26.6359], [128.0337, 26.659], [128.0284, 26.661], [128.0232, 26.668], [128.0212, 26.6722], [128.0254, 26.6713], [128.0248, 26.6734], [128.0212, 26.6723], [128.0216, 26.6756], [128.0202, 26.6741], [128.0217, 26.6943], [128.0273, 26.7004], [128.0264, 26.7114], [128.0122, 26.714], [128.0083, 26.7076], [127.9982, 26.7037], [127.9967, 26.6911], [127.9835, 26.6937], [127.9784, 26.6976], [127.972, 26.6973], [127.977, 26.6853], [127.9716, 26.6942], [127.966, 26.6974], [127.9705, 26.7027], [127.9591, 26.7073], [127.9496, 26.7085], [127.9481, 26.7058], [127.9429, 26.7064], [127.9321, 26.7016], [127.9312, 26.7046], [127.9258, 26.7042], [127.9258, 26.7014], [127.9135, 26.7031], [127.9057, 26.6985], [127.9024, 26.6995], [127.9016, 26.7032], [127.8966, 26.7016], [127.88, 26.7098], [127.8742, 26.6847], [127.884, 26.6791], [127.8851, 26.6733], [127.8854, 26.6765], [127.8882, 26.6743], [127.8907, 26.6633], [127.8885, 26.6612], [127.895, 26.6605], [127.8858, 26.6595], [127.8791, 26.6541], [127.8806, 26.6505], [127.8741, 26.649], [127.8665, 26.6539], [127.8568, 26.6505], [127.8551, 26.6476], [127.8595, 26.6384], [127.8588, 26.6302], [127.8625, 26.6298], [127.8741, 26.6489], [127.8806, 26.6504], [127.8786, 26.6408], [127.8946, 26.6158], [127.8949, 26.6066], [127.9132, 26.6011], [127.9201, 26.6091], [127.9268, 26.6093], [127.9366, 26.6028], [127.9455, 26.6025], [127.9522, 26.5972], [127.9505, 26.6006], [127.9529, 26.6001], [127.9533, 26.5962], [127.9653, 26.5901], [127.9698, 26.5913], [127.9785, 26.5881], [127.9808, 26.5834], [127.9799, 26.5883], [127.9816, 26.5842], [127.9836, 26.5856], [127.984, 26.5756], [127.9802, 26.5659], [127.9672, 26.5511], [127.9641, 26.5413], [127.9599, 26.5414], [127.9582, 26.5469], [127.9516, 26.5452], [127.9482, 26.5384], [127.9409, 26.5355], [127.9366, 26.5382], [127.9363, 26.5429], [127.9304, 26.5424], [127.9346, 26.541], [127.9342, 26.5383], [127.9305, 26.5329], [127.9283, 26.5334], [127.9278, 26.5282], [127.921, 26.5282], [127.9194, 26.5177], [127.9162, 26.5156], [127.9113, 26.5166], [127.9087, 26.5201], [127.8979, 26.5118], [127.8952, 26.5135], [127.8909, 26.5116], [127.8915, 26.5078], [127.8857, 26.5012], [127.8743, 26.5082], [127.8726, 26.5122], [127.8699, 26.5093], [127.8694, 26.5133], [127.8625, 26.5042], [127.8573, 26.5097], [127.8592, 26.5014], [127.8555, 26.5013], [127.8575, 26.5004], [127.8556, 26.4991], [127.8505, 26.5054], [127.8438, 26.5039], [127.8424, 26.4983], [127.8388, 26.4964], [127.8441, 26.4907], [127.8459, 26.4812], [127.8411, 26.4782], [127.8354, 26.479], [127.8307, 26.4709], [127.8128, 26.4631], [127.8097, 26.4567], [127.8037, 26.4548], [127.8008, 26.4501], [127.8029, 26.4476], [127.8006, 26.448], [127.804, 26.4444], [127.7992, 26.437], [127.7823, 26.4353], [127.7712, 26.446], [127.7661, 26.4377], [127.7616, 26.4382], [127.7642, 26.4373], [127.7591, 26.4326], [127.7476, 26.4276], [127.7439, 26.4226], [127.7381, 26.4223], [127.7334, 26.4248], [127.7249, 26.4401], [127.7115, 26.4407], [127.7172, 26.4333], [127.7134, 26.4112], [127.724, 26.3882], [127.722, 26.3893], [127.7296, 26.3818], [127.7373, 26.363], [127.7464, 26.3616], [127.748, 26.3642], [127.7468, 26.3607], [127.7413, 26.3622], [127.7391, 26.3595], [127.7415, 26.3502], [127.7426, 26.3526], [127.7454, 26.3516], [127.7475, 26.3408], [127.7427, 26.3312], [127.749, 26.3202], [127.7537, 26.3241], [127.7563, 26.3222], [127.7527, 26.3184], [127.7555, 26.3108], [127.7618, 26.3097], [127.7567, 26.302], [127.7594, 26.2969], [127.7536, 26.2933], [127.7539, 26.2908], [127.7427, 26.2882], [127.7436, 26.2856], [127.741, 26.2841], [127.7377, 26.285], [127.741, 26.2813], [127.7303, 26.2829], [127.7307, 26.2805], [127.7249, 26.2785], [127.7301, 26.2801], [127.7316, 26.2786], [127.7283, 26.279], [127.7285, 26.2762], [127.7264, 26.2783], [127.7282, 26.2751], [127.726, 26.2771], [127.7255, 26.2709], [127.7227, 26.2727], [127.722, 26.271], [127.7226, 26.2736], [127.7203, 26.2705], [127.7209, 26.2742], [127.714, 26.2748], [127.7118, 26.2701], [127.7083, 26.2739], [127.7084, 26.2832], [127.6922, 26.2979], [127.6489, 26.2592], [127.647, 26.2467], [127.6362, 26.2206], [127.6358, 26.2072], [127.6364, 26.1987], [127.6437, 26.1892], [127.6442, 26.1777], [127.6465, 26.1808], [127.6469, 26.1768], [127.6482, 26.1813], [127.6527, 26.1764]]], [[[124.111, 24.3657], [124.1081, 24.348], [124.1097, 24.3378], [124.1227, 24.3237], [124.1375, 24.3186], [124.1911, 24.3333], [124.2018, 24.344], [124.1984, 24.3483], [124.201, 24.3544], [124.2147, 24.3562], [124.2289, 24.3456], [124.2361, 24.3451], [124.2421, 24.349], [124.2499, 24.3594], [124.2542, 24.3803], [124.2521, 24.393], [124.25, 24.3933], [124.2522, 24.3931], [124.2588, 24.4117], [124.2499, 24.4314], [124.2518, 24.4386], [124.2579, 24.4437], [124.2577, 24.4467], [124.2485, 24.4549], [124.2514, 24.4564], [124.2518, 24.4657], [124.2607, 24.4791], [124.2734, 24.4866], [124.2815, 24.4879], [124.2837, 24.5083], [124.2954, 24.5147], [124.3072, 24.5273], [124.3094, 24.5321], [124.3034, 24.537], [124.3041, 24.5458], [124.3126, 24.5559], [124.3233, 24.56], [124.3245, 24.564], [124.3345, 24.5711], [124.3371, 24.5828], [124.3409, 24.586], [124.3366, 24.595], [124.3404, 24.6052], [124.3227, 24.6073], [124.3165, 24.6122], [124.3122, 24.6106], [124.3116, 24.5938], [124.3018, 24.5809], [124.2976, 24.5691], [124.2826, 24.5611], [124.2839, 24.5558], [124.2934, 24.5496], [124.2955, 24.5419], [124.2856, 24.5359], [124.2859, 24.5314], [124.2879, 24.5319], [124.2815, 24.5243], [124.2775, 24.5117], [124.2769, 24.5083], [124.2797, 24.5066], [124.275, 24.5045], [124.2674, 24.5146], [124.2566, 24.5198], [124.2462, 24.5081], [124.2476, 24.5054], [124.2389, 24.4986], [124.2285, 24.4991], [124.2311, 24.4884], [124.2266, 24.4857], [124.2205, 24.4713], [124.2206, 24.4687], [124.2247, 24.4679], [124.2264, 24.4647], [124.226, 24.4583], [124.2225, 24.4546], [124.2095, 24.455], [124.2058, 24.4582], [124.1928, 24.4577], [124.18, 24.4491], [124.1747, 24.4497], [124.1744, 24.4475], [124.1525, 24.4547], [124.1392, 24.4423], [124.1341, 24.4481], [124.1411, 24.4504], [124.1391, 24.4556], [124.144, 24.4625], [124.1432, 24.467], [124.133, 24.4765], [124.117, 24.4828], [124.1124, 24.4794], [124.1131, 24.4772], [124.1204, 24.4761], [124.1255, 24.47], [124.1255, 24.4661], [124.1167, 24.4626], [124.1184, 24.4552], [124.1162, 24.4542], [124.1203, 24.4465], [124.1087, 24.4442], [124.0995, 24.4536], [124.0833, 24.4519], [124.0767, 24.4534], [124.0806, 24.4482], [124.0691, 24.4314], [124.0705, 24.4282], [124.0778, 24.4257], [124.0845, 24.4161], [124.0882, 24.4233], [124.1002, 24.4323], [124.1089, 24.4333], [124.1119, 24.4298], [124.1162, 24.4349], [124.1234, 24.4333], [124.124, 24.4283], [124.1328, 24.4215], [124.1342, 24.4155], [124.1435, 24.4132], [124.144, 24.4077], [124.1395, 24.4006], [124.1417, 24.3925], [124.1389, 24.3873], [124.1303, 24.3792], [124.1201, 24.3776], [124.111, 24.3657]]], [[[124.1496, 24.4608], [124.1483, 24.4623], [124.1462, 24.4585], [124.1491, 24.4523], [124.1528, 24.4565], [124.1496, 24.4608]]], [[[123.5545, 25.7232], [123.549, 25.7256], [123.5447, 25.7236], [123.5523, 25.7204], [123.5553, 25.7208], [123.5545, 25.7232]]], [[[123.6806, 25.9289], [123.676, 25.9232], [123.6813, 25.9191], [123.6873, 25.9203], [123.6887, 25.9235], [123.6806, 25.9289]]], [[[123.4784, 25.7514], [123.4706, 25.7503], [123.4614, 25.7451], [123.4579, 25.7399], [123.4594, 25.7354], [123.4645, 25.7348], [123.4769, 25.7413], [123.4933, 25.7427], [123.487, 25.7495], [123.4784, 25.7514]]], [[[123.5418, 25.7331], [123.5377, 25.7319], [123.5425, 25.7254], [123.5455, 25.7289], [123.5418, 25.7331]]], [[[127.9801, 26.2905], [127.9789, 26.2922], [127.9811, 26.2873], [127.9801, 26.2905]]], [[[125.3309, 24.8102], [125.3317, 24.8177], [125.3356, 24.822], [125.3129, 24.8372], [125.3058, 24.8499], [125.3059, 24.8621], [125.2985, 24.8788], [125.2954, 24.8771], [125.2855, 24.881], [125.2827, 24.8925], [125.2721, 24.9022], [125.2704, 24.9103], [125.2659, 24.9161], [125.2707, 24.9065], [125.2684, 24.9029], [125.2641, 24.9045], [125.2664, 24.9034], [125.2646, 24.9025], [125.2595, 24.9084], [125.2552, 24.9102], [125.2606, 24.9059], [125.2643, 24.8978], [125.2713, 24.8929], [125.2723, 24.8809], [125.2785, 24.876], [125.2765, 24.8743], [125.2837, 24.8666], [125.2855, 24.8581], [125.2893, 24.8575], [125.2965, 24.8466], [125.2719, 24.8496], [125.2489, 24.8038], [125.2563, 24.7949], [125.2594, 24.784], [125.2657, 24.7817], [125.268, 24.784], [125.2779, 24.7734], [125.2837, 24.7591], [125.2818, 24.7557], [125.2851, 24.7532], [125.2775, 24.7496], [125.2721, 24.7542], [125.2664, 24.7514], [125.2602, 24.7597], [125.2613, 24.7685], [125.2564, 24.7588], [125.2524, 24.7566], [125.2619, 24.7346], [125.2683, 24.7331], [125.2793, 24.7246], [125.2806, 24.7262], [125.2899, 24.723], [125.295, 24.7183], [125.298, 24.7254], [125.2977, 24.7183], [125.3056, 24.7125], [125.3071, 24.7147], [125.3089, 24.7115], [125.3174, 24.713], [125.323, 24.7191], [125.3235, 24.7169], [125.3281, 24.7197], [125.3266, 24.7174], [125.3313, 24.7196], [125.3413, 24.717], [125.341, 24.7202], [125.3589, 24.7225], [125.3558, 24.7247], [125.3634, 24.7242], [125.3703, 24.7293], [125.3775, 24.7247], [125.3996, 24.7296], [125.4248, 24.7262], [125.431, 24.7296], [125.4391, 24.7297], [125.4467, 24.7251], [125.4536, 24.7307], [125.4695, 24.719], [125.4546, 24.7326], [125.4432, 24.7465], [125.4407, 24.7551], [125.4333, 24.7611], [125.4258, 24.7601], [125.4179, 24.7645], [125.4027, 24.7663], [125.3916, 24.7746], [125.3861, 24.7859], [125.3707, 24.7922], [125.3645, 24.7892], [125.3536, 24.7894], [125.3475, 24.7956], [125.3352, 24.7989], [125.3309, 24.8102]]], [[[125.2507, 24.925], [125.2558, 24.925], [125.2519, 24.9325], [125.2449, 24.9382], [125.2389, 24.9389], [125.231, 24.9353], [125.2335, 24.9289], [125.2434, 24.9217], [125.2456, 24.9226], [125.2482, 24.9196], [125.2493, 24.9237], [125.2467, 24.9258], [125.2507, 24.925]]], [[[125.3069, 24.9198], [125.3052, 24.9156], [125.3074, 24.912], [125.3108, 24.9159], [125.3069, 24.9198]]], [[[125.2432, 24.7317], [125.2405, 24.731], [125.24, 24.7175], [125.2455, 24.7134], [125.2568, 24.7154], [125.2573, 24.7246], [125.2432, 24.7317]]], [[[125.1981, 24.8053], [125.2044, 24.8005], [125.2017, 24.8055], [125.2033, 24.8028], [125.2159, 24.8067], [125.2214, 24.8128], [125.2212, 24.8237], [125.2121, 24.8438], [125.1791, 24.8614], [125.1624, 24.8653], [125.1562, 24.8567], [125.1579, 24.852], [125.1558, 24.8492], [125.158, 24.8515], [125.16, 24.8402], [125.1554, 24.8371], [125.1563, 24.8319], [125.1509, 24.8322], [125.151, 24.8291], [125.1506, 24.8321], [125.1485, 24.8308], [125.1469, 24.8346], [125.1456, 24.8332], [125.1415, 24.8419], [125.1401, 24.8368], [125.1352, 24.835], [125.1353, 24.8276], [125.1395, 24.8277], [125.135, 24.8243], [125.1365, 24.8217], [125.1391, 24.8238], [125.1388, 24.8158], [125.1424, 24.8158], [125.1414, 24.8131], [125.1451, 24.8139], [125.143, 24.8115], [125.146, 24.8094], [125.145, 24.8073], [125.1625, 24.8023], [125.1732, 24.8056], [125.1752, 24.814], [125.1776, 24.8109], [125.1833, 24.8118], [125.1981, 24.8053]]], [[[127.8152, 26.6512], [127.8097, 26.6466], [127.8137, 26.6487], [127.8162, 26.6459], [127.8131, 26.6451], [127.8211, 26.6448], [127.8184, 26.6507], [127.8152, 26.6512]]], [[[127.793, 26.7341], [127.7565, 26.7369], [127.7491, 26.7227], [127.7504, 26.7162], [127.7557, 26.7098], [127.763, 26.7069], [127.7617, 26.7086], [127.792, 26.7098], [127.8052, 26.7047], [127.8284, 26.7099], [127.8307, 26.7211], [127.8115, 26.7378], [127.8058, 26.7389], [127.793, 26.7341]]], [[[127.3689, 26.2362], [127.3662, 26.2318], [127.3684, 26.2236], [127.373, 26.2298], [127.3689, 26.2362]]], [[[127.3477, 26.1856], [127.3388, 26.1826], [127.342, 26.175], [127.3409, 26.1696], [127.3455, 26.1701], [127.3482, 26.1669], [127.344, 26.151], [127.3473, 26.1458], [127.3503, 26.1475], [127.3523, 26.1559], [127.3644, 26.1573], [127.3584, 26.1809], [127.3682, 26.1892], [127.3728, 26.1901], [127.37, 26.193], [127.373, 26.198], [127.3683, 26.1973], [127.367, 26.1996], [127.3744, 26.2039], [127.3713, 26.2172], [127.3665, 26.2225], [127.3571, 26.2266], [127.3528, 26.2255], [127.3553, 26.2174], [127.3482, 26.2109], [127.3497, 26.2065], [127.3454, 26.2016], [127.3442, 26.1905], [127.3477, 26.1856]]], [[[127.3763, 26.1999], [127.379, 26.1967], [127.3803, 26.199], [127.3763, 26.1999]]], [[[127.3406, 26.1645], [127.3372, 26.1637], [127.3372, 26.159], [127.3406, 26.1645]]], [[[127.3455, 26.146], [127.3416, 26.1449], [127.3415, 26.1386], [127.3472, 26.1448], [127.3455, 26.146]]], [[[127.4033, 26.2567], [127.4011, 26.256], [127.4024, 26.2517], [127.4068, 26.2477], [127.4033, 26.2567]]], [[[127.5539, 26.2658], [127.5405, 26.2657], [127.5539, 26.264], [127.5539, 26.2658]]], [[[127.578, 26.2593], [127.5784, 26.2651], [127.5745, 26.2605], [127.578, 26.2593]]], [[[127.5605, 26.2506], [127.5581, 26.2503], [127.5627, 26.25], [127.5605, 26.2506]]], [[[127.4581, 26.2419], [127.4558, 26.2418], [127.4553, 26.2377], [127.4593, 26.2389], [127.4581, 26.2419]]], [[[127.4521, 26.2302], [127.4522, 26.2342], [127.4501, 26.2342], [127.4486, 26.2318], [127.4519, 26.2271], [127.4521, 26.2302]]], [[[127.4555, 26.2212], [127.4524, 26.2261], [127.4462, 26.2187], [127.4392, 26.2004], [127.4467, 26.2025], [127.4555, 26.2212]]], [[[127.3129, 26.2322], [127.311, 26.2375], [127.3187, 26.2403], [127.3224, 26.235], [127.32, 26.2301], [127.3273, 26.2321], [127.3332, 26.2287], [127.3331, 26.2329], [127.329, 26.2325], [127.3274, 26.2357], [127.3324, 26.2405], [127.3175, 26.248], [127.3124, 26.246], [127.31, 26.2521], [127.3066, 26.2489], [127.3074, 26.2461], [127.3054, 26.2472], [127.308, 26.2451], [127.3071, 26.2405], [127.3005, 26.2381], [127.295, 26.2422], [127.2932, 26.2353], [127.2837, 26.2325], [127.282, 26.2346], [127.2809, 26.231], [127.2827, 26.2275], [127.2906, 26.2274], [127.2959, 26.2235], [127.3023, 26.2273], [127.3041, 26.2253], [127.3009, 26.2238], [127.3035, 26.2195], [127.3078, 26.2186], [127.3105, 26.2255], [127.3155, 26.2261], [127.3129, 26.2322]]], [[[127.3093, 26.2158], [127.3088, 26.2177], [127.3095, 26.2005], [127.3131, 26.1976], [127.3172, 26.2044], [127.3112, 26.2084], [127.3093, 26.2158]]], [[[127.281, 26.211], [127.2809, 26.2132], [127.2711, 26.2082], [127.2696, 26.2027], [127.2647, 26.1985], [127.2652, 26.1962], [127.268, 26.1965], [127.2675, 26.1937], [127.2709, 26.1971], [127.2757, 26.196], [127.2753, 26.1867], [127.2808, 26.1899], [127.2835, 26.1878], [127.2826, 26.1897], [127.2861, 26.1897], [127.2863, 26.1918], [127.287, 26.1901], [127.2879, 26.1943], [127.2934, 26.1942], [127.281, 26.211]]], [[[127.2375, 26.182], [127.2327, 26.1758], [127.232, 26.1633], [127.2371, 26.1644], [127.2419, 26.1622], [127.2414, 26.1704], [127.2442, 26.1753], [127.2375, 26.182]]], [[[127.2861, 26.1875], [127.2821, 26.1826], [127.286, 26.1764], [127.2963, 26.177], [127.2931, 26.1857], [127.2861, 26.1875]]], [[[127.2938, 26.1744], [127.2874, 26.1673], [127.2911, 26.1606], [127.297, 26.1685], [127.2938, 26.1744]]], [[[127.335, 26.2274], [127.3323, 26.2269], [127.3347, 26.2251], [127.335, 26.2274]]], [[[127.286, 26.2197], [127.283, 26.2193], [127.2877, 26.2164], [127.2885, 26.2189], [127.286, 26.2197]]], [[[127.2494, 26.2233], [127.2393, 26.2206], [127.2392, 26.2114], [127.2423, 26.2081], [127.2489, 26.2139], [127.2494, 26.2233]]], [[[127.231, 26.579], [127.2318, 26.5792], [127.2322, 26.5781], [127.233, 26.5776], [127.2344, 26.5774], [127.2323, 26.5783], [127.2329, 26.5785], [127.2327, 26.579], [127.2333, 26.5795], [127.235, 26.5799], [127.2408, 26.576], [127.2482, 26.5864], [127.2371, 26.6017], [127.2273, 26.6011], [127.2176, 26.5938], [127.2113, 26.5859], [127.2081, 26.576], [127.231, 26.579]]], [[[127.1467, 26.3822], [127.1435, 26.3767], [127.1394, 26.3766], [127.1375, 26.3726], [127.1407, 26.3741], [127.1402, 26.3703], [127.1366, 26.3715], [127.1368, 26.365], [127.1464, 26.3483], [127.1466, 26.3519], [127.1598, 26.3585], [127.1615, 26.3639], [127.1539, 26.361], [127.1497, 26.363], [127.1462, 26.3717], [127.1512, 26.3799], [127.1467, 26.3822]]], [[[127.103, 26.3878], [127.1003, 26.3878], [127.0994, 26.3819], [127.1042, 26.3834], [127.103, 26.3878]]], [[[131.2216, 25.8171], [131.2314, 25.8128], [131.2407, 25.8133], [131.2555, 25.8167], [131.2635, 25.8235], [131.2733, 25.853], [131.2633, 25.8681], [131.2527, 25.8719], [131.2405, 25.8724], [131.2256, 25.8702], [131.2205, 25.8666], [131.2173, 25.8325], [131.2132, 25.8234], [131.2216, 25.8171]]], [[[131.2888, 25.9406], [131.2992, 25.9304], [131.3074, 25.9281], [131.3186, 25.929], [131.3231, 25.9319], [131.3321, 25.9521], [131.3229, 25.956], [131.3066, 25.9556], [131.2855, 25.961], [131.2841, 25.9539], [131.2888, 25.9406]]], [[[131.1878, 24.4614], [131.1921, 24.4634], [131.1949, 24.4695], [131.1809, 24.4724], [131.1878, 24.4614]]], [[[127.9753, 27.0668], [127.971, 27.067], [127.9732, 27.0662], [127.9665, 27.0567], [127.9506, 27.0445], [127.9465, 27.0345], [127.9332, 27.0222], [127.9324, 27.0136], [127.9379, 27.0071], [127.9369, 26.9995], [127.9324, 26.9976], [127.9351, 26.9948], [127.9405, 27.0049], [127.9426, 27.0168], [127.9548, 27.0222], [127.9634, 27.0219], [127.9673, 27.0282], [127.9638, 27.0294], [127.9637, 27.0331], [127.9715, 27.0398], [127.983, 27.0401], [127.9911, 27.0441], [127.9984, 27.06], [127.9966, 27.0651], [128.0011, 27.0746], [128.0158, 27.089], [128.0217, 27.0902], [128.0222, 27.093], [128.0201, 27.0952], [128.0085, 27.0901], [127.9959, 27.0893], [127.9873, 27.0749], [127.9753, 27.0668]]], [[[127.9208, 26.9892], [127.9283, 26.9981], [127.9229, 27.0022], [127.9127, 26.9952], [127.9208, 26.9892]]], [[[127.9535, 26.9292], [127.9573, 26.9349], [127.9565, 26.9448], [127.9376, 26.9557], [127.9165, 26.9457], [127.9118, 26.9371], [127.9148, 26.9343], [127.9217, 26.9356], [127.9187, 26.9224], [127.9223, 26.9179], [127.9263, 26.918], [127.9301, 26.9132], [127.9374, 26.9135], [127.9389, 26.9105], [127.9538, 26.9142], [127.95, 26.9235], [127.9507, 26.9286], [127.9535, 26.9292]]], [[[127.9239, 26.9026], [127.9202, 26.9015], [127.9212, 26.8945], [127.9307, 26.8917], [127.934, 26.8945], [127.9282, 26.8953], [127.9262, 26.8988], [127.9304, 26.9016], [127.9239, 26.9026]]], [[[127.9478, 26.9776], [127.9413, 26.9764], [127.9487, 26.9734], [127.9596, 26.9749], [127.9478, 26.9776]]], [[[126.7569, 26.3875], [126.7334, 26.3759], [126.7128, 26.3723], [126.708, 26.3606], [126.7153, 26.3696], [126.7094, 26.3563], [126.7078, 26.3577], [126.709, 26.3542], [126.7142, 26.3486], [126.7299, 26.3406], [126.712, 26.352], [126.7135, 26.3603], [126.7163, 26.3544], [126.7293, 26.3442], [126.7301, 26.3467], [126.725, 26.3488], [126.7515, 26.3445], [126.7501, 26.3407], [126.7579, 26.3328], [126.7503, 26.3407], [126.7513, 26.3433], [126.7535, 26.3398], [126.7602, 26.3422], [126.7552, 26.3386], [126.769, 26.3286], [126.768, 26.3226], [126.7759, 26.3149], [126.7786, 26.3067], [126.7946, 26.2992], [126.8012, 26.2928], [126.8115, 26.2913], [126.8137, 26.2943], [126.8104, 26.3025], [126.804, 26.3062], [126.8067, 26.3213], [126.8036, 26.3278], [126.8, 26.3293], [126.8039, 26.328], [126.8066, 26.322], [126.8056, 26.3255], [126.8161, 26.3358], [126.8165, 26.3387], [126.8151, 26.3367], [126.814, 26.3387], [126.8168, 26.3411], [126.8166, 26.3394], [126.8191, 26.3416], [126.823, 26.3384], [126.8202, 26.3367], [126.8247, 26.3353], [126.8349, 26.3365], [126.8304, 26.3423], [126.823, 26.3389], [126.82, 26.341], [126.8249, 26.3451], [126.8232, 26.3511], [126.8176, 26.3527], [126.8246, 26.3522], [126.8173, 26.3528], [126.812, 26.3601], [126.808, 26.3601], [126.8111, 26.3629], [126.8054, 26.3705], [126.8002, 26.3678], [126.7968, 26.3696], [126.7914, 26.3799], [126.7811, 26.3904], [126.7711, 26.3913], [126.7569, 26.3875]]], [[[126.8326, 26.5957], [126.8224, 26.5898], [126.829, 26.5899], [126.8326, 26.5957]]], [[[126.8556, 26.3381], [126.8545, 26.3396], [126.8515, 26.337], [126.8556, 26.3381]]], [[[126.8979, 26.3504], [126.8914, 26.3509], [126.884, 26.3454], [126.8714, 26.3442], [126.8872, 26.344], [126.8898, 26.3484], [126.8979, 26.3504]]], [[[126.8398, 26.3432], [126.8369, 26.3419], [126.837, 26.3365], [126.8429, 26.3372], [126.8398, 26.3432]]], [[[128.2338, 27.8605], [128.2364, 27.8656], [128.2335, 27.8725], [128.2276, 27.8779], [128.2255, 27.885], [128.2218, 27.8855], [128.2176, 27.8773], [128.2232, 27.8667], [128.2338, 27.8605]]], [[[124.6938, 24.6387], [124.7082, 24.6382], [124.7197, 24.6454], [124.7225, 24.6436], [124.7206, 24.6462], [124.7227, 24.6477], [124.7245, 24.6459], [124.7229, 24.6477], [124.7279, 24.6541], [124.7263, 24.6671], [124.7096, 24.6742], [124.7097, 24.6766], [124.7087, 24.6744], [124.6967, 24.6773], [124.6834, 24.6739], [124.6753, 24.6677], [124.6709, 24.6608], [124.6751, 24.6438], [124.6875, 24.6386], [124.6938, 24.6387]]], [[[124.7054, 24.7448], [124.7035, 24.7545], [124.7007, 24.7543], [124.694, 24.7616], [124.6821, 24.7577], [124.7054, 24.7448]]], [[[123.7758, 24.4027], [123.7682, 24.4038], [123.7738, 24.4076], [123.7735, 24.4175], [123.7666, 24.4172], [123.7616, 24.4151], [123.7587, 24.4085], [123.751, 24.403], [123.7543, 24.3975], [123.7526, 24.3914], [123.743, 24.3936], [123.7431, 24.3884], [123.7462, 24.3886], [123.753, 24.3769], [123.7505, 24.3712], [123.743, 24.3684], [123.7453, 24.3606], [123.7528, 24.359], [123.7541, 24.352], [123.7609, 24.3489], [123.7641, 24.3434], [123.7592, 24.3374], [123.7618, 24.3467], [123.7494, 24.3503], [123.7444, 24.3425], [123.7503, 24.3373], [123.7464, 24.3234], [123.7516, 24.3133], [123.7475, 24.3003], [123.7497, 24.2983], [123.7467, 24.3002], [123.7464, 24.3064], [123.7498, 24.3116], [123.7434, 24.3204], [123.7394, 24.3149], [123.7406, 24.3208], [123.7361, 24.3278], [123.7377, 24.3295], [123.7331, 24.3318], [123.729, 24.3281], [123.7295, 24.3415], [123.7248, 24.3436], [123.7238, 24.3399], [123.7147, 24.3347], [123.7156, 24.3278], [123.7059, 24.34], [123.7038, 24.3452], [123.706, 24.3483], [123.7035, 24.3502], [123.7, 24.3472], [123.7007, 24.3395], [123.7111, 24.316], [123.7031, 24.3136], [123.7047, 24.3187], [123.7007, 24.3259], [123.6854, 24.3326], [123.68, 24.3223], [123.6836, 24.3215], [123.6832, 24.3169], [123.6874, 24.3106], [123.6819, 24.3078], [123.6794, 24.3129], [123.6743, 24.3115], [123.6709, 24.3141], [123.6618, 24.3096], [123.6699, 24.2964], [123.6804, 24.2826], [123.6965, 24.2835], [123.7033, 24.2792], [123.7156, 24.2776], [123.719, 24.2782], [123.7217, 24.2875], [123.7207, 24.2986], [123.7237, 24.2996], [123.7366, 24.2945], [123.7405, 24.2884], [123.7554, 24.2794], [123.7763, 24.2747], [123.7843, 24.2764], [123.8057, 24.2697], [123.8325, 24.2722], [123.8449, 24.2675], [123.8634, 24.2555], [123.8809, 24.2562], [123.881, 24.2662], [123.8845, 24.2705], [123.8833, 24.2747], [123.8859, 24.2728], [123.8831, 24.2758], [123.879, 24.2762], [123.8809, 24.2803], [123.8905, 24.2814], [123.9, 24.2739], [123.9044, 24.2752], [123.8991, 24.3011], [123.9086, 24.3177], [123.913, 24.32], [123.9111, 24.3246], [123.9153, 24.3261], [123.9264, 24.3154], [123.9284, 24.3162], [123.9245, 24.3245], [123.93, 24.3278], [123.9266, 24.3336], [123.9268, 24.3428], [123.9364, 24.3497], [123.9406, 24.3606], [123.9396, 24.3651], [123.9223, 24.3668], [123.9182, 24.3719], [123.9173, 24.3786], [123.907, 24.3848], [123.8995, 24.3839], [123.8923, 24.3877], [123.8872, 24.3841], [123.881, 24.3913], [123.8815, 24.4], [123.8701, 24.4046], [123.8635, 24.3944], [123.8551, 24.3984], [123.8543, 24.403], [123.8484, 24.4046], [123.8444, 24.4024], [123.8329, 24.4078], [123.8286, 24.3981], [123.8223, 24.3985], [123.8224, 24.3923], [123.8159, 24.3905], [123.8166, 24.393], [123.8093, 24.4009], [123.815, 24.399], [123.8104, 24.401], [123.812, 24.411], [123.8012, 24.4153], [123.7998, 24.4223], [123.7897, 24.4293], [123.7834, 24.4376], [123.7695, 24.4367], [123.7642, 24.4308], [123.7653, 24.4253], [123.7678, 24.4284], [123.7712, 24.4281], [123.7745, 24.4232], [123.7737, 24.4194], [123.778, 24.4178], [123.7758, 24.4027]]], [[[123.9359, 24.3443], [123.9352, 24.3471], [123.931, 24.3414], [123.9359, 24.3443]]], [[[123.7252, 24.38], [123.7116, 24.3756], [123.7116, 24.3705], [123.7182, 24.3652], [123.7209, 24.3657], [123.7222, 24.3757], [123.7286, 24.376], [123.7252, 24.38]]], [[[123.7313, 24.363], [123.7334, 24.3644], [123.7315, 24.3657], [123.7299, 24.3629], [123.7247, 24.3651], [123.724, 24.3591], [123.7422, 24.3459], [123.7445, 24.3479], [123.7439, 24.3539], [123.7313, 24.363]]], [[[123.5649, 24.1958], [123.5551, 24.1924], [123.5697, 24.1955], [123.5649, 24.1958]]], [[[123.8206, 24.4672], [123.8248, 24.4682], [123.8263, 24.4719], [123.8229, 24.4762], [123.8156, 24.4771], [123.8138, 24.4733], [123.8206, 24.4672]]], [[[123.9733, 24.3549], [123.9633, 24.3494], [123.9699, 24.343], [123.9699, 24.3392], [123.9614, 24.3358], [123.954, 24.3368], [123.9515, 24.3326], [123.9614, 24.3344], [123.9841, 24.3309], [123.9919, 24.3236], [124.0031, 24.3273], [124.0016, 24.3332], [123.9895, 24.3411], [123.9897, 24.3445], [123.9935, 24.3464], [123.9733, 24.3549]]], [[[124.0027, 24.3636], [123.9993, 24.367], [123.9958, 24.3643], [124.0009, 24.3602], [124.0043, 24.362], [124.0027, 24.3636]]], [[[124.0919, 24.3368], [124.0841, 24.34], [124.0759, 24.3252], [124.0824, 24.3121], [124.0915, 24.3131], [124.102, 24.3207], [124.095, 24.3359], [124.0919, 24.3368]]], [[[124.0017, 24.2545], [123.9925, 24.2499], [123.9911, 24.2417], [124.0042, 24.2214], [124.0126, 24.2211], [124.0274, 24.2307], [124.0298, 24.242], [124.024, 24.2504], [124.016, 24.2472], [124.0017, 24.2545]]], [[[123.9344, 24.2209], [123.9249, 24.2209], [123.9208, 24.2173], [123.9255, 24.2114], [123.9326, 24.209], [123.9367, 24.215], [123.9344, 24.2209]]], [[[123.9542, 24.2374], [123.9524, 24.2422], [123.9491, 24.2429], [123.9392, 24.236], [123.9363, 24.2254], [123.9416, 24.2258], [123.9542, 24.2374]]], [[[123.7868, 24.0717], [123.7762, 24.0713], [123.7541, 24.0628], [123.7535, 24.0525], [123.7596, 24.0488], [123.7882, 24.0457], [123.8052, 24.0497], [123.8101, 24.0594], [123.8093, 24.0649], [123.7868, 24.0717]]], [[[122.998, 24.4752], [123.0025, 24.4716], [123.0013, 24.47], [122.9949, 24.4732], [122.9741, 24.4672], [122.9614, 24.4721], [122.9542, 24.4662], [122.9542, 24.4609], [122.943, 24.4581], [122.9375, 24.4528], [122.94, 24.4511], [122.9418, 24.4534], [122.9411, 24.4488], [122.9349, 24.4509], [122.9339, 24.4487], [122.9402, 24.4441], [122.9481, 24.4443], [122.952, 24.4411], [122.9613, 24.4407], [122.9667, 24.4376], [122.9738, 24.4371], [122.9738, 24.4407], [122.982, 24.4382], [122.9845, 24.443], [122.9971, 24.4398], [123.0023, 24.4413], [123.0105, 24.4367], [123.0214, 24.4466], [123.031, 24.4505], [123.035, 24.4573], [123.0438, 24.4612], [123.0431, 24.4637], [123.0378, 24.463], [123.0126, 24.4737], [123.005, 24.4742], [123.0026, 24.4717], [122.998, 24.4752]]]]}, "properties": {"name": "沖縄県"}}]}