{"type": "FeatureCollection", "features": [{"type": "Feature", "geometry": {"type": "MultiPolygon", "coordinates": [[[[139.038, 37.9309], [139.0039, 37.911], [139.005, 37.9091], [138.9438, 37.8785], [138.9237, 37.8697], [138.9214, 37.8696], [138.9221, 37.8716], [138.921, 37.8707], [138.9217, 37.8684], [138.9239, 37.8684], [138.9218, 37.8681], [138.9232, 37.865], [138.9204, 37.8697], [138.9184, 37.8656], [138.8808, 37.8464], [138.8587, 37.831], [138.8491, 37.8219], [138.8422, 37.8168], [138.8392, 37.8129], [138.8334, 37.8081], [138.8319, 37.8098], [138.832, 37.8088], [138.8337, 37.8078], [138.8314, 37.8046], [138.8153, 37.787], [138.8157, 37.7817], [138.8064, 37.7608], [138.8011, 37.7554], [138.8023, 37.7523], [138.7997, 37.7516], [138.7988, 37.7454], [138.7936, 37.7435], [138.7959, 37.744], [138.7945, 37.7418], [138.7962, 37.7406], [138.7927, 37.743], [138.7943, 37.7407], [138.797, 37.7404], [138.7958, 37.7349], [138.7874, 37.7257], [138.7893, 37.7231], [138.7847, 37.7182], [138.7863, 37.704], [138.7752, 37.6741], [138.7756, 37.6692], [138.7826, 37.6657], [138.7733, 37.6644], [138.7682, 37.6482], [138.7617, 37.6476], [138.765, 37.6463], [138.7613, 37.6427], [138.7669, 37.6442], [138.7639, 37.6396], [138.7602, 37.64], [138.7578, 37.6457], [138.7605, 37.6393], [138.7626, 37.6387], [138.7483, 37.6058], [138.7329, 37.5914], [138.7269, 37.578], [138.7128, 37.5583], [138.6809, 37.54], [138.6811, 37.5428], [138.6807, 37.5401], [138.6554, 37.5208], [138.6479, 37.5058], [138.6419, 37.4989], [138.6339, 37.4951], [138.6326, 37.488], [138.6174, 37.4842], [138.6176, 37.4735], [138.6031, 37.4442], [138.5998, 37.4408], [138.5974, 37.4417], [138.5982, 37.44], [138.591, 37.4395], [138.593, 37.4373], [138.5982, 37.4399], [138.5896, 37.4244], [138.5875, 37.4302], [138.5899, 37.4338], [138.5886, 37.4321], [138.5861, 37.4342], [138.5855, 37.4405], [138.5845, 37.4371], [138.5859, 37.4341], [138.5885, 37.432], [138.5873, 37.4302], [138.5896, 37.4243], [138.5646, 37.3909], [138.5695, 37.3856], [138.5646, 37.3898], [138.5516, 37.3757], [138.5461, 37.3755], [138.5478, 37.3731], [138.5445, 37.3738], [138.5434, 37.3675], [138.5409, 37.3709], [138.543, 37.3761], [138.5381, 37.3663], [138.5305, 37.3653], [138.5362, 37.3699], [138.5391, 37.3775], [138.536, 37.3699], [138.5182, 37.3605], [138.5194, 37.3637], [138.5159, 37.3557], [138.5085, 37.357], [138.5068, 37.3537], [138.5008, 37.352], [138.4889, 37.3525], [138.4877, 37.3469], [138.4803, 37.3456], [138.4687, 37.3367], [138.4609, 37.3367], [138.4468, 37.3246], [138.4364, 37.3247], [138.4349, 37.3201], [138.3822, 37.2774], [138.3852, 37.2758], [138.3821, 37.2772], [138.3746, 37.2725], [138.3402, 37.2429], [138.3278, 37.2339], [138.3256, 37.2352], [138.3268, 37.233], [138.2878, 37.2055], [138.2806, 37.2228], [138.2219, 37.1905], [138.2334, 37.1751], [138.2135, 37.1688], [138.1984, 37.1713], [138.1691, 37.1622], [138.1516, 37.1611], [138.141, 37.1656], [138.1419, 37.164], [138.139, 37.1642], [138.1415, 37.1664], [138.1334, 37.1635], [138.1225, 37.1703], [138.1017, 37.174], [138.0961, 37.1729], [138.0879, 37.1682], [138.0899, 37.1685], [138.0879, 37.1652], [138.0869, 37.1684], [138.0857, 37.1607], [138.082, 37.1571], [138.0603, 37.1435], [138.0561, 37.1361], [138.0526, 37.1363], [138.053, 37.1326], [138.0517, 37.1342], [138.0488, 37.1279], [138.0261, 37.1154], [138.0051, 37.1152], [137.9984, 37.1127], [138.0005, 37.1121], [137.9995, 37.1091], [137.9992, 37.1115], [137.9951, 37.1111], [137.9991, 37.1156], [137.9889, 37.1043], [137.9796, 37.1013], [137.9677, 37.0913], [137.9495, 37.0861], [137.9427, 37.081], [137.9402, 37.0752], [137.9289, 37.072], [137.9112, 37.0589], [137.9039, 37.059], [137.8856, 37.0523], [137.8439, 37.0447], [137.8417, 37.0379], [137.8358, 37.0402], [137.8385, 37.0425], [137.8302, 37.0401], [137.8108, 37.0286], [137.77, 37.0184], [137.7033, 36.9945], [137.6802, 36.9907], [137.652, 36.9828], [137.6556, 36.9832], [137.6534, 36.9815], [137.6347, 36.98], [137.6653, 36.9548], [137.6666, 36.9501], [137.6732, 36.9507], [137.6881, 36.9433], [137.7112, 36.9441], [137.7132, 36.9343], [137.7204, 36.9267], [137.716, 36.9213], [137.7179, 36.9072], [137.7127, 36.9041], [137.7137, 36.8909], [137.7346, 36.8693], [137.7324, 36.858], [137.7351, 36.8556], [137.7329, 36.8447], [137.7345, 36.8313], [137.73, 36.8266], [137.7492, 36.8097], [137.7543, 36.7966], [137.7495, 36.78], [137.7614, 36.7709], [137.7617, 36.7667], [137.7758, 36.7738], [137.7845, 36.7743], [137.7912, 36.7785], [137.7935, 36.7867], [137.82, 36.7983], [137.8231, 36.8062], [137.8322, 36.8101], [137.8317, 36.8196], [137.8569, 36.844], [137.8576, 36.8528], [137.8683, 36.8628], [137.8766, 36.8666], [137.8782, 36.8734], [137.8688, 36.8774], [137.8667, 36.887], [137.8616, 36.8915], [137.8718, 36.9023], [137.8621, 36.908], [137.8632, 36.9127], [137.8681, 36.9159], [137.8934, 36.91], [137.9199, 36.9201], [137.9355, 36.9134], [137.9492, 36.9129], [137.953, 36.9052], [137.9578, 36.9028], [137.9623, 36.9021], [137.9658, 36.9044], [137.9698, 36.9108], [137.9762, 36.9084], [137.9916, 36.911], [138.0023, 36.9052], [138.0138, 36.904], [138.0159, 36.893], [138.022, 36.8905], [138.0268, 36.8925], [138.0312, 36.8913], [138.0325, 36.8809], [138.0209, 36.8634], [138.0136, 36.8605], [138.0202, 36.8424], [138.0032, 36.8266], [138.0169, 36.8189], [138.0289, 36.8172], [138.0357, 36.8082], [138.0455, 36.8098], [138.0516, 36.8076], [138.054, 36.8], [138.0707, 36.8052], [138.0752, 36.8108], [138.073, 36.8169], [138.0814, 36.8301], [138.0921, 36.8364], [138.0933, 36.8403], [138.0993, 36.8438], [138.1064, 36.844], [138.112, 36.8496], [138.1243, 36.8478], [138.1323, 36.8507], [138.1406, 36.8473], [138.1474, 36.8495], [138.1559, 36.8452], [138.1688, 36.8451], [138.176, 36.8478], [138.1772, 36.852], [138.201, 36.8558], [138.2136, 36.8712], [138.2137, 36.8677], [138.2192, 36.8656], [138.2348, 36.8638], [138.2339, 36.8661], [138.235, 36.8637], [138.2491, 36.8654], [138.2545, 36.8701], [138.2581, 36.8635], [138.268, 36.8606], [138.2715, 36.8555], [138.272, 36.8425], [138.2748, 36.841], [138.2876, 36.8458], [138.2897, 36.8526], [138.2917, 36.8517], [138.2961, 36.8562], [138.2885, 36.8686], [138.2993, 36.8868], [138.2953, 36.8885], [138.2902, 36.897], [138.2943, 36.9013], [138.2966, 36.911], [138.3175, 36.9252], [138.3296, 36.927], [138.3433, 36.9209], [138.3491, 36.9293], [138.3569, 36.9328], [138.3647, 36.9445], [138.3637, 36.9533], [138.3682, 36.9572], [138.3693, 36.9638], [138.3822, 36.9764], [138.3787, 36.9804], [138.3894, 36.9872], [138.3948, 36.9945], [138.3941, 36.9977], [138.3966, 36.9963], [138.4108, 36.9986], [138.4123, 37.0025], [138.4358, 37.0078], [138.4427, 37.013], [138.4538, 37.0168], [138.455, 37.0197], [138.4676, 37.0179], [138.4821, 37.0215], [138.4826, 37.0195], [138.4902, 37.0201], [138.4968, 37.0264], [138.5017, 37.0251], [138.5136, 37.0295], [138.5199, 37.0279], [138.5255, 37.0304], [138.5271, 37.0263], [138.5363, 37.021], [138.5594, 37.0231], [138.5693, 37.0157], [138.5706, 37.0056], [138.5732, 37.0048], [138.5758, 36.9962], [138.5866, 36.9881], [138.586, 36.9414], [138.583, 36.9286], [138.5916, 36.9253], [138.5884, 36.9141], [138.5965, 36.907], [138.6126, 36.9086], [138.6211, 36.9042], [138.6175, 36.8917], [138.6252, 36.8829], [138.6357, 36.8834], [138.6351, 36.8796], [138.638, 36.8802], [138.6445, 36.8751], [138.6509, 36.8748], [138.657, 36.8684], [138.6814, 36.8654], [138.693, 36.855], [138.6901, 36.8329], [138.6805, 36.8222], [138.6957, 36.808], [138.6843, 36.7882], [138.6718, 36.7837], [138.6688, 36.7789], [138.6709, 36.7715], [138.6801, 36.7662], [138.6879, 36.7656], [138.6914, 36.7584], [138.6919, 36.7459], [138.6957, 36.7386], [138.7031, 36.7366], [138.713, 36.7391], [138.7157, 36.7457], [138.7219, 36.7497], [138.7214, 36.7592], [138.727, 36.764], [138.7484, 36.7576], [138.7671, 36.7467], [138.778, 36.7476], [138.785, 36.7448], [138.7928, 36.7477], [138.7947, 36.7573], [138.8017, 36.7623], [138.81, 36.765], [138.8163, 36.7616], [138.8213, 36.7638], [138.827, 36.7723], [138.8249, 36.7759], [138.8314, 36.7939], [138.8266, 36.7997], [138.822, 36.8178], [138.8359, 36.8156], [138.8394, 36.8174], [138.8566, 36.8118], [138.8643, 36.8164], [138.8759, 36.8188], [138.8817, 36.8257], [138.9083, 36.8278], [138.9298, 36.833], [138.925, 36.8467], [138.9162, 36.8507], [138.9223, 36.8612], [138.9172, 36.871], [138.9225, 36.8836], [138.9305, 36.8872], [138.9321, 36.8936], [138.9411, 36.8954], [138.9498, 36.893], [138.9549, 36.8953], [138.9716, 36.8872], [138.9798, 36.8916], [138.98, 36.9053], [138.9739, 36.9127], [138.977, 36.9204], [138.9673, 36.9306], [138.9643, 36.9489], [138.9666, 36.979], [138.9703, 36.9814], [139.0005, 36.9793], [139.0156, 36.9884], [139.0303, 36.9837], [139.0474, 36.9873], [139.0543, 36.9984], [139.0736, 37.0087], [139.0804, 37.0089], [139.0911, 37.02], [139.0888, 37.0286], [139.0903, 37.0447], [139.0971, 37.0585], [139.1115, 37.0552], [139.1156, 37.0475], [139.123, 37.0473], [139.132, 37.0257], [139.1433, 37.0213], [139.1506, 37.0093], [139.1709, 37.0022], [139.1796, 36.9905], [139.1753, 36.9733], [139.1827, 36.9618], [139.1865, 36.9599], [139.1935, 36.961], [139.2061, 36.9558], [139.2143, 36.957], [139.2192, 36.9608], [139.2286, 36.9612], [139.2378, 36.9465], [139.2322, 36.9406], [139.2418, 36.9416], [139.2441, 36.948], [139.2418, 36.9499], [139.2466, 36.956], [139.2499, 36.9558], [139.2487, 36.9611], [139.2516, 36.9628], [139.2482, 36.9658], [139.2478, 36.9709], [139.2528, 36.9734], [139.2524, 36.9765], [139.2474, 36.9806], [139.2534, 36.9835], [139.2558, 36.9887], [139.2506, 37.0047], [139.2433, 37.0152], [139.2482, 37.0244], [139.2481, 37.0309], [139.2541, 37.0371], [139.2526, 37.0399], [139.2596, 37.0436], [139.2601, 37.0476], [139.2567, 37.0505], [139.2543, 37.0624], [139.2469, 37.0713], [139.249, 37.0808], [139.2389, 37.0898], [139.241, 37.0936], [139.2362, 37.1011], [139.2351, 37.1128], [139.2436, 37.1278], [139.2459, 37.1462], [139.253, 37.1584], [139.2503, 37.164], [139.2539, 37.1651], [139.2461, 37.1664], [139.247, 37.1699], [139.243, 37.1703], [139.2442, 37.1817], [139.2405, 37.1843], [139.2408, 37.1874], [139.2352, 37.1884], [139.2262, 37.198], [139.2269, 37.2034], [139.2217, 37.2049], [139.2207, 37.2091], [139.2177, 37.2095], [139.2089, 37.1961], [139.2049, 37.1938], [139.1966, 37.194], [139.1948, 37.2042], [139.1871, 37.2098], [139.1846, 37.216], [139.1726, 37.2249], [139.1648, 37.2362], [139.1748, 37.2565], [139.1779, 37.2568], [139.2053, 37.2835], [139.2128, 37.287], [139.2177, 37.3052], [139.2157, 37.3092], [139.2243, 37.3205], [139.218, 37.3342], [139.2279, 37.3431], [139.2336, 37.3437], [139.2336, 37.3584], [139.238, 37.3728], [139.2314, 37.3804], [139.2314, 37.3879], [139.2224, 37.3933], [139.2123, 37.3921], [139.2076, 37.3965], [139.2045, 37.406], [139.1971, 37.4108], [139.2082, 37.4168], [139.2075, 37.4289], [139.215, 37.442], [139.2235, 37.4491], [139.2353, 37.4449], [139.2511, 37.4525], [139.2565, 37.4507], [139.2581, 37.4469], [139.2777, 37.4528], [139.284, 37.4497], [139.3051, 37.4588], [139.3109, 37.4556], [139.3152, 37.4592], [139.326, 37.462], [139.3353, 37.4575], [139.3453, 37.4599], [139.3513, 37.4677], [139.3626, 37.4699], [139.3686, 37.4652], [139.3975, 37.4597], [139.4064, 37.4663], [139.4047, 37.4746], [139.4099, 37.4839], [139.4071, 37.4864], [139.4079, 37.4926], [139.414, 37.4968], [139.4105, 37.5023], [139.4139, 37.5102], [139.4275, 37.5113], [139.4293, 37.5148], [139.4398, 37.5136], [139.4579, 37.518], [139.4665, 37.5081], [139.4768, 37.5025], [139.4852, 37.5099], [139.4919, 37.512], [139.4999, 37.5124], [139.5137, 37.5087], [139.5235, 37.5147], [139.5427, 37.5112], [139.5648, 37.5019], [139.5852, 37.5129], [139.5906, 37.5279], [139.5787, 37.53], [139.5701, 37.5392], [139.5709, 37.5433], [139.5657, 37.5459], [139.5705, 37.5502], [139.5677, 37.5627], [139.5725, 37.5703], [139.5705, 37.5795], [139.5638, 37.5888], [139.5646, 37.5972], [139.5598, 37.6016], [139.5541, 37.6026], [139.5483, 37.6098], [139.5521, 37.6186], [139.5478, 37.6216], [139.5461, 37.6298], [139.5551, 37.6408], [139.5491, 37.6489], [139.5633, 37.6539], [139.5687, 37.653], [139.586, 37.6636], [139.5879, 37.6675], [139.5967, 37.6661], [139.6047, 37.6738], [139.6045, 37.6792], [139.6093, 37.6843], [139.6177, 37.6886], [139.6279, 37.6888], [139.6215, 37.701], [139.6242, 37.7101], [139.6328, 37.7163], [139.6317, 37.7198], [139.6384, 37.7214], [139.6428, 37.7276], [139.6496, 37.7291], [139.652, 37.7375], [139.6576, 37.7418], [139.6578, 37.7549], [139.6672, 37.7577], [139.6689, 37.7636], [139.6773, 37.7698], [139.6801, 37.7754], [139.6963, 37.785], [139.7053, 37.7962], [139.7134, 37.7989], [139.7215, 37.8094], [139.7415, 37.8182], [139.7362, 37.828], [139.7296, 37.8308], [139.7201, 37.8403], [139.7147, 37.8527], [139.7104, 37.8543], [139.6977, 37.8478], [139.6822, 37.8468], [139.6761, 37.854], [139.6594, 37.8619], [139.6567, 37.8647], [139.6577, 37.872], [139.6386, 37.88], [139.6317, 37.889], [139.6291, 37.8937], [139.632, 37.9008], [139.6262, 37.9088], [139.6284, 37.9123], [139.6242, 37.9186], [139.6321, 37.9305], [139.6394, 37.9347], [139.643, 37.9468], [139.6401, 37.9526], [139.6452, 37.9626], [139.6379, 37.9699], [139.6443, 37.9797], [139.6393, 37.9856], [139.6449, 37.9918], [139.6437, 37.9954], [139.6543, 37.9967], [139.6522, 38.0209], [139.6568, 38.0286], [139.6546, 38.0352], [139.6622, 38.0398], [139.6741, 38.0404], [139.68, 38.0431], [139.6818, 38.0492], [139.6901, 38.0527], [139.6922, 38.0567], [139.686, 38.0651], [139.6918, 38.0753], [139.6711, 38.0768], [139.6737, 38.0804], [139.6721, 38.0891], [139.6861, 38.0991], [139.688, 38.1073], [139.6835, 38.1091], [139.6938, 38.1158], [139.6905, 38.1196], [139.6883, 38.1348], [139.6923, 38.1486], [139.6907, 38.155], [139.6847, 38.1592], [139.6856, 38.1666], [139.682, 38.1716], [139.6863, 38.1754], [139.6878, 38.1823], [139.6961, 38.1854], [139.6983, 38.195], [139.7026, 38.1992], [139.6985, 38.203], [139.7131, 38.2066], [139.7232, 38.2054], [139.7311, 38.2008], [139.7387, 38.2019], [139.7547, 38.193], [139.7586, 38.1933], [139.7638, 38.1989], [139.776, 38.1981], [139.7864, 38.1923], [139.7905, 38.198], [139.8008, 38.2027], [139.8021, 38.2065], [139.8069, 38.2071], [139.8108, 38.2115], [139.819, 38.2128], [139.8385, 38.2236], [139.8471, 38.2247], [139.8598, 38.2309], [139.8687, 38.2482], [139.8758, 38.2526], [139.8763, 38.2615], [139.8999, 38.2758], [139.8988, 38.293], [139.8883, 38.3008], [139.8795, 38.3033], [139.8748, 38.3166], [139.8664, 38.3219], [139.8621, 38.3289], [139.8473, 38.3367], [139.8488, 38.3428], [139.8284, 38.3445], [139.8261, 38.3504], [139.8202, 38.3519], [139.8166, 38.3559], [139.8036, 38.355], [139.7896, 38.3488], [139.7849, 38.3529], [139.7704, 38.3532], [139.7613, 38.3611], [139.7504, 38.3593], [139.7321, 38.3719], [139.7287, 38.3768], [139.7311, 38.3814], [139.7224, 38.394], [139.7112, 38.3866], [139.7063, 38.3909], [139.7041, 38.4047], [139.7172, 38.4213], [139.72, 38.4508], [139.7148, 38.4592], [139.7151, 38.4638], [139.7191, 38.4664], [139.7134, 38.4697], [139.7115, 38.477], [139.7259, 38.4867], [139.7204, 38.493], [139.7216, 38.4961], [139.7101, 38.4996], [139.7025, 38.4993], [139.6931, 38.5069], [139.6804, 38.505], [139.6637, 38.5087], [139.6497, 38.5079], [139.647, 38.5105], [139.6374, 38.5116], [139.6313, 38.522], [139.6233, 38.5232], [139.6214, 38.5256], [139.6141, 38.5262], [139.5995, 38.5223], [139.5869, 38.5325], [139.5817, 38.5329], [139.5773, 38.5397], [139.5713, 38.5385], [139.5643, 38.5435], [139.5609, 38.5429], [139.5479, 38.5529], [139.5504, 38.5501], [139.548, 38.5401], [139.5355, 38.5198], [139.5237, 38.5069], [139.5178, 38.5049], [139.5201, 38.4993], [139.5151, 38.4905], [139.5091, 38.4886], [139.508, 38.4859], [139.5107, 38.4877], [139.5118, 38.4849], [139.5104, 38.4864], [139.5109, 38.4847], [139.5075, 38.4844], [139.5062, 38.4819], [139.508, 38.4832], [139.5087, 38.4812], [139.5034, 38.4756], [139.4957, 38.4547], [139.4828, 38.4455], [139.4819, 38.4324], [139.4676, 38.419], [139.4688, 38.4155], [139.4619, 38.4048], [139.4624, 38.4004], [139.4572, 38.3976], [139.4551, 38.3884], [139.4599, 38.3803], [139.4531, 38.3702], [139.4553, 38.3688], [139.4497, 38.3564], [139.4529, 38.3364], [139.4481, 38.3151], [139.4507, 38.3045], [139.4465, 38.2944], [139.4491, 38.2923], [139.4495, 38.2762], [139.4411, 38.2469], [139.4501, 38.2418], [139.4498, 38.2357], [139.4325, 38.2081], [139.4272, 38.1908], [139.4205, 38.1861], [139.43, 38.1911], [139.4306, 38.1943], [139.432, 38.1879], [139.4281, 38.1885], [139.4301, 38.1863], [139.4288, 38.1836], [139.4235, 38.1859], [139.4254, 38.1843], [139.4298, 38.1833], [139.4294, 38.1799], [139.409, 38.1497], [139.3685, 38.1019], [139.3708, 38.0989], [139.3675, 38.0996], [139.3355, 38.0676], [139.3059, 38.0438], [139.3084, 38.0405], [139.3048, 38.0439], [139.3037, 38.0417], [139.3024, 38.0429], [139.3032, 38.0412], [139.2785, 38.0233], [139.2539, 38.009], [139.2492, 38.0071], [139.2467, 38.0099], [139.243, 38.0097], [139.2466, 38.0097], [139.2496, 38.0063], [139.2459, 38.0046], [139.2461, 38.008], [139.2414, 38.0069], [139.2363, 38.0129], [139.2413, 38.0069], [139.2254, 38.0102], [139.2196, 38.0015], [139.1854, 38.0271], [139.0182, 37.9638], [139.038, 37.9309]]], [[[138.4522, 38.1496], [138.4609, 38.1633], [138.4702, 38.17], [138.4716, 38.1761], [138.4768, 38.1798], [138.4867, 38.2012], [138.4901, 38.2019], [138.4885, 38.2001], [138.4925, 38.2038], [138.4925, 38.2218], [138.5031, 38.2408], [138.5098, 38.2656], [138.5074, 38.2712], [138.5098, 38.2749], [138.508, 38.2958], [138.512, 38.3149], [138.5195, 38.3219], [138.5183, 38.3165], [138.5223, 38.3242], [138.517, 38.3251], [138.5146, 38.3321], [138.4881, 38.3305], [138.4865, 38.3308], [138.4854, 38.332], [138.4846, 38.3321], [138.4838, 38.3367], [138.4802, 38.3338], [138.4825, 38.3338], [138.4829, 38.3318], [138.4852, 38.332], [138.485, 38.3294], [138.4763, 38.3233], [138.4594, 38.3223], [138.4636, 38.3139], [138.4532, 38.3085], [138.4492, 38.2963], [138.4419, 38.2915], [138.4397, 38.2867], [138.444, 38.2777], [138.4372, 38.27], [138.4392, 38.2656], [138.4343, 38.2592], [138.4279, 38.2542], [138.4174, 38.2545], [138.4147, 38.2504], [138.4118, 38.2525], [138.4094, 38.2487], [138.4053, 38.2493], [138.4043, 38.2541], [138.4005, 38.2537], [138.3975, 38.2508], [138.399, 38.2452], [138.3905, 38.2399], [138.3914, 38.2371], [138.3874, 38.2325], [138.379, 38.2281], [138.3745, 38.2283], [138.3727, 38.2207], [138.3641, 38.2132], [138.3545, 38.2089], [138.3484, 38.2014], [138.3396, 38.2008], [138.3417, 38.1998], [138.3387, 38.198], [138.3354, 38.1998], [138.3246, 38.1987], [138.3268, 38.1946], [138.3166, 38.1787], [138.314, 38.1786], [138.3122, 38.1691], [138.3055, 38.1679], [138.3029, 38.1586], [138.297, 38.1573], [138.3022, 38.1523], [138.2911, 38.1426], [138.2904, 38.1342], [138.2857, 38.1334], [138.2845, 38.1308], [138.2811, 38.1314], [138.2791, 38.1263], [138.2684, 38.1207], [138.2722, 38.1205], [138.2729, 38.1168], [138.2681, 38.1127], [138.2678, 38.1088], [138.2609, 38.1046], [138.2608, 38.097], [138.2546, 38.0935], [138.2484, 38.096], [138.2494, 38.092], [138.2437, 38.0889], [138.246, 38.0863], [138.2418, 38.0866], [138.2397, 38.0806], [138.2468, 38.0795], [138.2487, 38.0762], [138.233, 38.0619], [138.2361, 38.0552], [138.2338, 38.0513], [138.2381, 38.0472], [138.2337, 38.0428], [138.2362, 38.0414], [138.2343, 38.0387], [138.2393, 38.0287], [138.2359, 38.0251], [138.2213, 38.0222], [138.2238, 38.0189], [138.2212, 38.0144], [138.2244, 38.013], [138.2224, 38.0106], [138.2274, 38.012], [138.2284, 38.0092], [138.2331, 38.0089], [138.2345, 38.0046], [138.2351, 37.9927], [138.2333, 37.9936], [138.2317, 37.9894], [138.2346, 37.9843], [138.2318, 37.9824], [138.2292, 37.9847], [138.2272, 37.9797], [138.23, 37.9796], [138.2342, 37.9735], [138.2486, 37.9683], [138.2493, 37.9654], [138.2549, 37.9647], [138.2595, 37.9802], [138.2633, 37.9824], [138.2624, 37.9856], [138.2542, 37.9854], [138.2529, 37.9879], [138.2601, 37.9886], [138.2628, 37.9855], [138.2725, 37.9926], [138.2729, 38.0014], [138.2756, 38.0036], [138.2814, 38.0066], [138.2825, 38.0043], [138.2852, 38.0068], [138.2987, 38.0074], [138.3152, 38.0017], [138.3269, 37.9927], [138.3409, 37.9787], [138.3437, 37.9656], [138.3401, 37.9591], [138.3326, 37.9561], [138.3332, 37.9588], [138.3295, 37.9498], [138.3077, 37.9412], [138.3009, 37.9313], [138.2847, 37.9203], [138.2853, 37.9161], [138.2783, 37.9073], [138.2809, 37.9018], [138.2892, 37.8979], [138.2882, 37.8884], [138.2908, 37.8869], [138.2844, 37.8792], [138.2824, 37.8672], [138.268, 37.8464], [138.2599, 37.8415], [138.2507, 37.8439], [138.2466, 37.8378], [138.2334, 37.8406], [138.2294, 37.8368], [138.2284, 37.839], [138.2246, 37.8388], [138.2252, 37.8353], [138.2159, 37.8381], [138.2137, 37.8313], [138.2058, 37.8285], [138.2078, 37.8251], [138.2041, 37.8214], [138.2093, 37.8163], [138.218, 37.8169], [138.2127, 37.8144], [138.2163, 37.8099], [138.2253, 37.8083], [138.2262, 37.8099], [138.2303, 37.806], [138.2356, 37.8085], [138.2357, 37.8063], [138.2424, 37.8061], [138.2414, 37.8038], [138.2461, 37.8048], [138.2441, 37.8024], [138.2614, 37.807], [138.2736, 37.8043], [138.2935, 37.805], [138.2942, 37.8025], [138.2998, 37.8108], [138.2984, 37.8215], [138.3041, 37.8238], [138.3017, 37.8238], [138.3053, 37.8282], [138.3095, 37.8233], [138.307, 37.827], [138.311, 37.8277], [138.318, 37.8277], [138.3233, 37.8246], [138.3395, 37.8267], [138.3443, 37.825], [138.3495, 37.8291], [138.3608, 37.8311], [138.3651, 37.8358], [138.3754, 37.8392], [138.3998, 37.8604], [138.4186, 37.8672], [138.4101, 37.8678], [138.4138, 37.8704], [138.4149, 37.8685], [138.4169, 37.8715], [138.4189, 37.869], [138.4187, 37.8732], [138.4274, 37.88], [138.4408, 37.8825], [138.4539, 37.8932], [138.464, 37.8929], [138.4706, 37.8967], [138.4732, 37.9029], [138.4853, 37.9113], [138.4802, 37.9093], [138.4891, 37.9193], [138.5007, 37.92], [138.4989, 37.9249], [138.5038, 37.9371], [138.503, 37.9445], [138.5107, 37.954], [138.5212, 37.9787], [138.5366, 37.9958], [138.5391, 38.0031], [138.5466, 38.0075], [138.5533, 38.0309], [138.5634, 38.0422], [138.5673, 38.0561], [138.5746, 38.0628], [138.5714, 38.064], [138.5728, 38.0685], [138.5701, 38.0742], [138.5728, 38.0785], [138.5685, 38.0841], [138.5626, 38.0853], [138.563, 38.088], [138.5533, 38.0812], [138.5492, 38.0833], [138.5483, 38.0807], [138.5383, 38.0801], [138.5356, 38.0822], [138.5328, 38.0746], [138.5306, 38.0757], [138.5258, 38.0724], [138.4967, 38.0708], [138.4477, 38.136], [138.4522, 38.1496]]], [[[139.2565, 38.4913], [139.252, 38.49], [139.2508, 38.4845], [139.2436, 38.4826], [139.2405, 38.4765], [139.2372, 38.4758], [139.2384, 38.4713], [139.2309, 38.466], [139.2317, 38.464], [139.2241, 38.4651], [139.2263, 38.4623], [139.221, 38.4592], [139.2245, 38.4567], [139.2249, 38.4536], [139.2223, 38.4533], [139.2252, 38.4489], [139.2174, 38.4475], [139.219, 38.4418], [139.215, 38.4373], [139.2227, 38.4358], [139.2271, 38.4375], [139.245, 38.4505], [139.2539, 38.4612], [139.2574, 38.4679], [139.2543, 38.4643], [139.2559, 38.4711], [139.2602, 38.4726], [139.2569, 38.4756], [139.2587, 38.4822], [139.2646, 38.4878], [139.2565, 38.4913]]]]}, "properties": {"name": "新潟県"}}]}