{"type": "FeatureCollection", "features": [{"type": "Feature", "geometry": {"type": "Polygon", "coordinates": [[[138.6215, 35.8704], [138.6067, 35.8785], [138.6124, 35.9095], [138.591, 35.9198], [138.5766, 35.9114], [138.5107, 35.9225], [138.4901, 35.8964], [138.4541, 35.8993], [138.444, 35.918], [138.4498, 35.9457], [138.373, 35.9718], [138.2839, 35.8594], [138.2516, 35.885], [138.2388, 35.883], [138.2056, 35.8157], [138.1855, 35.7956], [138.2368, 35.7579], [138.1802, 35.7142], [138.1937, 35.6971], [138.1935, 35.6722], [138.2187, 35.6445], [138.2306, 35.644], [138.2406, 35.5759], [138.2596, 35.5528], [138.2574, 35.5309], [138.269, 35.5143], [138.2438, 35.4577], [138.2596, 35.4316], [138.2583, 35.4073], [138.2321, 35.3712], [138.2513, 35.3637], [138.2516, 35.3257], [138.2841, 35.3044], [138.3254, 35.3275], [138.3586, 35.3177], [138.3731, 35.2997], [138.3671, 35.2702], [138.3862, 35.2464], [138.3987, 35.2004], [138.4184, 35.1994], [138.433, 35.1797], [138.4777, 35.1781], [138.4908, 35.1684], [138.5156, 35.1982], [138.5332, 35.2008], [138.5144, 35.262], [138.5218, 35.2839], [138.5122, 35.3134], [138.5351, 35.3303], [138.5318, 35.4093], [138.559, 35.4342], [138.5816, 35.4455], [138.5973, 35.433], [138.6093, 35.3932], [138.6636, 35.3983], [138.6805, 35.3577], [138.8209, 35.3736], [138.8511, 35.3906], [138.8737, 35.3818], [138.9167, 35.4006], [138.9303, 35.4205], [138.9277, 35.4379], [138.9544, 35.4601], [139.0279, 35.481], [139.0463, 35.5098], [139.0861, 35.5122], [139.1297, 35.5659], [139.1214, 35.587], [139.1345, 35.6168], [139.1235, 35.624], [139.1278, 35.6414], [139.117, 35.6546], [139.1306, 35.6728], [139.1076, 35.6903], [139.0723, 35.6955], [139.0248, 35.7199], [138.9843, 35.7679], [138.9698, 35.8313], [138.95, 35.8393], [138.9455, 35.8543], [138.9112, 35.8528], [138.8923, 35.8398], [138.8569, 35.865], [138.8136, 35.8623], [138.7921, 35.8755], [138.7797, 35.8996], [138.7284, 35.9094], [138.7078, 35.91], [138.6857, 35.894], [138.6761, 35.8699], [138.6576, 35.8758], [138.6215, 35.8704]]]}, "properties": {"name": "山梨県"}}]}