{"type": "FeatureCollection", "features": [{"type": "Feature", "geometry": {"type": "Polygon", "coordinates": [[[135.8492, 34.7061], [135.7916, 34.725], [135.7552, 34.7278], [135.7573, 34.7362], [135.732, 34.7573], [135.7298, 34.7775], [135.7117, 34.7812], [135.7102, 34.7533], [135.6967, 34.7436], [135.7042, 34.7236], [135.673, 34.7013], [135.679, 34.6779], [135.6498, 34.6078], [135.6755, 34.6022], [135.6819, 34.585], [135.6556, 34.5621], [135.6501, 34.5445], [135.6773, 34.5256], [135.673, 34.5032], [135.6851, 34.4856], [135.687, 34.4502], [135.6662, 34.4226], [135.6802, 34.4093], [135.6762, 34.3992], [135.6638, 34.3972], [135.6511, 34.3812], [135.6636, 34.3552], [135.6585, 34.3339], [135.6685, 34.324], [135.6725, 34.2815], [135.6812, 34.2704], [135.6923, 34.2784], [135.7163, 34.2655], [135.7302, 34.2284], [135.7081, 34.2082], [135.6688, 34.2248], [135.6434, 34.2157], [135.634, 34.1989], [135.645, 34.1907], [135.6419, 34.1832], [135.6206, 34.1683], [135.6219, 34.1582], [135.5884, 34.1469], [135.5788, 34.1161], [135.5473, 34.1003], [135.55, 34.0848], [135.5397, 34.0757], [135.5669, 34.0575], [135.5804, 34.0579], [135.5992, 34.0332], [135.5939, 34.0129], [135.6233, 34.0088], [135.6386, 33.9851], [135.6371, 33.9506], [135.6169, 33.9538], [135.6106, 33.9135], [135.6, 33.9084], [135.606, 33.8992], [135.6228, 33.8978], [135.6265, 33.8833], [135.6178, 33.872], [135.6479, 33.8769], [135.6606, 33.8975], [135.6865, 33.904], [135.724, 33.9032], [135.7561, 33.8852], [135.8016, 33.8959], [135.8085, 33.9066], [135.8516, 33.8943], [135.8534, 33.8768], [135.8621, 33.8765], [135.862, 33.8628], [135.8729, 33.8591], [135.8826, 33.8789], [135.8599, 33.8887], [135.8657, 33.9221], [135.8934, 33.9062], [135.8945, 33.9208], [135.909, 33.9185], [135.8924, 33.9461], [135.9219, 33.9784], [135.9387, 33.9809], [135.9415, 33.9753], [135.9849, 33.9918], [136.0197, 34.0367], [136.0317, 34.0318], [136.0437, 34.0407], [136.0525, 34.0321], [136.1044, 34.026], [136.0918, 34.0485], [136.0932, 34.0825], [136.1188, 34.0819], [136.1032, 34.0944], [136.0995, 34.1188], [136.1147, 34.16], [136.1044, 34.1736], [136.1089, 34.1851], [136.0926, 34.1902], [136.1182, 34.2143], [136.1096, 34.2281], [136.1318, 34.2519], [136.118, 34.2605], [136.1204, 34.2702], [136.0978, 34.2888], [136.0949, 34.3016], [136.1294, 34.3163], [136.1023, 34.3361], [136.0896, 34.3744], [136.069, 34.3945], [136.0962, 34.4354], [136.1291, 34.4453], [136.1515, 34.4419], [136.1585, 34.4491], [136.206, 34.4486], [136.2151, 34.4803], [136.2298, 34.4935], [136.2148, 34.5012], [136.2152, 34.5288], [136.1823, 34.5169], [136.1677, 34.5204], [136.1712, 34.5369], [136.1554, 34.5597], [136.1381, 34.5609], [136.1143, 34.5461], [136.1102, 34.5572], [136.0834, 34.5591], [136.048, 34.5817], [136.0465, 34.6008], [136.0764, 34.6341], [136.0644, 34.6522], [136.0867, 34.6755], [136.0749, 34.6981], [136.0537, 34.7047], [136.0711, 34.7151], [136.0551, 34.7387], [136.0431, 34.7363], [136.0286, 34.7065], [136.0135, 34.7077], [136.009, 34.7165], [135.9861, 34.7155], [135.9761, 34.7411], [135.9586, 34.7402], [135.9549, 34.7482], [135.9429, 34.7374], [135.9234, 34.7416], [135.9244, 34.7577], [135.8971, 34.7304], [135.8909, 34.7079], [135.8814, 34.7143], [135.8492, 34.7061]]]}, "properties": {"name": "奈良県"}}]}