{"type": "FeatureCollection", "features": [{"type": "Feature", "geometry": {"type": "MultiPolygon", "coordinates": [[[[131.4712, 31.9421], [131.5207, 32.0892], [131.5354, 32.1174], [131.5537, 32.1897], [131.5753, 32.2405], [131.5722, 32.2552], [131.5946, 32.3119], [131.6083, 32.3281], [131.6054, 32.3303], [131.6087, 32.3287], [131.6168, 32.3376], [131.6122, 32.3401], [131.6187, 32.3379], [131.6292, 32.3425], [131.6284, 32.3492], [131.6237, 32.3496], [131.6266, 32.3522], [131.6229, 32.3621], [131.6362, 32.371], [131.6308, 32.377], [131.6436, 32.4078], [131.653, 32.4098], [131.6528, 32.4137], [131.6697, 32.4119], [131.6699, 32.4163], [131.6859, 32.4181], [131.6821, 32.4211], [131.6899, 32.423], [131.6853, 32.4259], [131.6964, 32.4543], [131.6508, 32.4577], [131.6534, 32.4683], [131.6598, 32.4691], [131.6569, 32.4795], [131.6675, 32.4844], [131.6708, 32.4764], [131.6788, 32.4835], [131.6777, 32.4731], [131.6955, 32.4691], [131.6964, 32.4748], [131.7095, 32.4779], [131.7095, 32.4825], [131.7166, 32.4821], [131.7141, 32.4889], [131.7205, 32.4861], [131.7242, 32.4924], [131.7289, 32.492], [131.7253, 32.5003], [131.71, 32.5026], [131.7143, 32.5198], [131.7111, 32.516], [131.7004, 32.5178], [131.7009, 32.5057], [131.699, 32.5109], [131.6955, 32.507], [131.6976, 32.5104], [131.6926, 32.5151], [131.6878, 32.5134], [131.6923, 32.5075], [131.6829, 32.5078], [131.6834, 32.5163], [131.6897, 32.5197], [131.6821, 32.5347], [131.6881, 32.5574], [131.7116, 32.589], [131.7423, 32.5916], [131.7476, 32.6024], [131.7559, 32.6024], [131.7533, 32.6113], [131.7642, 32.6112], [131.7613, 32.6215], [131.7686, 32.6327], [131.7734, 32.6331], [131.7727, 32.6426], [131.7617, 32.6377], [131.7592, 32.6412], [131.7566, 32.6346], [131.7564, 32.6424], [131.7503, 32.645], [131.7633, 32.6416], [131.7679, 32.6457], [131.7644, 32.652], [131.7709, 32.6521], [131.763, 32.6542], [131.7623, 32.6582], [131.7729, 32.6585], [131.7771, 32.674], [131.7861, 32.674], [131.7851, 32.6634], [131.7901, 32.662], [131.7923, 32.6775], [131.8161, 32.6872], [131.8169, 32.7028], [131.8224, 32.7054], [131.8295, 32.7048], [131.8388, 32.6915], [131.8459, 32.6906], [131.853, 32.6972], [131.8566, 32.695], [131.8549, 32.7025], [131.8459, 32.7082], [131.8496, 32.7203], [131.8545, 32.7225], [131.8654, 32.7166], [131.8581, 32.7314], [131.8708, 32.7357], [131.877, 32.7338], [131.877, 32.739], [131.8856, 32.7459], [131.8469, 32.736], [131.8442, 32.7477], [131.8494, 32.7628], [131.8441, 32.7762], [131.8601, 32.8064], [131.8554, 32.8231], [131.8479, 32.8178], [131.8345, 32.8197], [131.8241, 32.8298], [131.8067, 32.8222], [131.7981, 32.8248], [131.7937, 32.8222], [131.7869, 32.8339], [131.7668, 32.839], [131.7414, 32.8344], [131.7357, 32.8311], [131.7289, 32.7986], [131.7158, 32.7881], [131.7116, 32.7727], [131.6953, 32.7747], [131.6688, 32.7667], [131.6246, 32.7746], [131.601, 32.7723], [131.5926, 32.7753], [131.5687, 32.7541], [131.5364, 32.7588], [131.5117, 32.7699], [131.5082, 32.7811], [131.5175, 32.8007], [131.5017, 32.8108], [131.5023, 32.8148], [131.486, 32.8217], [131.4752, 32.8372], [131.4644, 32.831], [131.4368, 32.8285], [131.4315, 32.8186], [131.4213, 32.812], [131.3893, 32.812], [131.366, 32.8035], [131.3486, 32.8109], [131.3498, 32.8244], [131.34, 32.8335], [131.3229, 32.8287], [131.2916, 32.8277], [131.2857, 32.8314], [131.2726, 32.8242], [131.2653, 32.8264], [131.2624, 32.8178], [131.255, 32.8158], [131.2549, 32.805], [131.2466, 32.7991], [131.2454, 32.7867], [131.2346, 32.7809], [131.2463, 32.7697], [131.2342, 32.7534], [131.235, 32.7442], [131.2121, 32.7288], [131.1957, 32.7258], [131.1805, 32.7126], [131.1819, 32.7062], [131.1725, 32.6848], [131.1751, 32.6719], [131.1628, 32.6717], [131.1514, 32.68], [131.1435, 32.6762], [131.1397, 32.6641], [131.1268, 32.6541], [131.1235, 32.6444], [131.1155, 32.642], [131.1198, 32.6293], [131.1162, 32.6099], [131.1206, 32.6051], [131.1135, 32.5914], [131.1059, 32.5891], [131.1082, 32.5821], [131.0911, 32.5786], [131.0541, 32.5879], [131.0445, 32.5834], [131.0377, 32.565], [131.0391, 32.5546], [131.0237, 32.5533], [131.018, 32.5467], [131.0256, 32.5207], [131.0092, 32.5151], [131.007, 32.4898], [131.0163, 32.4739], [131.0141, 32.4634], [131.02, 32.4389], [131.0434, 32.4083], [131.0679, 32.4076], [131.0732, 32.3914], [131.0695, 32.3841], [131.0798, 32.3742], [131.074, 32.3661], [131.0756, 32.357], [131.0893, 32.3504], [131.098, 32.3511], [131.0991, 32.3434], [131.1118, 32.3302], [131.0785, 32.2811], [131.0715, 32.2799], [131.0589, 32.2868], [131.0502, 32.2855], [131.0542, 32.2669], [131.0417, 32.2575], [131.047, 32.2442], [131.0569, 32.2461], [131.0717, 32.2369], [131.0689, 32.2256], [131.0773, 32.2213], [131.0838, 32.2069], [131.1004, 32.202], [131.1044, 32.1916], [131.1014, 32.173], [131.1089, 32.1601], [131.0971, 32.1522], [131.0717, 32.1603], [131.0582, 32.1552], [131.0372, 32.1702], [131.0217, 32.169], [131.0117, 32.1742], [130.9926, 32.158], [130.9959, 32.1557], [130.9928, 32.1481], [130.9744, 32.137], [130.9742, 32.1209], [130.9613, 32.1204], [130.9555, 32.1156], [130.9442, 32.1196], [130.9332, 32.116], [130.9059, 32.134], [130.8972, 32.126], [130.8691, 32.1149], [130.8623, 32.1017], [130.8572, 32.0997], [130.8381, 32.1071], [130.8274, 32.103], [130.8207, 32.0948], [130.7754, 32.102], [130.7595, 32.0969], [130.7513, 32.1041], [130.7419, 32.0979], [130.7351, 32.1089], [130.7206, 32.1008], [130.7159, 32.0859], [130.7034, 32.0768], [130.7033, 32.0583], [130.712, 32.0484], [130.7316, 32.0512], [130.7463, 32.0415], [130.7472, 32.0351], [130.759, 32.033], [130.7618, 32.0247], [130.7778, 32.0155], [130.782, 31.9831], [130.7945, 31.9733], [130.8012, 31.9605], [130.7999, 31.9496], [130.8158, 31.9414], [130.8415, 31.9427], [130.8657, 31.9339], [130.8824, 31.921], [130.8968, 31.8871], [130.9141, 31.8861], [130.9025, 31.8848], [130.8946, 31.8781], [130.8876, 31.861], [130.8882, 31.8486], [130.8741, 31.8424], [130.8821, 31.8317], [130.8776, 31.828], [130.8772, 31.8156], [130.8847, 31.8054], [130.9094, 31.8006], [130.9175, 31.8039], [130.9314, 31.7855], [130.9663, 31.7811], [130.9716, 31.7846], [130.9802, 31.7785], [130.9899, 31.7779], [130.9917, 31.771], [130.989, 31.7652], [130.9828, 31.7675], [130.9786, 31.7615], [130.9789, 31.7515], [130.9907, 31.751], [130.9981, 31.7459], [131.0152, 31.7488], [131.0179, 31.7456], [131.0132, 31.7131], [131.029, 31.6974], [131.0232, 31.686], [131.0265, 31.6809], [131.0237, 31.6748], [131.0288, 31.6744], [131.0255, 31.6668], [131.0458, 31.6529], [131.0544, 31.6332], [131.072, 31.658], [131.0785, 31.6604], [131.1156, 31.6301], [131.1383, 31.6274], [131.1504, 31.63], [131.1644, 31.6395], [131.1792, 31.6267], [131.1884, 31.6246], [131.1864, 31.6053], [131.2054, 31.5801], [131.2019, 31.567], [131.189, 31.5575], [131.1969, 31.5494], [131.2008, 31.5179], [131.1972, 31.5117], [131.1701, 31.5], [131.1601, 31.4594], [131.1683, 31.4588], [131.1764, 31.4497], [131.181, 31.4564], [131.2007, 31.4549], [131.2013, 31.4498], [131.2026, 31.4542], [131.2062, 31.4474], [131.2083, 31.4501], [131.2076, 31.4467], [131.2124, 31.4474], [131.2057, 31.4449], [131.2229, 31.4361], [131.2276, 31.4243], [131.2335, 31.4304], [131.2425, 31.4267], [131.2449, 31.42], [131.237, 31.4155], [131.2357, 31.4051], [131.2431, 31.3895], [131.2538, 31.3807], [131.2821, 31.3814], [131.2917, 31.3895], [131.2973, 31.3854], [131.3099, 31.3907], [131.3186, 31.3689], [131.3359, 31.3607], [131.3466, 31.3635], [131.3505, 31.3719], [131.3348, 31.3811], [131.3325, 31.3971], [131.3456, 31.3988], [131.3414, 31.4049], [131.3437, 31.4122], [131.3658, 31.4209], [131.372, 31.4301], [131.3711, 31.4487], [131.3639, 31.4558], [131.363, 31.4717], [131.3896, 31.4855], [131.388, 31.4916], [131.3836, 31.4906], [131.3855, 31.5024], [131.373, 31.5066], [131.377, 31.5134], [131.3702, 31.5199], [131.3783, 31.5197], [131.3851, 31.5107], [131.3817, 31.5163], [131.3867, 31.5242], [131.3814, 31.5254], [131.38, 31.5326], [131.3841, 31.5321], [131.3898, 31.5428], [131.3851, 31.5406], [131.3867, 31.546], [131.3811, 31.5454], [131.382, 31.5553], [131.3871, 31.56], [131.3881, 31.5571], [131.3976, 31.5589], [131.391, 31.5644], [131.3985, 31.5706], [131.4063, 31.5721], [131.408, 31.5661], [131.4123, 31.5702], [131.4138, 31.5787], [131.4078, 31.5905], [131.4234, 31.6093], [131.4564, 31.6243], [131.462, 31.6332], [131.4522, 31.6394], [131.4579, 31.6465], [131.4694, 31.6449], [131.4669, 31.6527], [131.4575, 31.6585], [131.4631, 31.6606], [131.4614, 31.6694], [131.4519, 31.6696], [131.456, 31.6759], [131.4498, 31.6794], [131.4688, 31.6864], [131.4658, 31.6926], [131.4556, 31.6972], [131.4632, 31.7047], [131.4587, 31.7072], [131.46, 31.7184], [131.4727, 31.7256], [131.4709, 31.731], [131.4628, 31.734], [131.4709, 31.7417], [131.469, 31.736], [131.4763, 31.7375], [131.4687, 31.7517], [131.4748, 31.7555], [131.4736, 31.7594], [131.4778, 31.7521], [131.4789, 31.7672], [131.4914, 31.7861], [131.4831, 31.7862], [131.4779, 31.7954], [131.4699, 31.7967], [131.4714, 31.8028], [131.4776, 31.8027], [131.4808, 31.8076], [131.4716, 31.8032], [131.4623, 31.8068], [131.4545, 31.8164], [131.4519, 31.8346], [131.4544, 31.8707], [131.4633, 31.8792], [131.4588, 31.8796], [131.4578, 31.8852], [131.4699, 31.8845], [131.477, 31.9411], [131.4712, 31.9421]]], [[[131.8186, 32.674], [131.8085, 32.6702], [131.8146, 32.6661], [131.8053, 32.665], [131.8154, 32.6613], [131.8106, 32.6602], [131.8133, 32.6573], [131.8232, 32.6571], [131.8224, 32.6531], [131.8368, 32.6684], [131.8332, 32.6714], [131.8219, 32.6687], [131.8186, 32.674]]], [[[131.8454, 32.6849], [131.8413, 32.6845], [131.8442, 32.6808], [131.8454, 32.6849]]], [[[131.4121, 31.5416], [131.4034, 31.5302], [131.4175, 31.5115], [131.4121, 31.5416]]], [[[131.3874, 31.4769], [131.3922, 31.4732], [131.3908, 31.4796], [131.3874, 31.4769]]], [[[131.3788, 31.4566], [131.3722, 31.4518], [131.3776, 31.4485], [131.3788, 31.4566]]], [[[131.6697, 32.4685], [131.6673, 32.4701], [131.6663, 32.4645], [131.6704, 32.4642], [131.6697, 32.4685]]]]}, "properties": {"name": "宮崎県"}}]}