{"type": "FeatureCollection", "features": [{"type": "Feature", "geometry": {"type": "Polygon", "coordinates": [[[140.2981, 37.8072], [140.2822, 37.7982], [140.2764, 37.7818], [140.266, 37.779], [140.2444, 37.7584], [140.2377, 37.7454], [140.2041, 37.7477], [140.1997, 37.7524], [140.1661, 37.7579], [140.146, 37.7527], [140.1406, 37.7383], [140.116, 37.7343], [140.102, 37.7378], [140.0866, 37.7579], [140.069, 37.7578], [140.0648, 37.7676], [140.0533, 37.7712], [140.0514, 37.7793], [140.038, 37.7683], [140.0195, 37.762], [139.9854, 37.761], [139.9601, 37.796], [139.9578, 37.8149], [139.9328, 37.8295], [139.9278, 37.8271], [139.9302, 37.8225], [139.9249, 37.8135], [139.9072, 37.8153], [139.8989, 37.8102], [139.8797, 37.8098], [139.8763, 37.8171], [139.858, 37.8267], [139.8379, 37.8147], [139.8216, 37.8121], [139.8099, 37.8033], [139.8042, 37.8061], [139.8032, 37.8152], [139.7948, 37.8178], [139.7828, 37.8319], [139.7415, 37.8202], [139.7364, 37.828], [139.7297, 37.8309], [139.7274, 37.8353], [139.7192, 37.8418], [139.7158, 37.8474], [139.7159, 37.854], [139.7066, 37.8561], [139.6971, 37.8488], [139.6812, 37.8471], [139.6979, 37.8479], [139.7142, 37.8534], [139.7155, 37.8473], [139.7201, 37.8401], [139.7415, 37.8179], [139.7215, 37.8095], [139.6962, 37.7847], [139.6806, 37.7756], [139.6667, 37.7573], [139.6579, 37.7551], [139.6586, 37.7445], [139.6495, 37.7291], [139.6316, 37.7198], [139.624, 37.7102], [139.6247, 37.6898], [139.6094, 37.6843], [139.5961, 37.6657], [139.5881, 37.6673], [139.5688, 37.6534], [139.5493, 37.6491], [139.5552, 37.6407], [139.5463, 37.6297], [139.5522, 37.6186], [139.5485, 37.6097], [139.5645, 37.5973], [139.5724, 37.5704], [139.5658, 37.5461], [139.5783, 37.5301], [139.5904, 37.5279], [139.5848, 37.5127], [139.5653, 37.502], [139.5231, 37.5145], [139.5138, 37.5086], [139.4967, 37.5126], [139.4858, 37.5104], [139.476, 37.5026], [139.4572, 37.5179], [139.4295, 37.5149], [139.4279, 37.5112], [139.4142, 37.5101], [139.4112, 37.5052], [139.414, 37.497], [139.4079, 37.4926], [139.4063, 37.466], [139.3976, 37.46], [139.3686, 37.4653], [139.3625, 37.4699], [139.3515, 37.4681], [139.3454, 37.4603], [139.3349, 37.4579], [139.326, 37.4623], [139.3108, 37.4557], [139.3049, 37.4589], [139.2841, 37.45], [139.2786, 37.4531], [139.2588, 37.4471], [139.2516, 37.4525], [139.2355, 37.4448], [139.2236, 37.4492], [139.2075, 37.429], [139.2085, 37.4167], [139.1974, 37.4111], [139.2124, 37.3919], [139.2225, 37.3933], [139.2315, 37.3879], [139.238, 37.3729], [139.2348, 37.3502], [139.2335, 37.3436], [139.2179, 37.3343], [139.2243, 37.3201], [139.2157, 37.309], [139.2131, 37.2876], [139.1749, 37.2565], [139.1647, 37.2377], [139.1944, 37.2047], [139.1966, 37.1941], [139.2082, 37.1956], [139.2211, 37.2091], [139.226, 37.1978], [139.2445, 37.1814], [139.2433, 37.1702], [139.2538, 37.1651], [139.2351, 37.1117], [139.2389, 37.0897], [139.2488, 37.0813], [139.2469, 37.0713], [139.2599, 37.0476], [139.2432, 37.0151], [139.2558, 36.9887], [139.2474, 36.9807], [139.2528, 36.9737], [139.2479, 36.971], [139.25, 36.956], [139.2419, 36.9499], [139.2418, 36.9416], [139.2307, 36.9405], [139.2308, 36.9368], [139.2426, 36.9295], [139.2566, 36.9333], [139.2664, 36.9412], [139.2819, 36.9313], [139.2948, 36.9346], [139.3062, 36.9252], [139.3421, 36.9278], [139.3503, 36.919], [139.3495, 36.9131], [139.3727, 36.9184], [139.3832, 36.9113], [139.3933, 36.9108], [139.4081, 36.9266], [139.4304, 36.9259], [139.4345, 36.9418], [139.457, 36.9541], [139.4613, 36.9707], [139.4842, 36.9757], [139.4942, 36.9679], [139.5236, 36.9816], [139.5352, 36.9807], [139.5476, 36.9934], [139.5547, 36.9925], [139.5569, 36.9968], [139.5768, 37.0023], [139.5824, 37.0152], [139.5956, 37.0118], [139.6025, 37.0157], [139.617, 37.0154], [139.6257, 37.0333], [139.6386, 37.0323], [139.6558, 37.0421], [139.6647, 37.04], [139.6726, 37.0578], [139.6919, 37.0625], [139.7005, 37.0596], [139.7191, 37.071], [139.7526, 37.0705], [139.7629, 37.0757], [139.775, 37.0919], [139.822, 37.0852], [139.8183, 37.0963], [139.8213, 37.1083], [139.815, 37.1166], [139.8318, 37.1337], [139.8387, 37.1332], [139.8461, 37.1392], [139.8561, 37.1379], [139.8661, 37.1473], [139.877, 37.146], [139.8945, 37.1532], [139.9026, 37.154], [139.9161, 37.1475], [139.9533, 37.1551], [139.9611, 37.1533], [139.9621, 37.1488], [139.9899, 37.1427], [140.0169, 37.1393], [140.0232, 37.1431], [140.0385, 37.1393], [140.0592, 37.1254], [140.0655, 37.1273], [140.0895, 37.1215], [140.0974, 37.1243], [140.1278, 37.1038], [140.1404, 37.1045], [140.1493, 37.0927], [140.1566, 37.0914], [140.1531, 37.0863], [140.1585, 37.0805], [140.1726, 37.0703], [140.1948, 37.0633], [140.1906, 37.0568], [140.2002, 37.0463], [140.1955, 37.0364], [140.2033, 37.024], [140.22, 37.019], [140.2239, 37.0238], [140.2494, 37.0252], [140.252, 37.0102], [140.2451, 37.0099], [140.2462, 37.0049], [140.2402, 37.0003], [140.2441, 36.9913], [140.2503, 36.9889], [140.2438, 36.9737], [140.2529, 36.9629], [140.2446, 36.9572], [140.241, 36.9455], [140.273, 36.9301], [140.2847, 36.9354], [140.2926, 36.9331], [140.3219, 36.908], [140.3265, 36.8913], [140.3463, 36.8849], [140.3651, 36.8845], [140.3725, 36.871], [140.3687, 36.8593], [140.3771, 36.8381], [140.3927, 36.8325], [140.4149, 36.8321], [140.4309, 36.8171], [140.4384, 36.8216], [140.4642, 36.7915], [140.4784, 36.7971], [140.4894, 36.8096], [140.4881, 36.8184], [140.5014, 36.8181], [140.5044, 36.8232], [140.514, 36.8235], [140.5194, 36.8364], [140.5291, 36.8401], [140.5278, 36.8483], [140.5381, 36.8591], [140.5648, 36.862], [140.5755, 36.8692], [140.5827, 36.868], [140.5886, 36.8749], [140.592, 36.873], [140.5933, 36.8801], [140.58, 36.8936], [140.5809, 36.9041], [140.5719, 36.9124], [140.5649, 36.9129], [140.5706, 36.9314], [140.5673, 36.9363], [140.5753, 36.9425], [140.5868, 36.9457], [140.5939, 36.9389], [140.5927, 36.9267], [140.6013, 36.9228], [140.6154, 36.9033], [140.6277, 36.9028], [140.637, 36.8976], [140.6549, 36.9011], [140.656, 36.8972], [140.695, 36.8888], [140.7212, 36.8707], [140.7407, 36.8757], [140.7585, 36.8672], [140.7598, 36.8722], [140.7594, 36.8668], [140.7654, 36.8629], [140.7656, 36.8684], [140.7671, 36.8614], [140.7721, 36.8636], [140.7672, 36.8678], [140.771, 36.8649], [140.7708, 36.868], [140.7773, 36.8677], [140.7862, 36.8622], [140.787, 36.8562], [140.7934, 36.859], [140.7884, 36.8653], [140.7922, 36.8815], [140.8179, 36.911], [140.8256, 36.9135], [140.8414, 36.9088], [140.8541, 36.9204], [140.8649, 36.9162], [140.9102, 36.9356], [140.9234, 36.9348], [140.9371, 36.9525], [140.9516, 36.9555], [140.9571, 36.9653], [140.9695, 36.9731], [140.965, 36.9774], [140.9725, 36.992], [140.983, 36.9955], [140.9782, 37.0066], [140.9811, 37.0106], [140.9758, 37.0112], [140.9729, 37.0214], [140.9746, 37.0567], [140.987, 37.0983], [141.0014, 37.108], [140.998, 37.133], [141.0054, 37.1447], [140.9999, 37.1491], [141.005, 37.1474], [140.9969, 37.1729], [141.0007, 37.1734], [141.0015, 37.2006], [141.0129, 37.2292], [141.0223, 37.2291], [141.0246, 37.2324], [141.0163, 37.2301], [141.0164, 37.2346], [141.0231, 37.2349], [141.0207, 37.2404], [141.0142, 37.2405], [141.0127, 37.2509], [141.0157, 37.2767], [141.0261, 37.3041], [141.0226, 37.3095], [141.0384, 37.3186], [141.0278, 37.3136], [141.0274, 37.3223], [141.0365, 37.3188], [141.0252, 37.3245], [141.0391, 37.364], [141.0372, 37.3823], [141.035, 37.3828], [141.0345, 37.3855], [141.0341, 37.3858], [141.0271, 37.3843], [141.0324, 37.3858], [141.0341, 37.3859], [141.0345, 37.3857], [141.0337, 37.419], [141.0371, 37.4197], [141.0428, 37.4233], [141.0365, 37.4198], [141.0371, 37.4239], [141.0345, 37.4257], [141.0363, 37.4304], [141.0341, 37.4306], [141.0392, 37.4533], [141.0359, 37.4708], [141.0447, 37.4815], [141.0411, 37.4836], [141.0452, 37.4839], [141.0398, 37.4868], [141.0302, 37.5292], [141.0246, 37.5704], [141.0272, 37.6021], [141.0209, 37.6262], [141.0244, 37.6423], [141.0178, 37.6621], [141.0329, 37.667], [141.0224, 37.6644], [141.0193, 37.6718], [141.0245, 37.6729], [141.0153, 37.6713], [141.0106, 37.7425], [141.0005, 37.763], [140.9894, 37.7716], [140.9872, 37.8228], [140.9767, 37.8271], [140.972, 37.8459], [140.9765, 37.8471], [140.9676, 37.8759], [140.9484, 37.8722], [140.9464, 37.8521], [140.9389, 37.8752], [140.9359, 37.8717], [140.9385, 37.8761], [140.9321, 37.8802], [140.9309, 37.8966], [140.9202, 37.8924], [140.9148, 37.8982], [140.9018, 37.8975], [140.9003, 37.9043], [140.8694, 37.8963], [140.856, 37.8909], [140.8598, 37.8885], [140.8562, 37.8823], [140.8623, 37.8806], [140.8545, 37.8743], [140.8615, 37.8616], [140.8503, 37.8502], [140.8582, 37.8151], [140.8536, 37.8098], [140.8579, 37.8033], [140.8551, 37.7976], [140.8304, 37.7949], [140.8216, 37.799], [140.8102, 37.7956], [140.7751, 37.8064], [140.7652, 37.7966], [140.7725, 37.7975], [140.7949, 37.7811], [140.8037, 37.7798], [140.797, 37.7743], [140.7454, 37.7885], [140.727, 37.7814], [140.7232, 37.7928], [140.7094, 37.8016], [140.6944, 37.803], [140.6851, 37.8157], [140.6842, 37.8306], [140.6789, 37.8366], [140.6918, 37.8507], [140.6872, 37.8713], [140.6818, 37.8756], [140.6901, 37.888], [140.6669, 37.8953], [140.6628, 37.9003], [140.6479, 37.8988], [140.6445, 37.8948], [140.628, 37.8987], [140.6142, 37.9154], [140.5915, 37.9063], [140.5661, 37.9224], [140.5592, 37.9101], [140.5314, 37.9055], [140.522, 37.909], [140.5149, 37.9033], [140.5033, 37.9059], [140.4881, 37.8996], [140.4694, 37.9182], [140.4674, 37.9381], [140.4748, 37.9468], [140.4616, 37.9526], [140.4481, 37.951], [140.4445, 37.9571], [140.4291, 37.9545], [140.4092, 37.9638], [140.4074, 37.9738], [140.3983, 37.9744], [140.3884, 37.9691], [140.3847, 37.9523], [140.359, 37.959], [140.3498, 37.9502], [140.336, 37.9552], [140.3338, 37.9515], [140.3281, 37.9586], [140.3164, 37.9582], [140.3139, 37.9645], [140.3085, 37.9636], [140.2802, 37.9767], [140.2712, 37.967], [140.281, 37.9414], [140.2765, 37.9263], [140.2645, 37.912], [140.2707, 37.8909], [140.2647, 37.8859], [140.2699, 37.8665], [140.2654, 37.862], [140.2671, 37.8475], [140.2619, 37.8343], [140.2689, 37.8244], [140.2915, 37.815], [140.2981, 37.8072]]]}, "properties": {"name": "福島県"}}]}